[{"id":"9","sname":"Aldi Ayr","postcode":"0","longitude":"-4.6310297","latitude":"55.4665225","tel":"0","address":"33 Main St - KA8 Ayr"},{"id":"22265","sname":"Aldi Westhill","postcode":"0","longitude":"-2.2795638","latitude":"57.1569419","tel":"0","address":"Westhill Drive - AB32 Westhill"},{"id":"22266","sname":"Aldi Aberdeen","postcode":"0","longitude":"-2.0796693","latitude":"57.1489953","tel":"0","address":"Unit 9-10 Boulevard Retail Park, Links Road - AB11 Aberdeen"},{"id":"22267","sname":"Aldi Forfar","postcode":"0","longitude":"-2.8952677","latitude":"56.6473860","tel":"0","address":"Craig O'loch Road - DD8 Forfar"},{"id":"22268","sname":"Aldi Dundee","postcode":"0","longitude":"-2.9236471","latitude":"56.4739486","tel":"0","address":"Arbroath Road - DD4 Dundee"},{"id":"22269","sname":"Aldi Elgin","postcode":"0","longitude":"-3.3169032","latitude":"57.6504690","tel":"0","address":"Trinity Place - IV30 Elgin"},{"id":"22270","sname":"Aldi St Andrews","postcode":"0","longitude":"-2.8036783","latitude":"56.3304725","tel":"0","address":"Tom Stewart Lane - KY16 St Andrews"},{"id":"22271","sname":"ALDI Peterborough","postcode":"0","longitude":"-0.2619576","latitude":"52.5948436","tel":"0","address":"Unit 1A Maskew Retail Park - PE1 Peterborough"},{"id":"22272","sname":"Aldi Glenrothes","postcode":"0","longitude":"-3.1609354","latitude":"56.1981187","tel":"0","address":"Flemington Road - KY7 Glenrothes"},{"id":"22273","sname":"Aldi Kirkcaldy","postcode":"0","longitude":"-3.1412939","latitude":"56.1269090","tel":"0","address":"Mckenzie Street - KY1 Kirkcaldy"},{"id":"22274","sname":"Aldi Kirkcaldy","postcode":"0","longitude":"-3.1699665","latitude":"56.1128324","tel":"0","address":"Ferrad Road, Kirkcaldy, Fife - KY2 Kirkcaldy"},{"id":"22275","sname":"Aldi Inverness","postcode":"0","longitude":"-4.2361761","latitude":"57.4812952","tel":"0","address":"Friars Bridge - IV3 Inverness"},{"id":"22276","sname":"Aldi Haddington","postcode":"0","longitude":"-2.7673610","latitude":"55.9564451","tel":"0","address":"Whittinghame Drive, East Lothian - EH41 Haddington"},{"id":"22277","sname":"Aldi Dunfermline","postcode":"0","longitude":"-3.4436426","latitude":"56.0754185","tel":"0","address":"18 Halbeath Road - KY12 Dunfermline"},{"id":"22278","sname":"Aldi Dunfermline","postcode":"0","longitude":"-3.4521510","latitude":"56.0717410","tel":"0","address":"Nightingale Place, Dulloch Park - KY11 Dunfermline"},{"id":"22279","sname":"Aldi Musselburgh","postcode":"0","longitude":"-3.0741395","latitude":"55.9402566","tel":"0","address":"Newhailes Road - EH21 Musselburgh"},{"id":"22280","sname":"Aldi Edinburgh","postcode":"0","longitude":"-3.2393795","latitude":"55.9363424","tel":"0","address":"100 Gorgie Park Road - EH11 Edinburgh"},{"id":"22281","sname":"Aldi Alloa","postcode":"0","longitude":"-3.7830972","latitude":"56.1190780","tel":"0","address":"Whins Road - FK10 Alloa"},{"id":"22282","sname":"Aldi Berwick-upon-Tweed","postcode":"0","longitude":"-2.0111158","latitude":"55.7812453","tel":"0","address":"North Road - TD15 Berwick-upon-Tweed"},{"id":"22283","sname":"Aldi Stirling","postcode":"0","longitude":"-3.9288149","latitude":"56.1139829","tel":"0","address":"2B Springbank Road - FK7 Stirling"},{"id":"22284","sname":"Aldi Linlithgow","postcode":"0","longitude":"-3.6213645","latitude":"55.9753484","tel":"0","address":"53 Falkirk Road - EH49 Linlithgow"},{"id":"22285","sname":"Aldi Glasgow","postcode":"0","longitude":"-4.2406198","latitude":"55.8591221","tel":"0","address":"132, 136, 140 High Street - G1 Glasgow"},{"id":"22286","sname":"Aldi Rutherglen","postcode":"0","longitude":"-4.2195037","latitude":"55.8261822","tel":"0","address":"Harriet Street - G73 Rutherglen"},{"id":"22287","sname":"ALDI Glasgow","postcode":"0","longitude":"-4.2968931","latitude":"55.8216347","tel":"0","address":"Unit 6, Auldhouse Retail Park, Glasgow - G43 Glasgow"},{"id":"22288","sname":"ALDI Glasgow","postcode":"0","longitude":"-4.1614242","latitude":"55.8518156","tel":"0","address":"1305 Shettleston Rd - G32 Glasgow"},{"id":"22289","sname":"Aldi Glasgow","postcode":"0","longitude":"-4.3393370","latitude":"55.8942794","tel":"0","address":"4 Knightscliffe Avenuegreat Western Road - G13 Glasgow"},{"id":"22290","sname":"Aldi Clydebank","postcode":"0","longitude":"-4.4001630","latitude":"55.9021054","tel":"0","address":"Unit 6, Kilbowie Retail Pk, Argyll Road - G81 Clydebank"},{"id":"22291","sname":"Aldi Paisley","postcode":"0","longitude":"-4.4619621","latitude":"55.8387182","tel":"0","address":"4 Fulbar Road - PA2 Paisley"},{"id":"22292","sname":"Aldi Erskine","postcode":"0","longitude":"-4.4485123","latitude":"55.9038738","tel":"0","address":"Bridgewater Shopping Centre - PA8 Erskine"},{"id":"22293","sname":"Aldi Hamilton","postcode":"0","longitude":"-4.0573272","latitude":"55.7765414","tel":"0","address":"70 Wellhall Road - ML3 Hamilton"},{"id":"22294","sname":"Aldi Bellshill","postcode":"0","longitude":"-4.0095379","latitude":"55.8203720","tel":"0","address":"14 Unthank Road - ML4 Bellshill"},{"id":"22295","sname":"Aldi Airdrie","postcode":"0","longitude":"-3.9833406","latitude":"55.8683695","tel":"0","address":"20 High Street - ML6 Airdrie"},{"id":"22296","sname":"Aldi Wishaw","postcode":"0","longitude":"-3.9406714","latitude":"55.7751480","tel":"0","address":"109 Glasgow Road - ML2 Wishaw"},{"id":"22297","sname":"Aldi Alexandria","postcode":"0","longitude":"-4.5782903","latitude":"55.9868355","tel":"0","address":"80 Bank Street - G83 Alexandria"},{"id":"22298","sname":"Aldi Carluke","postcode":"0","longitude":"-3.8395274","latitude":"55.7321961","tel":"0","address":"Kirkton Street - ML8 Carluke"},{"id":"22299","sname":"ALDI Kilmarnock","postcode":"0","longitude":"-4.4977870","latitude":"55.6029697","tel":"0","address":"7 W Netherton St - KA1 Kilmarnock"},{"id":"22300","sname":"ALDI Nottingham","postcode":"0","longitude":"-1.1248819","latitude":"52.9468597","tel":"0","address":"Daleside Rd - NG2 Nottingham"},{"id":"22301","sname":"Aldi Prestwick","postcode":"0","longitude":"-4.6174203","latitude":"55.4849436","tel":"0","address":"135 - 147 Ayr Road - KA9 Prestwick"},{"id":"22302","sname":"Aldi Saltcoats","postcode":"0","longitude":"-4.7877584","latitude":"55.6323727","tel":"0","address":"The Braes - KA21 Saltcoats"},{"id":"22303","sname":"Aldi Dumfries","postcode":"0","longitude":"-3.5874626","latitude":"55.0696803","tel":"0","address":"Annan Road - DG1 Dumfries"},{"id":"22304","sname":"Aldi Carlisle","postcode":"0","longitude":"-2.9439518","latitude":"54.9203494","tel":"0","address":"Kingstown Road - CA3 Carlisle"},{"id":"22305","sname":"Aldi Cockermouth","postcode":"0","longitude":"-3.3750722","latitude":"54.6637692","tel":"0","address":"Low Road - CA13 Cockermouth"},{"id":"22306","sname":"Aldi Workington","postcode":"0","longitude":"-3.5650938","latitude":"54.6430251","tel":"0","address":"Derwent Drive - CA14 Workington"},{"id":"22307","sname":"Aldi Carlisle","postcode":"0","longitude":"-2.9102944","latitude":"54.8747956","tel":"0","address":"Petterill Bank Road - CA1 Carlisle"},{"id":"22308","sname":"Aldi Newton Stewart","postcode":"0","longitude":"-4.4823011","latitude":"54.9561090","tel":"0","address":"Goods Lane - DG8 Newton Stewart"},{"id":"22309","sname":"Aldi Whitehaven","postcode":"0","longitude":"-3.5901356","latitude":"54.5430252","tel":"0","address":"Preston Street - CA28 Whitehaven"},{"id":"22310","sname":"ALDI Penrith","postcode":"0","longitude":"-2.7598539","latitude":"54.6597478","tel":"0","address":"Cavendish Way - CA11 Penrith"},{"id":"22311","sname":"Aldi Galashiels","postcode":"0","longitude":"-2.8216697","latitude":"55.6225681","tel":"0","address":"King Street - TD1 Galashiels"},{"id":"22312","sname":"Aldi Livingston","postcode":"0","longitude":"-3.5171185","latitude":"55.8812122","tel":"0","address":"Almondvale Road - EH54 Livingston"},{"id":"22313","sname":"Aldi Bathgate","postcode":"0","longitude":"-3.6456100","latitude":"55.9008790","tel":"0","address":"4 Gardners Lane - EH48 Bathgate"},{"id":"22314","sname":"Aldi Llangefni","postcode":"0","longitude":"-4.3096234","latitude":"53.2549467","tel":"0","address":"Mill Street, Llangefni - LL77 Llangefni"},{"id":"22315","sname":"Aldi Bangor","postcode":"0","longitude":"-4.1239353","latitude":"53.2322836","tel":"0","address":"Garth Road - LL57 Bangor"},{"id":"22316","sname":"Aldi Barrow-in-Furness","postcode":"0","longitude":"-3.2335527","latitude":"54.1128465","tel":"0","address":"Hindpool Road, Hollywood Retail Park - LA14 Barrow-in-Furness"},{"id":"22317","sname":"Aldi Barrow-in-Furness","postcode":"0","longitude":"-3.2109467","latitude":"54.1154979","tel":"0","address":"148 Risedale Road - LA13 Barrow-in-Furness"},{"id":"22318","sname":"Aldi Newcastle Upon Tyne","postcode":"0","longitude":"-1.6581527","latitude":"54.9927314","tel":"0","address":"Mckendrick Villas - NE5 Newcastle Upon Tyne"},{"id":"22319","sname":"ALDI Gateshead","postcode":"0","longitude":"-1.5951507","latitude":"54.9587762","tel":"0","address":"Sunderland Rd - NE8 Gateshead"},{"id":"22320","sname":"Aldi Wallsend","postcode":"0","longitude":"-1.5386927","latitude":"54.9907096","tel":"0","address":"113 High St W - NE28 Wallsend"},{"id":"22321","sname":"Aldi Pelaw","postcode":"0","longitude":"-1.5485900","latitude":"54.9528400","tel":"0","address":"Shields Road, Pelaw,Felling - NE10 Pelaw"},{"id":"22322","sname":"Aldi Westerhope","postcode":"0","longitude":"-1.7060635","latitude":"55.0038427","tel":"0","address":"Stamfordham Road - NE5 Westerhope"},{"id":"22323","sname":"ALDI Washington","postcode":"0","longitude":"-1.5438171","latitude":"54.9081485","tel":"0","address":"1 Armstrong Rd - NE37 Washington"},{"id":"22324","sname":"Aldi Washington","postcode":"0","longitude":"-1.5327237","latitude":"54.9000963","tel":"0","address":"Galleries Ret Pk - NE38 Washington"},{"id":"22325","sname":"Aldi South Shields","postcode":"0","longitude":"-1.4311428","latitude":"54.9885862","tel":"0","address":"Chichester Rd - NE33 South Shields"},{"id":"22326","sname":"Aldi Cramlington","postcode":"0","longitude":"-1.5808000","latitude":"55.0861360","tel":"0","address":"Cumbrian Road - NE23 Cramlington"},{"id":"22327","sname":"Aldi Chester Le Street","postcode":"0","longitude":"-1.5713498","latitude":"54.8601565","tel":"0","address":"Picktree Lane - DH3 Chester Le Street"},{"id":"22328","sname":"Aldi Sunderland","postcode":"0","longitude":"-1.4294081","latitude":"54.9178862","tel":"0","address":"Hylton Riverside Retail Park, Timber Beach Road - SR5 Sunderland"},{"id":"22329","sname":"Aldi Sunderland","postcode":"0","longitude":"-1.4000803","latitude":"54.9039386","tel":"0","address":"St Marks Road - SR4 Sunderland"},{"id":"22330","sname":"Aldi Blyth","postcode":"0","longitude":"-1.5373517","latitude":"55.1305111","tel":"0","address":"Cowpen Road - NE24 Blyth"},{"id":"22331","sname":"Aldi Consett","postcode":"0","longitude":"-1.8588068","latitude":"54.8714657","tel":"0","address":"Front Street - DH8 Consett"},{"id":"22332","sname":"Aldi Durham","postcode":"0","longitude":"-1.5412746","latitude":"54.7759715","tel":"0","address":"Dragonville Retail Park - DH1 Durham"},{"id":"22333","sname":"Aldi Seaham","postcode":"0","longitude":"-1.3337473","latitude":"54.8381223","tel":"0","address":"North Railway Street - SR7 Seaham"},{"id":"22334","sname":"Aldi Ashington","postcode":"0","longitude":"-1.5939097","latitude":"55.1849928","tel":"0","address":"Morpeth Road - NE63 Ashington"},{"id":"22335","sname":"Aldi Peterlee","postcode":"0","longitude":"-1.3343927","latitude":"54.7570372","tel":"0","address":"Unit 1 Castledene Shopping Centre, Bede Way - SR8 Peterlee"},{"id":"22336","sname":"ALDI St Helens","postcode":"0","longitude":"-2.7197083","latitude":"53.4220551","tel":"0","address":"Clock Face Rd - WA9 St Helens"},{"id":"22337","sname":"Aldi Hexham","postcode":"0","longitude":"-2.1023601","latitude":"54.9752397","tel":"0","address":"Haugh Lane Industrial Est - NE46 Hexham"},{"id":"22338","sname":"Aldi Darlington","postcode":"0","longitude":"-1.5263261","latitude":"54.5224742","tel":"0","address":"255 Yarm Road - DL1 Darlington"},{"id":"22339","sname":"Aldi Aycliffe","postcode":"0","longitude":"-1.5732563","latitude":"54.6200863","tel":"0","address":"Greenwell Road - DL5 Aycliffe"},{"id":"22340","sname":"Aldi Yarm","postcode":"0","longitude":"-1.3443990","latitude":"54.4976245","tel":"0","address":"9 Healaugh Park - TS15 Yarm"},{"id":"22341","sname":"Aldi Stockton-on-Tees","postcode":"0","longitude":"-1.3194359","latitude":"54.5607385","tel":"0","address":"104 Yarm Lane - TS18 Stockton-on-Tees"},{"id":"22342","sname":"Aldi Norton","postcode":"0","longitude":"-1.3212219","latitude":"54.5878113","tel":"0","address":"Darlington Lane - TS20 Norton"},{"id":"22343","sname":"Aldi Bishop Auckland","postcode":"0","longitude":"-1.6808034","latitude":"54.6439119","tel":"0","address":"149 Watling Road - DL14 Bishop Auckland"},{"id":"22344","sname":"Aldi Spennymoor","postcode":"0","longitude":"-1.6013552","latitude":"54.6983558","tel":"0","address":"Cambridge Street - DL16 Spennymoor"},{"id":"22345","sname":"Aldi Middlesbrough","postcode":"0","longitude":"-1.2446719","latitude":"54.5745566","tel":"0","address":"106A Newport Road - TS1 Middlesbrough"},{"id":"22346","sname":"Aldi Catterick Garrison","postcode":"0","longitude":"-1.7261479","latitude":"54.3830604","tel":"0","address":"Richmond Road - DL9 Catterick Garrison"},{"id":"22347","sname":"Aldi Middlesbrough","postcode":"0","longitude":"-1.2215087","latitude":"54.5555635","tel":"0","address":"Marton Road - TS4 Middlesbrough"},{"id":"22348","sname":"Aldi Hartlepool","postcode":"0","longitude":"-1.2438287","latitude":"54.6905427","tel":"0","address":"Dunston Road - TS26 Hartlepool"},{"id":"22349","sname":"Aldi Redcar","postcode":"0","longitude":"-1.5412746","latitude":"54.7759715","tel":"0","address":"Larkswood Road - TS10 Redcar"},{"id":"22350","sname":"ALDI Plymouth","postcode":"0","longitude":"-4.1244506","latitude":"50.4299864","tel":"0","address":"2 Flamborough Rd - PL6 Plymouth"},{"id":"22351","sname":"Aldi Lancaster","postcode":"0","longitude":"-2.8141485","latitude":"54.0557081","tel":"0","address":"Morecambe Road - LA1 Lancaster"},{"id":"22352","sname":"Aldi Morecambe","postcode":"0","longitude":"-2.8779893","latitude":"54.0681399","tel":"0","address":"Central Drive, Marine Road West - LA4 Morecambe"},{"id":"22353","sname":"Aldi Fleetwood","postcode":"0","longitude":"-3.0256302","latitude":"53.9200374","tel":"0","address":"Poulton Road - FY7 Fleetwood"},{"id":"22354","sname":"Aldi Thornton-Cleveleys","postcode":"0","longitude":"-3.0416203","latitude":"53.8761720","tel":"0","address":"Crescent West - FY5 Thornton-Cleveleys"},{"id":"22355","sname":"Aldi Kendal","postcode":"0","longitude":"-2.7369831","latitude":"54.3344276","tel":"0","address":"65 Appleby Road - LA9 Kendal"},{"id":"22356","sname":"Aldi Preston","postcode":"0","longitude":"-2.6863849","latitude":"53.7738536","tel":"0","address":"Blackpool Road - PR1 Preston"},{"id":"22358","sname":"Aldi Preston","postcode":"0","longitude":"-2.7055544","latitude":"53.7601119","tel":"0","address":"Corporation Street - PR1 Preston"},{"id":"22359","sname":"ALDI Preston","postcode":"0","longitude":"-2.6892628","latitude":"53.7606095","tel":"0","address":"Queens Shopping Park, Unit 5, Preston - PR5 Preston"},{"id":"22360","sname":"ALDI Great Harwood","postcode":"0","longitude":"-2.3969646","latitude":"53.7857220","tel":"0","address":"1 Heys Ln - BB6 Great Harwood"},{"id":"22361","sname":"Aldi Leyland","postcode":"0","longitude":"-2.6973096","latitude":"53.6914879","tel":"0","address":"Towngate - PR25 Leyland"},{"id":"22362","sname":"Aldi Blackburn","postcode":"0","longitude":"-2.4913501","latitude":"53.7297902","tel":"0","address":"Bolton Road - BB2 Blackburn"},{"id":"22363","sname":"Aldi Accrington","postcode":"0","longitude":"-2.3685409","latitude":"53.7565648","tel":"0","address":"Argyle Street - BB5 Accrington"},{"id":"22364","sname":"Aldi Chorley","postcode":"0","longitude":"-2.6239686","latitude":"53.6611909","tel":"0","address":"Harpers Lane - PR6 Chorley"},{"id":"22365","sname":"Aldi Colne","postcode":"0","longitude":"-2.1703200","latitude":"53.8594500","tel":"0","address":"North Valley Retail Park - BB8 Colne"},{"id":"22366","sname":"Aldi Burnley","postcode":"0","longitude":"-2.2448197","latitude":"53.7921718","tel":"0","address":"Active Way - BB11 Burnley"},{"id":"22367","sname":"Aldi Southport","postcode":"0","longitude":"-3.0101130","latitude":"53.6457080","tel":"0","address":"Unit8 Meol Cop Centre - PR9 Southport"},{"id":"22368","sname":"Aldi Horwich","postcode":"0","longitude":"-2.5501806","latitude":"53.5971807","tel":"0","address":"2 Mason Street - BL6 Horwich"},{"id":"22369","sname":"Aldi Liverpool","postcode":"0","longitude":"-2.9799095","latitude":"53.4047899","tel":"0","address":"Unit 75, St Johns Shopping Centre - L1 Liverpool"},{"id":"22370","sname":"Aldi Liverpool","postcode":"0","longitude":"-2.9119031","latitude":"53.4123782","tel":"0","address":"10 Broadgreen Road, Old Swan - L13 Liverpool"},{"id":"22371","sname":"Aldi Liverpool","postcode":"0","longitude":"-2.9709035","latitude":"53.4362169","tel":"0","address":"2 Salop Street, Merseyside - L4 Liverpool"},{"id":"22372","sname":"Aldi Liverpool","postcode":"0","longitude":"-2.9373632","latitude":"53.3948752","tel":"0","address":"281 Smithdown Road, Merseyside - L15 Liverpool"},{"id":"22373","sname":"Aldi Birkenhead","postcode":"0","longitude":"-3.0517521","latitude":"53.3998573","tel":"0","address":"Laird Street - CH41 Birkenhead"},{"id":"22374","sname":"Aldi Liverpool","postcode":"0","longitude":"-2.9934116","latitude":"53.4513412","tel":"0","address":"Washington Parade, Bootle - L20 Liverpool"},{"id":"22375","sname":"Aldi Prenton","postcode":"0","longitude":"-3.0562109","latitude":"53.3721482","tel":"0","address":"Woodchurch Road - CH43 Prenton"},{"id":"22376","sname":"Aldi Bebington","postcode":"0","longitude":"-3.0160642","latitude":"53.3650484","tel":"0","address":"Bebington Road, Ch62 5Bg - CH63 Bebington"},{"id":"22377","sname":"Aldi Liverpool","postcode":"0","longitude":"-2.8870700","latitude":"53.4199609","tel":"0","address":"367 East Prescot Rd. Lpool - L14 Liverpool"},{"id":"22378","sname":"Aldi Moreton","postcode":"0","longitude":"-3.1153898","latitude":"53.3997229","tel":"0","address":"17-21 Hoylake Road - CH46 Moreton"},{"id":"22379","sname":"Aldi Liverpool","postcode":"0","longitude":"-2.9616273","latitude":"53.4763951","tel":"0","address":"Park Lane West, Netherton - L3 Liverpool"},{"id":"22380","sname":"Aldi Liverpool","postcode":"0","longitude":"-3.0116937","latitude":"53.4957865","tel":"0","address":"Moor Lane, Thornton, Merseyside - L23 Liverpool"},{"id":"22381","sname":"ALDI Hull","postcode":"0","longitude":"-0.3311863","latitude":"53.7789372","tel":"0","address":"1 W Carr Ln - HU7 Hull"},{"id":"22382","sname":"Aldi Halewood","postcode":"0","longitude":"-2.8293754","latitude":"53.3615849","tel":"0","address":"Leathers Lane - L26 Halewood"},{"id":"22383","sname":"Aldi West Kirby","postcode":"0","longitude":"-3.1825676","latitude":"53.3757355","tel":"0","address":"Bridge Road - CH48 West Kirby"},{"id":"22384","sname":"Aldi Neston","postcode":"0","longitude":"-3.0639081","latitude":"53.2917788","tel":"0","address":"Ladies Walkcheshire - CH64 Neston"},{"id":"22385","sname":"Aldi Ellesmere Port","postcode":"0","longitude":"-2.8988468","latitude":"53.2775330","tel":"0","address":"Wellington Road - CH65 Ellesmere Port"},{"id":"22386","sname":"ALDI St Helens","postcode":"0","longitude":"-2.7254325","latitude":"53.4431732","tel":"0","address":"U D4/5 Peasley Cross Lane - WA9 St Helens"},{"id":"22387","sname":"Aldi Widnes","postcode":"0","longitude":"-2.7227457","latitude":"53.3658733","tel":"0","address":"Green Oaks Way - WA8 Widnes"},{"id":"22388","sname":"Aldi Ormskirk","postcode":"0","longitude":"-2.8873210","latitude":"53.5677068","tel":"0","address":"Unit 6, 2 Saints Place - L39 Ormskirk"},{"id":"22389","sname":"Aldi Skelmersdale","postcode":"0","longitude":"-2.7717754","latitude":"53.5492471","tel":"0","address":"Southway - WN8 Skelmersdale"},{"id":"22390","sname":"Aldi Meanwood","postcode":"0","longitude":"-1.5641770","latitude":"53.8385430","tel":"0","address":"Northside - LS7 Meanwood"},{"id":"22391","sname":"ALDI Leeds","postcode":"0","longitude":"-1.5318498","latitude":"53.8040558","tel":"0","address":"Regent St - LS7 Leeds"},{"id":"22392","sname":"ALDI Leeds","postcode":"0","longitude":"-1.5837094","latitude":"53.8057937","tel":"0","address":"Evanston Ave - LS4 Leeds"},{"id":"22393","sname":"Aldi Batley","postcode":"0","longitude":"-1.6344144","latitude":"53.7159552","tel":"0","address":"Branch Road - WF17 Batley"},{"id":"22394","sname":"Aldi Bradford","postcode":"0","longitude":"-1.7517138","latitude":"53.8023572","tel":"0","address":"50 Valley Road - BD1 Bradford"},{"id":"22395","sname":"ALDI Castleford","postcode":"0","longitude":"-1.3341708","latitude":"53.7111462","tel":"0","address":"Park Rd - WF10 Castleford"},{"id":"22396","sname":"ALDI St Helens","postcode":"0","longitude":"-2.7434740","latitude":"53.4519278","tel":"0","address":"Linkway W - WA10 St Helens"},{"id":"22397","sname":"Aldi - Wakefield Snowhill Wakefield","postcode":"0","longitude":"-1.5064240","latitude":"53.6974611","tel":"0","address":"Snow Hill Way - WF2 Wakefield"},{"id":"22398","sname":"Aldi Pontefract","postcode":"0","longitude":"-1.2991118","latitude":"53.6946597","tel":"0","address":"Baileygate Industrial Estate, South Baileygate - WF8 Pontefract"},{"id":"22399","sname":"Aldi Huddersfield","postcode":"0","longitude":"-1.7519815","latitude":"53.6450632","tel":"0","address":"Gallagher Retail Park, Wakefield Road - HD5 Huddersfield"},{"id":"22400","sname":"Aldi Huddersfield","postcode":"0","longitude":"-1.7843714","latitude":"53.6546481","tel":"0","address":"Ringway Centre, Beck Road - HD1 Huddersfield"},{"id":"22401","sname":"Aldi Halifax","postcode":"0","longitude":"-1.8717628","latitude":"53.7196181","tel":"0","address":"Unit 1 Crossley Retail Park - HX1 Halifax"},{"id":"22402","sname":"Aldi Keighley","postcode":"0","longitude":"-1.9017389","latitude":"53.8660861","tel":"0","address":"Gresley Road - BD21 Keighley"},{"id":"22403","sname":"Aldi Huddersfield","postcode":"0","longitude":"-1.8348559","latitude":"53.6398796","tel":"0","address":"Scar Lane, Milnsbridge - HD3 Huddersfield"},{"id":"22404","sname":"Aldi Barnsley","postcode":"0","longitude":"-1.5220687","latitude":"53.5701431","tel":"0","address":"Claycliffe Road, Barugh Green - S75 Barnsley"},{"id":"22405","sname":"Aldi Castleford","postcode":"0","longitude":"-1.3571764","latitude":"53.7242779","tel":"0","address":"Enterprise Way - WF10 Castleford"},{"id":"22406","sname":"Aldi Shipley","postcode":"0","longitude":"-1.7769780","latitude":"53.8359270","tel":"0","address":"Tony Miller App. Briggate - BD17 Shipley"},{"id":"22407","sname":"ALDI Wakefield","postcode":"0","longitude":"-1.5265149","latitude":"53.6877665","tel":"0","address":"82 Batley Rd - WF2 Wakefield"},{"id":"22408","sname":"Aldi Barnsley","postcode":"0","longitude":"-1.4572373","latitude":"53.5468043","tel":"0","address":"Doncaster Road - S70 Barnsley"},{"id":"22409","sname":"Aldi Selby","postcode":"0","longitude":"-1.0644389","latitude":"53.7742496","tel":"0","address":"Three Lakes Retail Parkbawtry Road - YO8 Selby"},{"id":"22411","sname":"Aldi York","postcode":"0","longitude":"-1.0738746","latitude":"53.9443560","tel":"0","address":"Fulford Road - YO10 York"},{"id":"22412","sname":"Aldi Doncaster","postcode":"0","longitude":"-1.1771764","latitude":"53.5386429","tel":"0","address":"Barnsley Road - DN5 Doncaster"},{"id":"22413","sname":"Aldi Manchester","postcode":"0","longitude":"-2.2272649","latitude":"53.4847112","tel":"0","address":"Arndale Centre, 67-71 Market Street - M1 Manchester"},{"id":"22414","sname":"Aldi Manchester","postcode":"0","longitude":"-2.2244552","latitude":"53.4808023","tel":"0","address":"Unit A Urban Exchange, Great Ancoats Street, Ancoats - M4 Manchester"},{"id":"22415","sname":"ALDI Oswestry","postcode":"0","longitude":"-3.0442331","latitude":"52.8512897","tel":"0","address":"Shrewsbury Rd - SY11 Oswestry"},{"id":"22416","sname":"Aldi Manchester","postcode":"0","longitude":"-2.2394830","latitude":"53.4473478","tel":"0","address":"143 Lloyd Street South, Fallowfield - M14 Manchester"},{"id":"22417","sname":"ALDI Drayton Rd, Norwich Norwich","postcode":"0","longitude":"1.2820004","latitude":"52.6425107","tel":"0","address":"36-50 Drayton Rd - NR3 Norwich"},{"id":"22418","sname":"ALDI Norwich","postcode":"0","longitude":"1.3085145","latitude":"52.6496388","tel":"0","address":"463 Sprowston Rd - NR3 Norwich"},{"id":"22419","sname":"Aldi Clayton","postcode":"0","longitude":"-2.1691497","latitude":"53.4811216","tel":"0","address":"998 Ashton New Road - M11 Clayton"},{"id":"22420","sname":"Aldi Eccles","postcode":"0","longitude":"-2.3389854","latitude":"53.4839155","tel":"0","address":"15 Albert Street, Eccles - M30 Eccles"},{"id":"22421","sname":"Aldi Burnage","postcode":"0","longitude":"-2.2099496","latitude":"53.4278179","tel":"0","address":"Kingsway - M19 Burnage"},{"id":"22422","sname":"Aldi Manchester","postcode":"0","longitude":"-2.1822076","latitude":"53.4342742","tel":"0","address":"Weybrook Roadheaton Chapel - M19 Manchester"},{"id":"22423","sname":"ALDI Swinton","postcode":"0","longitude":"-1.8017333","latitude":"51.5673674","tel":"0","address":"Romsey St - M27 Swinton"},{"id":"22424","sname":"Aldi Didsbury","postcode":"0","longitude":"-2.2295836","latitude":"53.4258468","tel":"0","address":"Wilmslow Road - M20 Didsbury"},{"id":"22425","sname":"Aldi Failsworth","postcode":"0","longitude":"-2.1601546","latitude":"53.5098182","tel":"0","address":"Sisson Street - M35 Failsworth"},{"id":"22426","sname":"Aldi Sale","postcode":"0","longitude":"-2.3214152","latitude":"53.4250260","tel":"0","address":"School Road - M33 Sale"},{"id":"22427","sname":"Aldi Urmston","postcode":"0","longitude":"-2.3541859","latitude":"53.4498316","tel":"0","address":"Golden Way - M41 Urmston"},{"id":"22428","sname":"Aldi Whitefield","postcode":"0","longitude":"-2.2969669","latitude":"53.5459166","tel":"0","address":"Higher Lane - M45 Whitefield"},{"id":"22429","sname":"Aldi Middleton","postcode":"0","longitude":"-2.2041787","latitude":"53.5485934","tel":"0","address":"Kemp Street - M24 Middleton"},{"id":"22430","sname":"Aldi Middleton","postcode":"0","longitude":"-2.1988844","latitude":"53.5510108","tel":"0","address":"Eastway - M24 Middleton"},{"id":"22431","sname":"Aldi Baguley","postcode":"0","longitude":"-2.2768770","latitude":"53.3993340","tel":"0","address":"580 Altrincham Road, Brookway Retail Park - M23 Baguley"},{"id":"22432","sname":"ALDI Stockport","postcode":"0","longitude":"-2.1525843","latitude":"53.4108673","tel":"0","address":"New Bridge Ln - SK1 Stockport"},{"id":"22433","sname":"Aldi Warrington","postcode":"0","longitude":"-2.6021457","latitude":"53.3900529","tel":"0","address":"Liverpool Road/Crosfield Street - WA1 Warrington"},{"id":"22434","sname":"Aldi Warrington","postcode":"0","longitude":"-2.5270027","latitude":"53.4147315","tel":"0","address":"Birchwood Shopping Centre - WA3 Warrington"},{"id":"22435","sname":"Aldi Warrington","postcode":"0","longitude":"-2.5815345","latitude":"53.3700241","tel":"0","address":"27 Walton Road, Stockton Heath - WA4 Warrington"},{"id":"22436","sname":"Aldi Haydock","postcode":"0","longitude":"-2.6677036","latitude":"53.4664584","tel":"0","address":"8 Branch Way - WA11 Haydock"},{"id":"22437","sname":"Aldi Ashton-in-Makerfield","postcode":"0","longitude":"-2.6324855","latitude":"53.4869638","tel":"0","address":"Princess Road - WN4 Ashton-in-Makerfield"},{"id":"22438","sname":"Aldi Leigh","postcode":"0","longitude":"-2.5199284","latitude":"53.4944207","tel":"0","address":"70 King Street - WN7 Leigh"},{"id":"22439","sname":"Aldi Runcorn","postcode":"0","longitude":"-2.7296730","latitude":"53.3420780","tel":"0","address":"Unit 6 Trident Retail Park - WA7 Runcorn"},{"id":"22440","sname":"Aldi Altrincham","postcode":"0","longitude":"-2.3567157","latitude":"53.3979877","tel":"0","address":"Davenport Road - WA14 Altrincham"},{"id":"22441","sname":"Aldi Hindley Green","postcode":"0","longitude":"-2.5507952","latitude":"53.5246185","tel":"0","address":"641 Atherton Road, Hindley Green - WN2 Hindley Green"},{"id":"22442","sname":"Aldi Tyldesley","postcode":"0","longitude":"-2.4722892","latitude":"53.5150920","tel":"0","address":"Castle Street - M29 Tyldesley"},{"id":"22443","sname":"Aldi Northwich","postcode":"0","longitude":"-2.3541859","latitude":"53.4498316","tel":"0","address":"Leicester Street - CW9 Northwich"},{"id":"22444","sname":"Aldi Sheffield","postcode":"0","longitude":"-1.4748061","latitude":"53.3729911","tel":"0","address":"St Mary Gate - S2 Sheffield"},{"id":"22445","sname":"Aldi Sheffield","postcode":"0","longitude":"-1.4878551","latitude":"53.3473743","tel":"0","address":"183 Archer Road - S8 Sheffield"},{"id":"22446","sname":"Aldi Sheffield","postcode":"0","longitude":"-1.4128515","latitude":"53.4174828","tel":"0","address":"Meadowhall, Unit 1 , 2 Flora Street - S9 Sheffield"},{"id":"22447","sname":"Aldi Sheffield","postcode":"0","longitude":"-1.3912890","latitude":"53.3742605","tel":"0","address":"Turner Business Park, 232 Handsworth Road - S13 Sheffield"},{"id":"22448","sname":"Aldi Sheffield","postcode":"0","longitude":"-1.3656664","latitude":"53.4297022","tel":"0","address":"Park St. Masbrough - S6 Sheffield"},{"id":"22449","sname":"Aldi Rotherham","postcode":"0","longitude":"-1.3445705","latitude":"53.4372924","tel":"0","address":"126 Fitzwilliam Road - S65 Rotherham"},{"id":"22450","sname":"Aldi Dinnington","postcode":"0","longitude":"-1.2126472","latitude":"53.3684494","tel":"0","address":"Littlefield Road - S25 Dinnington"},{"id":"22451","sname":"Aldi Clowne","postcode":"0","longitude":"-1.2649107","latitude":"53.2754161","tel":"0","address":"8 Mill Green Way - S43 Clowne"},{"id":"22452","sname":"Aldi Worksop","postcode":"0","longitude":"-1.1245281","latitude":"53.3098613","tel":"0","address":"Gateford Road - S80 Worksop"},{"id":"22453","sname":"Aldi Shirebrook","postcode":"0","longitude":"-1.2177100","latitude":"53.2034919","tel":"0","address":"Carter Lane - NG20 Shirebrook"},{"id":"22454","sname":"Aldi Sutton-in-ashfield","postcode":"0","longitude":"-1.2532031","latitude":"53.1221517","tel":"0","address":"38 Station Road - NG17 Sutton-in-ashfield"},{"id":"22455","sname":"Aldi Buxton","postcode":"0","longitude":"-1.9121443","latitude":"53.2604089","tel":"0","address":"Station Road - SK17 Buxton"},{"id":"22456","sname":"Aldi Mansfield","postcode":"0","longitude":"-1.1924265","latitude":"53.1275648","tel":"0","address":"Nottingham Road - NG18 Mansfield"},{"id":"22457","sname":"Aldi Glossop","postcode":"0","longitude":"-1.9530946","latitude":"53.4445577","tel":"0","address":"Arundel Street - SK13 Glossop"},{"id":"22458","sname":"Aldi Alfreton","postcode":"0","longitude":"-1.3785220","latitude":"53.0955243","tel":"0","address":"Nottingham Road - DE55 Alfreton"},{"id":"22459","sname":"Aldi Hull","postcode":"0","longitude":"-0.3480479","latitude":"53.7529787","tel":"0","address":"Beverley Road - HU3 Hull"},{"id":"22460","sname":"Aldi Hull","postcode":"0","longitude":"-0.2717868","latitude":"53.7571932","tel":"0","address":"249 Preston Road - HU9 Hull"},{"id":"22461","sname":"Aldi Hull","postcode":"0","longitude":"-0.4093018","latitude":"53.7241655","tel":"0","address":"Henry Boot Way - HU4 Hull"},{"id":"22462","sname":"Aldi Willerby","postcode":"0","longitude":"-0.2741922","latitude":"53.7528744","tel":"0","address":"Great Gutter Lane East - HU10 Willerby"},{"id":"22463","sname":"Aldi Withernsea","postcode":"0","longitude":"0.0323840","latitude":"53.7304762","tel":"0","address":"134 Queen Street - HU19 Withernsea"},{"id":"22464","sname":"Aldi Grimsby","postcode":"0","longitude":"-0.1170649","latitude":"53.5580086","tel":"0","address":"Magdalene Rd - DN34 Grimsby"},{"id":"22465","sname":"Aldi Grimsby","postcode":"0","longitude":"-0.0771695","latitude":"53.5748315","tel":"0","address":"Cleethorpes Road - DN31 Grimsby"},{"id":"22466","sname":"Aldi Scunthorpe","postcode":"0","longitude":"-0.6456568","latitude":"53.5950004","tel":"0","address":"Glebe Road - DN15 Scunthorpe"},{"id":"22467","sname":"Aldi Scunthorpe","postcode":"0","longitude":"-0.6383816","latitude":"53.5664170","tel":"0","address":"128 High Street, Ashby - DN16 Scunthorpe"},{"id":"22468","sname":"Aldi Pocklington","postcode":"0","longitude":"-0.7796944","latitude":"53.9285926","tel":"0","address":"Robertson Close - YO42 Pocklington"},{"id":"22469","sname":"Aldi Bridlington","postcode":"0","longitude":"-0.2114971","latitude":"54.0804748","tel":"0","address":"Unit C Bessingby Way - YO16 Bridlington"},{"id":"22470","sname":"ALDI Mosborough","postcode":"0","longitude":"-1.3542653","latitude":"53.3463626","tel":"0","address":"Drake House Way - S20 Mosborough"},{"id":"22471","sname":"Aldi Gainsborough","postcode":"0","longitude":"-0.7684346","latitude":"53.3861231","tel":"0","address":"Lea Road - DN21 Gainsborough"},{"id":"22472","sname":"ALDI Huntington","postcode":"0","longitude":"-1.0483685","latitude":"53.9850651","tel":"0","address":"Kathryn Ave - YO32 Huntington"},{"id":"22473","sname":"Aldi Porthmadog","postcode":"0","longitude":"-4.1382057","latitude":"52.9284681","tel":"0","address":"Ffordd Penamser - LL49 Porthmadog"},{"id":"22474","sname":"Aldi Cardigan","postcode":"0","longitude":"-4.3096234","latitude":"53.2549467","tel":"0","address":"Aberystwyth Road - SA43 Cardigan"},{"id":"22475","sname":"ALDI Llandudno","postcode":"0","longitude":"-3.8189896","latitude":"53.3180847","tel":"0","address":"1 Maesdu Rd, Llandudno Retail Park - LL30 Llandudno"},{"id":"22476","sname":"Aldi Old Colwyn","postcode":"0","longitude":"-3.6990023","latitude":"53.2892877","tel":"0","address":"394 Abergele Road - LL29 Old Colwyn"},{"id":"22477","sname":"Aldi Rhyl","postcode":"0","longitude":"-3.4956517","latitude":"53.3172280","tel":"0","address":"Marina Quay,Wellington Road - LL18 Rhyl"},{"id":"22478","sname":"Aldi Prestatyn","postcode":"0","longitude":"-3.4057423","latitude":"53.3243807","tel":"0","address":"Meliden Road - LL19 Prestatyn"},{"id":"22479","sname":"Aldi Carmarthen","postcode":"0","longitude":"-4.3080150","latitude":"51.8503610","tel":"0","address":"16 Stephens Way - SA31 Carmarthen"},{"id":"22480","sname":"Aldi Llandrindod Wells","postcode":"0","longitude":"-3.3784435","latitude":"52.2427614","tel":"0","address":"Station Crescent - LD1 Llandrindod Wells"},{"id":"22481","sname":"Aldi Haverfordwest","postcode":"0","longitude":"-4.9637298","latitude":"51.8028743","tel":"0","address":"Salutation Square - SA61 Haverfordwest"},{"id":"22482","sname":"Aldi Oswestry","postcode":"0","longitude":"-3.0516950","latitude":"52.8621512","tel":"0","address":"Beatrice Street - SY11 Oswestry"},{"id":"22483","sname":"Aldi Mold","postcode":"0","longitude":"-3.1391232","latitude":"53.1676781","tel":"0","address":"Chester Street - CH7 Mold"},{"id":"22484","sname":"Aldi Flint","postcode":"0","longitude":"-3.1312770","latitude":"53.2481732","tel":"0","address":"55-57 Chester Street - CH6 Flint"},{"id":"22485","sname":"Aldi Wrexham","postcode":"0","longitude":"-2.9924940","latitude":"53.0430400","tel":"0","address":"Plas Coch Ret Park - LL11 Wrexham"},{"id":"22486","sname":"Aldi Cross Hands","postcode":"0","longitude":"-4.0846360","latitude":"51.7963170","tel":"0","address":"Llandeilo Road - SA14 Cross Hands"},{"id":"22487","sname":"Aldi Heswall","postcode":"0","longitude":"-3.0965661","latitude":"53.3288371","tel":"0","address":"May Road - CH60 Heswall"},{"id":"22488","sname":"Aldi Birmingham","postcode":"0","longitude":"-1.8956022","latitude":"52.4986745","tel":"0","address":"High Street - B19 Birmingham"},{"id":"22489","sname":"Aldi Birmingham","postcode":"0","longitude":"-1.9048879","latitude":"52.4550304","tel":"0","address":"Edgbaston Road - B5 Birmingham"},{"id":"22490","sname":"Aldi Sparkbrook","postcode":"0","longitude":"-1.8723721","latitude":"52.4595134","tel":"0","address":"273 Stratford Road - B11 Sparkbrook"},{"id":"22491","sname":"Aldi Birmingham","postcode":"0","longitude":"-1.9683813","latitude":"52.4722107","tel":"0","address":"Bearwood Road - B6 Birmingham"},{"id":"22492","sname":"Aldi Selly Oak","postcode":"0","longitude":"-1.9356765","latitude":"52.4439170","tel":"0","address":"Bristol Road - B29 Selly Oak"},{"id":"22493","sname":"Aldi Bordesley Green","postcode":"0","longitude":"-1.8256898","latitude":"52.4803206","tel":"0","address":"Bordesley Green East - B9 Bordesley Green"},{"id":"22494","sname":"Aldi Stechford","postcode":"0","longitude":"-1.8075980","latitude":"52.4839600","tel":"0","address":"Beaufort Park - B33 Stechford"},{"id":"22495","sname":"Aldi Kingstanding","postcode":"0","longitude":"-1.8748793","latitude":"52.5358631","tel":"0","address":"College Rd - B44 Kingstanding"},{"id":"22496","sname":"Aldi Acocks Green","postcode":"0","longitude":"-1.8225544","latitude":"52.4464035","tel":"0","address":"Warwick Road - B27 Acocks Green"},{"id":"22497","sname":"ALDI Great Barr","postcode":"0","longitude":"-1.9346544","latitude":"52.5462317","tel":"0","address":"Birmingham Rd - B43 Great Barr"},{"id":"22498","sname":"Aldi Northfield","postcode":"0","longitude":"-1.9721990","latitude":"52.4137418","tel":"0","address":"860 Bristol Road South - B31 Northfield"},{"id":"22499","sname":"ALDI Norwich","postcode":"0","longitude":"1.2911370","latitude":"52.6096652","tel":"0","address":"Unit 5 Hall Rd - NR4 Norwich"},{"id":"22500","sname":"Aldi Sheldon","postcode":"0","longitude":"-1.7958325","latitude":"52.4563034","tel":"0","address":"New Coventry Road - B26 Sheldon"},{"id":"22501","sname":"Aldi Halesowen","postcode":"0","longitude":"-2.0486974","latitude":"52.4523471","tel":"0","address":"Earls Way - B63 Halesowen"},{"id":"22502","sname":"Aldi Shirley","postcode":"0","longitude":"-1.8264397","latitude":"52.4105430","tel":"0","address":"240 Stratford Road - B90 Shirley"},{"id":"22503","sname":"Aldi Castle Bromwich","postcode":"0","longitude":"-1.7605030","latitude":"52.5009347","tel":"0","address":"280 Chester Road - B36 Castle Bromwich"},{"id":"22504","sname":"ALDI Netherton","postcode":"0","longitude":"-2.9680269","latitude":"53.4824830","tel":"0","address":"Park Ln W - L30 Netherton"},{"id":"22505","sname":"Aldi Sutton Coldfield","postcode":"0","longitude":"-1.8241795","latitude":"52.5614244","tel":"0","address":"101 The Parade - B72 Sutton Coldfield"},{"id":"22506","sname":"Aldi Dudley","postcode":"0","longitude":"-2.0998707","latitude":"52.4960676","tel":"0","address":"Cinder Bank, Peartree Lane - DY2 Dudley"},{"id":"22507","sname":"Aldi Wednesbury","postcode":"0","longitude":"-2.0506799","latitude":"52.5611973","tel":"0","address":"Burns Roadmoxley - WS10 Wednesbury"},{"id":"22508","sname":"Aldi Brierley Hill","postcode":"0","longitude":"-2.1158264","latitude":"52.4627297","tel":"0","address":"Dudley Road - DY5 Brierley Hill"},{"id":"22509","sname":"Aldi Wolverhampton","postcode":"0","longitude":"-2.1293917","latitude":"52.6107677","tel":"0","address":"Mercury Drive - WV10 Wolverhampton"},{"id":"22510","sname":"Aldi Wolverhampton","postcode":"0","longitude":"-2.1182508","latitude":"52.5743424","tel":"0","address":"Goldthorn Hill Rd W'hampton - WV2 Wolverhampton"},{"id":"22511","sname":"Aldi Stourbridge","postcode":"0","longitude":"-2.1457982","latitude":"52.4546522","tel":"0","address":"30/38 New Road - DY8 Stourbridge"},{"id":"22512","sname":"Aldi Wollaston","postcode":"0","longitude":"-2.1679540","latitude":"52.4602193","tel":"0","address":"Bridgnorth Road - DY8 Wollaston"},{"id":"22513","sname":"Aldi Swansea","postcode":"0","longitude":"-3.9479924","latitude":"51.6326270","tel":"0","address":"Unit 1 Carmarthen Road - SA1 Swansea"},{"id":"22514","sname":"Aldi Port Talbot","postcode":"0","longitude":"-3.7704370","latitude":"51.5852614","tel":"0","address":"32/38 Commercial Road - SA13 Port Talbot"},{"id":"22515","sname":"ALDI Llanelli","postcode":"0","longitude":"-4.1580568","latitude":"51.6847222","tel":"0","address":"Swanfield Pl - SA15 Llanelli"},{"id":"22516","sname":"Aldi Maesteg","postcode":"0","longitude":"-3.6614743","latitude":"51.6098061","tel":"0","address":"Llynfi Road - CF34 Maesteg"},{"id":"22517","sname":"Aldi Bridgend","postcode":"0","longitude":"-3.5753115","latitude":"51.5053706","tel":"0","address":"Brackla Street - CF31 Bridgend"},{"id":"22518","sname":"Aldi Llantrisant","postcode":"0","longitude":"-3.3767335","latitude":"51.5334761","tel":"0","address":"Unit 3 Glamorgan Vale Retail Park - CF72 Llantrisant"},{"id":"22519","sname":"Aldi Merthyr Tydfil","postcode":"0","longitude":"-3.3714394","latitude":"51.7387224","tel":"0","address":"Plymouth Street - CF47 Merthyr Tydfil"},{"id":"22520","sname":"Aldi Pontypridd","postcode":"0","longitude":"-3.3423140","latitude":"51.6007740","tel":"0","address":"Unit 2, Midway Retail Park - CF37 Pontypridd"},{"id":"22521","sname":"Aldi Tir-Y-Berth","postcode":"0","longitude":"-3.2252164","latitude":"51.6546539","tel":"0","address":"New Road - CF82 Tir-Y-Berth"},{"id":"22522","sname":"Aldi Cardiff","postcode":"0","longitude":"-3.2379283","latitude":"51.4788274","tel":"0","address":"Treseder Way - CF5 Cardiff"},{"id":"22524","sname":"Aldi Brecon","postcode":"0","longitude":"-3.3881116","latitude":"51.9451470","tel":"0","address":"The Watton, Rich Way - LD3 Brecon"},{"id":"22525","sname":"Aldi Ebbw Vale","postcode":"0","longitude":"-3.1627368","latitude":"51.7773935","tel":"0","address":"The Walk - NP23 Ebbw Vale"},{"id":"22526","sname":"Aldi Cardiff","postcode":"0","longitude":"-3.1844599","latitude":"51.4574391","tel":"0","address":"Ferry Road - CF11 Cardiff"},{"id":"22527","sname":"Aldi Cardiff","postcode":"0","longitude":"-3.1525997","latitude":"51.5313647","tel":"0","address":"Dartington Drive - CF23 Cardiff"},{"id":"22528","sname":"Aldi Risca","postcode":"0","longitude":"-3.1018000","latitude":"51.6118270","tel":"0","address":"Interchange - NP11 Risca"},{"id":"22529","sname":"Aldi Cwmbran","postcode":"0","longitude":"-3.0261205","latitude":"51.6547713","tel":"0","address":"Woodside Road - NP44 Cwmbran"},{"id":"22530","sname":"Aldi Newport","postcode":"0","longitude":"-3.0124771","latitude":"51.5869182","tel":"0","address":"Barrack Hill Unit B - NP20 Newport"},{"id":"22531","sname":"Aldi Bedminster","postcode":"0","longitude":"-2.6101031","latitude":"51.4403619","tel":"0","address":"North Street - BS3 Bedminster"},{"id":"22532","sname":"Aldi Bristol","postcode":"0","longitude":"-2.5526045","latitude":"51.4596934","tel":"0","address":"273-279 Church Road - BS5 Bristol"},{"id":"22533","sname":"Aldi Bristol","postcode":"0","longitude":"-2.5336686","latitude":"51.4786207","tel":"0","address":"670-680 Fishponds Road - BS16 Bristol"},{"id":"22534","sname":"Aldi Southmead","postcode":"0","longitude":"-2.6054708","latitude":"51.5018142","tel":"0","address":"Greystoke Avenue - BS10 Southmead"},{"id":"22535","sname":"Aldi Bristol","postcode":"0","longitude":"-2.5930584","latitude":"51.4527055","tel":"0","address":"Crow Lane - BS1 Bristol"},{"id":"22536","sname":"Aldi Bradley Stoke","postcode":"0","longitude":"-2.5530968","latitude":"51.5354050","tel":"0","address":"Brook Way - BS32 Bradley Stoke"},{"id":"22537","sname":"Aldi Thornbury","postcode":"0","longitude":"-2.5243481","latitude":"51.6075356","tel":"0","address":"3-5 Horseshoe Lane - BS35 Thornbury"},{"id":"22538","sname":"Aldi Weston-super-mare","postcode":"0","longitude":"-2.9412953","latitude":"51.3445630","tel":"0","address":"Aisecome Way, 5, Flowerdown Retail Park - BS22 Weston-super-mare"},{"id":"22539","sname":"Aldi Newport","postcode":"0","longitude":"-3.0611702","latitude":"51.5751276","tel":"0","address":"Spytty Road - NP10 Newport"},{"id":"22540","sname":"Aldi Shepton Mallet","postcode":"0","longitude":"-2.5041281","latitude":"51.1472721","tel":"0","address":"High Street - BA4 Shepton Mallet"},{"id":"22541","sname":"Aldi Trowbridge","postcode":"0","longitude":"-2.2123562","latitude":"51.3062327","tel":"0","address":"Bradley Road - BA14 Trowbridge"},{"id":"22542","sname":"Aldi Melksham","postcode":"0","longitude":"-2.1420498","latitude":"51.3805961","tel":"0","address":"Beanacre Road - SN12 Melksham"},{"id":"22543","sname":"ALDI Darlington","postcode":"0","longitude":"-1.5515224","latitude":"54.5353686","tel":"0","address":"5 North Rd - DL1 Darlington"},{"id":"22544","sname":"ALDI Gloucester","postcode":"0","longitude":"-2.2511593","latitude":"51.8569898","tel":"0","address":"1 Clifton Rd - GL1 Gloucester"},{"id":"22545","sname":"Aldi Bridgwater","postcode":"0","longitude":"-2.9986029","latitude":"51.1289360","tel":"0","address":"50-54 East Over - TA6 Bridgwater"},{"id":"22546","sname":"Aldi Cheltenham","postcode":"0","longitude":"-2.0971938","latitude":"51.9122834","tel":"0","address":"Tewkesbury Road - GL51 Cheltenham"},{"id":"22547","sname":"Aldi Tewkesbury","postcode":"0","longitude":"-2.1584130","latitude":"51.9835738","tel":"0","address":"Gloucester Road - GL20 Tewkesbury"},{"id":"22548","sname":"Aldi Evesham","postcode":"0","longitude":"-1.9460608","latitude":"52.0944333","tel":"0","address":"4 Swan Lane - WR11 Evesham"},{"id":"22549","sname":"Aldi Droitwich","postcode":"0","longitude":"-2.5243481","latitude":"51.6075356","tel":"0","address":"Kidderminster Road - WR9 Droitwich"},{"id":"22550","sname":"Aldi Swindon","postcode":"0","longitude":"-1.8036608","latitude":"51.6011344","tel":"0","address":"Latham Road - SN25 Swindon"},{"id":"22551","sname":"Aldi Carterton","postcode":"0","longitude":"-1.6004267","latitude":"51.7570106","tel":"0","address":"Alvescot Road - OX18 Carterton"},{"id":"22552","sname":"Aldi Swindon","postcode":"0","longitude":"-1.7521368","latitude":"51.5847600","tel":"0","address":"Hobley Drive - SN3 Swindon"},{"id":"22553","sname":"Aldi Swindon","postcode":"0","longitude":"-1.7727686","latitude":"51.5580406","tel":"0","address":"Drove Road - SN1 Swindon"},{"id":"22554","sname":"ALDI Bromsgrove","postcode":"0","longitude":"-2.0573990","latitude":"52.3387270","tel":"0","address":"Birmingham Rd - B60 Bromsgrove"},{"id":"22555","sname":"Aldi Stratford-upon-avon","postcode":"0","longitude":"-1.7175423","latitude":"52.2014368","tel":"0","address":"Canners Way - CV37 Stratford-upon-avon"},{"id":"22556","sname":"Aldi Truro","postcode":"0","longitude":"-5.0737100","latitude":"50.2603090","tel":"0","address":"Highertown - TR1 Truro"},{"id":"22557","sname":"Aldi Camborne","postcode":"0","longitude":"-5.3016739","latitude":"50.2136276","tel":"0","address":"Church Street - TR14 Camborne"},{"id":"22558","sname":"Aldi Newquay","postcode":"0","longitude":"-5.0766092","latitude":"50.4149905","tel":"0","address":"Cliff Road - TR7 Newquay"},{"id":"22559","sname":"Aldi St Austell","postcode":"0","longitude":"-4.7782288","latitude":"50.3454063","tel":"0","address":"Junction Sandy Hill & Slades Road - PL25 St Austell"},{"id":"22560","sname":"Aldi Liskeard","postcode":"0","longitude":"-4.4497281","latitude":"50.4557347","tel":"0","address":"1 Charter Way - PL14 Liskeard"},{"id":"22561","sname":"Aldi Plymouth","postcode":"0","longitude":"-4.1557574","latitude":"50.3696484","tel":"0","address":"141 Union Street - PL1 Plymouth"},{"id":"22562","sname":"Aldi Exeter","postcode":"0","longitude":"-3.5380661","latitude":"50.7099075","tel":"0","address":"Alphington Road - EX2 Exeter"},{"id":"22563","sname":"Aldi Exeter","postcode":"0","longitude":"-3.4786714","latitude":"50.7288649","tel":"0","address":"Exhibition Way - EX1 Exeter"},{"id":"22564","sname":"Aldi Poole","postcode":"0","longitude":"-1.9794288","latitude":"50.7166676","tel":"0","address":"Pitwines West - BH15 Poole"},{"id":"22565","sname":"Aldi Bournemouth","postcode":"0","longitude":"-1.9018146","latitude":"50.7448572","tel":"0","address":"Wallisdown Road - BH10 Bournemouth"},{"id":"22566","sname":"Aldi Bournemouth","postcode":"0","longitude":"-1.8427168","latitude":"50.7364167","tel":"0","address":"Holdenhurst Road - BH8 Bournemouth"}]