[{"id":"42824","sname":"Asda Aberdeen","postcode":"0","longitude":"-2.0958216","latitude":"57.1684445","tel":"0","address":"0","add":"Unit 1, Beach Boulevard Retail Park - AB24 Aberdeen"},{"id":"42825","sname":"Asda Aberdeen","postcode":"0","longitude":"-2.1726194","latitude":"57.2063280","tel":"0","address":"0","add":"Riverview Drive - AB21 Aberdeen"},{"id":"42826","sname":"Asda Pwllheli","postcode":"0","longitude":"-4.4138086","latitude":"52.8907578","tel":"0","address":"0","add":"Sand Street - LL53 Pwllheli"},{"id":"42827","sname":"Asda Godrergraig","postcode":"0","longitude":"-3.7818585","latitude":"51.7623920","tel":"0","address":"0","add":"Glanyrafon - SA9 Godrergraig"},{"id":"42828","sname":"Asda Caernarfon","postcode":"0","longitude":"-4.2596886","latitude":"53.1539838","tel":"0","address":"0","add":"Bangor Road - LL55 Caernarfon"},{"id":"42829","sname":"Asda Llanelli","postcode":"0","longitude":"-4.1614003","latitude":"51.6805045","tel":"0","address":"0","add":"Murray Street - SA15 Llanelli"},{"id":"42830","sname":"Asda Llanelli","postcode":"0","longitude":"-4.1386968","latitude":"51.6761080","tel":"0","address":"0","add":"Unit 5 Trostre Retail Park - SA14 Llanelli"},{"id":"42831","sname":"Asda Gorseinon","postcode":"0","longitude":"-4.0329768","latitude":"51.6716028","tel":"0","address":"0","add":"Heol Y Mynydd,  - SA4 Gorseinon"},{"id":"42832","sname":"Asda Swansea","postcode":"0","longitude":"-3.9112492","latitude":"51.6653026","tel":"0","address":"0","add":"Upper Forest Way - SA6 Swansea"},{"id":"42833","sname":"Asda Merthyr Tydfil","postcode":"0","longitude":"-3.3416272","latitude":"51.7638332","tel":"0","address":"0","add":"Dowlais Top - CF48 Merthyr Tydfil"},{"id":"42834","sname":"Asda Bangor","postcode":"0","longitude":"-4.1334203","latitude":"53.2239716","tel":"0","address":"0","add":"Farrar Road, - LL57 Bangor"},{"id":"42835","sname":"Asda Aberdare","postcode":"0","longitude":"-3.4518160","latitude":"51.7161540","tel":"0","address":"0","add":"Riverside Retail Park - CF44 Aberdare"},{"id":"42836","sname":"Asda Ebbw Vale","postcode":"0","longitude":"-3.2061510","latitude":"51.7775320","tel":"0","address":"0","add":"Lakeside Retail Park - Nantyglo - NP23 Ebbw Vale"},{"id":"42837","sname":"Asda Llangefni","postcode":"0","longitude":"-4.3114020","latitude":"53.2557850","tel":"0","address":"0","add":"Ffordd Cae Sel - LL77 Llangefni"},{"id":"42838","sname":"Asda Maesteg","postcode":"0","longitude":"-3.6586163","latitude":"51.6100831","tel":"0","address":"0","add":"Castle Street - CF34 Maesteg"},{"id":"42839","sname":"Asda Shrewsbury","postcode":"0","longitude":"-2.7425102","latitude":"52.7043763","tel":"0","address":"0","add":"Old Potts Way, - SY3 Shrewsbury"},{"id":"42840","sname":"Asda Llandudno Junction","postcode":"0","longitude":"-3.8031720","latitude":"53.2836148","tel":"0","address":"0","add":"Conway Road - LL31 Llandudno Junction"},{"id":"42841","sname":"Asda Tonypandy","postcode":"0","longitude":"-3.4535109","latitude":"51.6275421","tel":"0","address":"0","add":"Colliers Way - CF40 Tonypandy"},{"id":"42842","sname":"Asda Pembroke Dock","postcode":"0","longitude":"-4.9409845","latitude":"51.6943452","tel":"0","address":"0","add":"Gordon Street - SA72 Pembroke Dock"},{"id":"42843","sname":"Asda Wrexham","postcode":"0","longitude":"-2.9924940","latitude":"53.0430400","tel":"0","address":"0","add":"Island Green Shopping Park, Hill Street - LL13 Wrexham"},{"id":"42844","sname":"Asda Llandudno","postcode":"0","longitude":"-3.8138615","latitude":"53.3134920","tel":"0","address":"0","add":"Conway Road - LL30 Llandudno"},{"id":"42845","sname":"Asda Hereford","postcode":"0","longitude":"-2.7269550","latitude":"52.0454125","tel":"0","address":"0","add":"Belmont Road - HR2 Hereford"},{"id":"42846","sname":"Asda Wrexham","postcode":"0","longitude":"-2.9741913","latitude":"53.0525258","tel":"0","address":"0","add":"Holt Road - LL13 Wrexham"},{"id":"42847","sname":"Asda Blackwood","postcode":"0","longitude":"-3.1933945","latitude":"51.6756142","tel":"0","address":"0","add":"High Street - NP12 Blackwood"},{"id":"42848","sname":"Asda Holyhead","postcode":"0","longitude":"-4.6322062","latitude":"53.3065070","tel":"0","address":"0","add":"Kingsland Road - LL65 Holyhead"},{"id":"42849","sname":"Asda Kinmel Bay","postcode":"0","longitude":"-3.5173751","latitude":"53.3040678","tel":"0","address":"0","add":"St Asaph Avenue North - LL18 Kinmel Bay"},{"id":"42850","sname":"Asda Bridgend","postcode":"0","longitude":"-3.5528112","latitude":"51.5040747","tel":"0","address":"0","add":"Coychurch Road - CF31 Bridgend"},{"id":"42851","sname":"Asda Llantrisant","postcode":"0","longitude":"-3.3749525","latitude":"51.5429188","tel":"0","address":"0","add":"Unit 4 Glamorgan Vale Retail Park - CF72 Llantrisant"},{"id":"42852","sname":"Asda Caerphilly","postcode":"0","longitude":"-3.2212834","latitude":"51.5850174","tel":"0","address":"0","add":"Pontygwindy Road - CF83 Caerphilly"},{"id":"42853","sname":"Asda Telford","postcode":"0","longitude":"-2.4859177","latitude":"52.6807283","tel":"0","address":"0","add":"Wrekin Park - TF1 Telford"},{"id":"42854","sname":"Asda Chester","postcode":"0","longitude":"-2.9726429","latitude":"53.1690023","tel":"0","address":"0","add":"Unit 17, Broughton Retail Park - CH4 Chester"},{"id":"42855","sname":"Asda Flint","postcode":"0","longitude":"-3.1357700","latitude":"53.2482360","tel":"0","address":"0","add":"Holywell Road, Flintshire Retail Park - CH6 Flint"},{"id":"42856","sname":"Asda Cwmbran","postcode":"0","longitude":"-3.0209211","latitude":"51.6485704","tel":"0","address":"0","add":"Llewelyn - NP44 Cwmbran"},{"id":"42857","sname":"Asda Queensferry","postcode":"0","longitude":"-3.0329582","latitude":"53.2020976","tel":"0","address":"0","add":"Aston Road - CH5 Queensferry"},{"id":"42858","sname":"Asda Telford","postcode":"0","longitude":"-2.4512896","latitude":"52.6762346","tel":"0","address":"0","add":"Malinsgate - TF3 Telford"},{"id":"42859","sname":"Asda Cardiff","postcode":"0","longitude":"-3.2531758","latitude":"51.5231531","tel":"0","address":"0","add":"Longwood Drive - CF14 Cardiff"},{"id":"42860","sname":"Asda Saltney","postcode":"0","longitude":"-2.9272732","latitude":"53.1806980","tel":"0","address":"0","add":"River Lane - CH4 Saltney"},{"id":"42861","sname":"Asda Telford","postcode":"0","longitude":"-2.4340343","latitude":"52.7103042","tel":"0","address":"0","add":"St Georges Road - TF2 Telford"},{"id":"42862","sname":"Asda Pontprennau","postcode":"0","longitude":"-3.1297683","latitude":"51.5356653","tel":"0","address":"0","add":"8 Dering Road - CF23 Pontprennau"},{"id":"42863","sname":"Asda Newport","postcode":"0","longitude":"-2.9887749","latitude":"51.5826091","tel":"0","address":"0","add":"Lower Dock Street - NP20 Newport"},{"id":"42864","sname":"Asda Newport","postcode":"0","longitude":"-3.0296315","latitude":"51.5585390","tel":"0","address":"0","add":"Pencarn Way - Coedkernew - NP10 Newport"},{"id":"42865","sname":"Asda Market Drayton","postcode":"0","longitude":"-2.4830929","latitude":"52.9047464","tel":"0","address":"0","add":"32 Stafford Street - TF9 Market Drayton"},{"id":"42866","sname":"Asda Cardiff","postcode":"0","longitude":"-3.2107903","latitude":"51.4705287","tel":"0","address":"0","add":"Capital Retail Park-Leckwith Road - CF11 Cardiff"},{"id":"42867","sname":"Asda Newport","postcode":"0","longitude":"-2.9615551","latitude":"51.5776790","tel":"0","address":"0","add":"Unit 3 & 4, Newport Retail Park - NP19 Newport"},{"id":"42868","sname":"Asda Cardiff","postcode":"0","longitude":"-3.1857006","latitude":"51.4570489","tel":"0","address":"0","add":"Ferry Road Retail Park - CF11 Cardiff"},{"id":"42869","sname":"Asda Ellesmere Port","postcode":"0","longitude":"-2.8966004","latitude":"53.2769025","tel":"0","address":"0","add":"Grange Road - CH65 Ellesmere Port"},{"id":"42870","sname":"Asda Kidderminster","postcode":"0","longitude":"-2.2488880","latitude":"52.3832062","tel":"0","address":"0","add":"New Road,  - DY10 Kidderminster"},{"id":"42871","sname":"Asda Birkenhead","postcode":"0","longitude":"-3.0361211","latitude":"53.3842368","tel":"0","address":"0","add":"Woodchurch Road - CH41 Birkenhead"},{"id":"42872","sname":"Asda Bromborough","postcode":"0","longitude":"-2.9757088","latitude":"53.3408408","tel":"0","address":"0","add":"Welton Road - Croft Business Park - CH62 Bromborough"},{"id":"42873","sname":"Asda Birkenhead","postcode":"0","longitude":"-3.0211331","latitude":"53.3897846","tel":"0","address":"0","add":"222 Grange Road - CH41 Birkenhead"},{"id":"42874","sname":"Asda Birkenhead","postcode":"0","longitude":"-3.0601807","latitude":"53.4032320","tel":"0","address":"0","add":"Unit 1 Stanley Road - CH41 Birkenhead"},{"id":"42875","sname":"Asda Worcester","postcode":"0","longitude":"-2.2183625","latitude":"52.1939969","tel":"0","address":"0","add":"Silver Street - WR1 Worcester"},{"id":"42876","sname":"Asda Garston","postcode":"0","longitude":"-2.8994216","latitude":"53.3542450","tel":"0","address":"0","add":"St. Mary's Road - L19 Garston"},{"id":"42877","sname":"Asda Wallasey","postcode":"0","longitude":"-3.0479433","latitude":"53.4244109","tel":"0","address":"0","add":"Sea View Road - CH45 Wallasey"},{"id":"42878","sname":"Asda Liverpool","postcode":"0","longitude":"-2.8671346","latitude":"53.3579403","tel":"0","address":"0","add":"Hunts Cross Shopping Centre - L24 Liverpool"},{"id":"42879","sname":"Asda Liverpool","postcode":"0","longitude":"-2.9405135","latitude":"53.3956678","tel":"0","address":"0","add":"126 Smithdown Road - L15 Liverpool"},{"id":"42880","sname":"Asda Wavertree","postcode":"0","longitude":"-2.9168226","latitude":"53.3900728","tel":"0","address":"0","add":"Penny Lane Centre, Church Road, - L15 Wavertree"},{"id":"42881","sname":"Asda Brierley Hill","postcode":"0","longitude":"-2.1204410","latitude":"52.4829043","tel":"0","address":"0","add":"Pearson Street - DY5 Brierley Hill"},{"id":"42882","sname":"Asda Wolverhampton","postcode":"0","longitude":"-2.1000388","latitude":"52.5853486","tel":"0","address":"0","add":"Molineux Way - Waterloo Road - WV1 Wolverhampton"},{"id":"42883","sname":"Asda Crewe","postcode":"0","longitude":"-2.4451722","latitude":"53.0999100","tel":"0","address":"0","add":"Victoria Centre - CW1 Crewe"},{"id":"42824","sname":"Asda Aberdeen","postcode":"0","longitude":"-2.0958216","latitude":"57.1684445","tel":"0","address":"0","add":"Unit 1, Beach Boulevard Retail Park - AB24 Aberdeen"},{"id":"42825","sname":"Asda Aberdeen","postcode":"0","longitude":"-2.1726194","latitude":"57.2063280","tel":"0","address":"0","add":"Riverview Drive - AB21 Aberdeen"},{"id":"42826","sname":"Asda Pwllheli","postcode":"0","longitude":"-4.4138086","latitude":"52.8907578","tel":"0","address":"0","add":"Sand Street - LL53 Pwllheli"},{"id":"42827","sname":"Asda Godrergraig","postcode":"0","longitude":"-3.7818585","latitude":"51.7623920","tel":"0","address":"0","add":"Glanyrafon - SA9 Godrergraig"},{"id":"42828","sname":"Asda Caernarfon","postcode":"0","longitude":"-4.2596886","latitude":"53.1539838","tel":"0","address":"0","add":"Bangor Road - LL55 Caernarfon"},{"id":"42829","sname":"Asda Llanelli","postcode":"0","longitude":"-4.1614003","latitude":"51.6805045","tel":"0","address":"0","add":"Murray Street - SA15 Llanelli"},{"id":"42830","sname":"Asda Llanelli","postcode":"0","longitude":"-4.1386968","latitude":"51.6761080","tel":"0","address":"0","add":"Unit 5 Trostre Retail Park - SA14 Llanelli"},{"id":"42831","sname":"Asda Gorseinon","postcode":"0","longitude":"-4.0329768","latitude":"51.6716028","tel":"0","address":"0","add":"Heol Y Mynydd,  - SA4 Gorseinon"},{"id":"42832","sname":"Asda Swansea","postcode":"0","longitude":"-3.9112492","latitude":"51.6653026","tel":"0","address":"0","add":"Upper Forest Way - SA6 Swansea"},{"id":"42833","sname":"Asda Merthyr Tydfil","postcode":"0","longitude":"-3.3416272","latitude":"51.7638332","tel":"0","address":"0","add":"Dowlais Top - CF48 Merthyr Tydfil"},{"id":"42834","sname":"Asda Bangor","postcode":"0","longitude":"-4.1334203","latitude":"53.2239716","tel":"0","address":"0","add":"Farrar Road, - LL57 Bangor"},{"id":"42835","sname":"Asda Aberdare","postcode":"0","longitude":"-3.4518160","latitude":"51.7161540","tel":"0","address":"0","add":"Riverside Retail Park - CF44 Aberdare"},{"id":"42836","sname":"Asda Ebbw Vale","postcode":"0","longitude":"-3.2061510","latitude":"51.7775320","tel":"0","address":"0","add":"Lakeside Retail Park - Nantyglo - NP23 Ebbw Vale"},{"id":"42837","sname":"Asda Llangefni","postcode":"0","longitude":"-4.3114020","latitude":"53.2557850","tel":"0","address":"0","add":"Ffordd Cae Sel - LL77 Llangefni"},{"id":"42838","sname":"Asda Maesteg","postcode":"0","longitude":"-3.6586163","latitude":"51.6100831","tel":"0","address":"0","add":"Castle Street - CF34 Maesteg"},{"id":"42839","sname":"Asda Shrewsbury","postcode":"0","longitude":"-2.7425102","latitude":"52.7043763","tel":"0","address":"0","add":"Old Potts Way, - SY3 Shrewsbury"},{"id":"42840","sname":"Asda Llandudno Junction","postcode":"0","longitude":"-3.8031720","latitude":"53.2836148","tel":"0","address":"0","add":"Conway Road - LL31 Llandudno Junction"},{"id":"42841","sname":"Asda Tonypandy","postcode":"0","longitude":"-3.4535109","latitude":"51.6275421","tel":"0","address":"0","add":"Colliers Way - CF40 Tonypandy"},{"id":"42842","sname":"Asda Pembroke Dock","postcode":"0","longitude":"-4.9409845","latitude":"51.6943452","tel":"0","address":"0","add":"Gordon Street - SA72 Pembroke Dock"},{"id":"42843","sname":"Asda Wrexham","postcode":"0","longitude":"-2.9924940","latitude":"53.0430400","tel":"0","address":"0","add":"Island Green Shopping Park, Hill Street - LL13 Wrexham"},{"id":"42844","sname":"Asda Llandudno","postcode":"0","longitude":"-3.8138615","latitude":"53.3134920","tel":"0","address":"0","add":"Conway Road - LL30 Llandudno"},{"id":"42845","sname":"Asda Hereford","postcode":"0","longitude":"-2.7269550","latitude":"52.0454125","tel":"0","address":"0","add":"Belmont Road - HR2 Hereford"},{"id":"42846","sname":"Asda Wrexham","postcode":"0","longitude":"-2.9741913","latitude":"53.0525258","tel":"0","address":"0","add":"Holt Road - LL13 Wrexham"},{"id":"42847","sname":"Asda Blackwood","postcode":"0","longitude":"-3.1933945","latitude":"51.6756142","tel":"0","address":"0","add":"High Street - NP12 Blackwood"},{"id":"42848","sname":"Asda Holyhead","postcode":"0","longitude":"-4.6322062","latitude":"53.3065070","tel":"0","address":"0","add":"Kingsland Road - LL65 Holyhead"},{"id":"42849","sname":"Asda Kinmel Bay","postcode":"0","longitude":"-3.5173751","latitude":"53.3040678","tel":"0","address":"0","add":"St Asaph Avenue North - LL18 Kinmel Bay"},{"id":"42850","sname":"Asda Bridgend","postcode":"0","longitude":"-3.5528112","latitude":"51.5040747","tel":"0","address":"0","add":"Coychurch Road - CF31 Bridgend"},{"id":"42851","sname":"Asda Llantrisant","postcode":"0","longitude":"-3.3749525","latitude":"51.5429188","tel":"0","address":"0","add":"Unit 4 Glamorgan Vale Retail Park - CF72 Llantrisant"},{"id":"42852","sname":"Asda Caerphilly","postcode":"0","longitude":"-3.2212834","latitude":"51.5850174","tel":"0","address":"0","add":"Pontygwindy Road - CF83 Caerphilly"},{"id":"42853","sname":"Asda Telford","postcode":"0","longitude":"-2.4859177","latitude":"52.6807283","tel":"0","address":"0","add":"Wrekin Park - TF1 Telford"},{"id":"42854","sname":"Asda Chester","postcode":"0","longitude":"-2.9726429","latitude":"53.1690023","tel":"0","address":"0","add":"Unit 17, Broughton Retail Park - CH4 Chester"},{"id":"42855","sname":"Asda Flint","postcode":"0","longitude":"-3.1357700","latitude":"53.2482360","tel":"0","address":"0","add":"Holywell Road, Flintshire Retail Park - CH6 Flint"},{"id":"42856","sname":"Asda Cwmbran","postcode":"0","longitude":"-3.0209211","latitude":"51.6485704","tel":"0","address":"0","add":"Llewelyn - NP44 Cwmbran"},{"id":"42857","sname":"Asda Queensferry","postcode":"0","longitude":"-3.0329582","latitude":"53.2020976","tel":"0","address":"0","add":"Aston Road - CH5 Queensferry"},{"id":"42858","sname":"Asda Telford","postcode":"0","longitude":"-2.4512896","latitude":"52.6762346","tel":"0","address":"0","add":"Malinsgate - TF3 Telford"},{"id":"42859","sname":"Asda Cardiff","postcode":"0","longitude":"-3.2531758","latitude":"51.5231531","tel":"0","address":"0","add":"Longwood Drive - CF14 Cardiff"},{"id":"42860","sname":"Asda Saltney","postcode":"0","longitude":"-2.9272732","latitude":"53.1806980","tel":"0","address":"0","add":"River Lane - CH4 Saltney"},{"id":"42861","sname":"Asda Telford","postcode":"0","longitude":"-2.4340343","latitude":"52.7103042","tel":"0","address":"0","add":"St Georges Road - TF2 Telford"},{"id":"42862","sname":"Asda Pontprennau","postcode":"0","longitude":"-3.1297683","latitude":"51.5356653","tel":"0","address":"0","add":"8 Dering Road - CF23 Pontprennau"},{"id":"42863","sname":"Asda Newport","postcode":"0","longitude":"-2.9887749","latitude":"51.5826091","tel":"0","address":"0","add":"Lower Dock Street - NP20 Newport"},{"id":"42864","sname":"Asda Newport","postcode":"0","longitude":"-3.0296315","latitude":"51.5585390","tel":"0","address":"0","add":"Pencarn Way - Coedkernew - NP10 Newport"},{"id":"42865","sname":"Asda Market Drayton","postcode":"0","longitude":"-2.4830929","latitude":"52.9047464","tel":"0","address":"0","add":"32 Stafford Street - TF9 Market Drayton"},{"id":"42866","sname":"Asda Cardiff","postcode":"0","longitude":"-3.2107903","latitude":"51.4705287","tel":"0","address":"0","add":"Capital Retail Park-Leckwith Road - CF11 Cardiff"},{"id":"42867","sname":"Asda Newport","postcode":"0","longitude":"-2.9615551","latitude":"51.5776790","tel":"0","address":"0","add":"Unit 3 & 4, Newport Retail Park - NP19 Newport"},{"id":"42868","sname":"Asda Cardiff","postcode":"0","longitude":"-3.1857006","latitude":"51.4570489","tel":"0","address":"0","add":"Ferry Road Retail Park - CF11 Cardiff"},{"id":"42869","sname":"Asda Ellesmere Port","postcode":"0","longitude":"-2.8966004","latitude":"53.2769025","tel":"0","address":"0","add":"Grange Road - CH65 Ellesmere Port"},{"id":"42870","sname":"Asda Kidderminster","postcode":"0","longitude":"-2.2488880","latitude":"52.3832062","tel":"0","address":"0","add":"New Road,  - DY10 Kidderminster"},{"id":"42871","sname":"Asda Birkenhead","postcode":"0","longitude":"-3.0361211","latitude":"53.3842368","tel":"0","address":"0","add":"Woodchurch Road - CH41 Birkenhead"},{"id":"42872","sname":"Asda Bromborough","postcode":"0","longitude":"-2.9757088","latitude":"53.3408408","tel":"0","address":"0","add":"Welton Road - Croft Business Park - CH62 Bromborough"},{"id":"42873","sname":"Asda Birkenhead","postcode":"0","longitude":"-3.0211331","latitude":"53.3897846","tel":"0","address":"0","add":"222 Grange Road - CH41 Birkenhead"},{"id":"42874","sname":"Asda Birkenhead","postcode":"0","longitude":"-3.0601807","latitude":"53.4032320","tel":"0","address":"0","add":"Unit 1 Stanley Road - CH41 Birkenhead"},{"id":"42875","sname":"Asda Worcester","postcode":"0","longitude":"-2.2183625","latitude":"52.1939969","tel":"0","address":"0","add":"Silver Street - WR1 Worcester"},{"id":"42876","sname":"Asda Garston","postcode":"0","longitude":"-2.8994216","latitude":"53.3542450","tel":"0","address":"0","add":"St. Mary's Road - L19 Garston"},{"id":"42877","sname":"Asda Wallasey","postcode":"0","longitude":"-3.0479433","latitude":"53.4244109","tel":"0","address":"0","add":"Sea View Road - CH45 Wallasey"},{"id":"42878","sname":"Asda Liverpool","postcode":"0","longitude":"-2.8671346","latitude":"53.3579403","tel":"0","address":"0","add":"Hunts Cross Shopping Centre - L24 Liverpool"},{"id":"42879","sname":"Asda Liverpool","postcode":"0","longitude":"-2.9405135","latitude":"53.3956678","tel":"0","address":"0","add":"126 Smithdown Road - L15 Liverpool"},{"id":"42880","sname":"Asda Wavertree","postcode":"0","longitude":"-2.9168226","latitude":"53.3900728","tel":"0","address":"0","add":"Penny Lane Centre, Church Road, - L15 Wavertree"},{"id":"42881","sname":"Asda Brierley Hill","postcode":"0","longitude":"-2.1204410","latitude":"52.4829043","tel":"0","address":"0","add":"Pearson Street - DY5 Brierley Hill"},{"id":"42882","sname":"Asda Wolverhampton","postcode":"0","longitude":"-2.1000388","latitude":"52.5853486","tel":"0","address":"0","add":"Molineux Way - Waterloo Road - WV1 Wolverhampton"},{"id":"42883","sname":"Asda Crewe","postcode":"0","longitude":"-2.4451722","latitude":"53.0999100","tel":"0","address":"0","add":"Victoria Centre - CW1 Crewe"},{"id":"42824","sname":"Asda Aberdeen","postcode":"0","longitude":"-2.0958216","latitude":"57.1684445","tel":"0","address":"0","add":"Unit 1, Beach Boulevard Retail Park - AB24 Aberdeen"},{"id":"42825","sname":"Asda Aberdeen","postcode":"0","longitude":"-2.1726194","latitude":"57.2063280","tel":"0","address":"0","add":"Riverview Drive - AB21 Aberdeen"},{"id":"42826","sname":"Asda Pwllheli","postcode":"0","longitude":"-4.4138086","latitude":"52.8907578","tel":"0","address":"0","add":"Sand Street - LL53 Pwllheli"},{"id":"42827","sname":"Asda Godrergraig","postcode":"0","longitude":"-3.7818585","latitude":"51.7623920","tel":"0","address":"0","add":"Glanyrafon - SA9 Godrergraig"},{"id":"42828","sname":"Asda Caernarfon","postcode":"0","longitude":"-4.2596886","latitude":"53.1539838","tel":"0","address":"0","add":"Bangor Road - LL55 Caernarfon"},{"id":"42829","sname":"Asda Llanelli","postcode":"0","longitude":"-4.1614003","latitude":"51.6805045","tel":"0","address":"0","add":"Murray Street - SA15 Llanelli"},{"id":"42830","sname":"Asda Llanelli","postcode":"0","longitude":"-4.1386968","latitude":"51.6761080","tel":"0","address":"0","add":"Unit 5 Trostre Retail Park - SA14 Llanelli"},{"id":"42831","sname":"Asda Gorseinon","postcode":"0","longitude":"-4.0329768","latitude":"51.6716028","tel":"0","address":"0","add":"Heol Y Mynydd,  - SA4 Gorseinon"},{"id":"42832","sname":"Asda Swansea","postcode":"0","longitude":"-3.9112492","latitude":"51.6653026","tel":"0","address":"0","add":"Upper Forest Way - SA6 Swansea"},{"id":"42833","sname":"Asda Merthyr Tydfil","postcode":"0","longitude":"-3.3416272","latitude":"51.7638332","tel":"0","address":"0","add":"Dowlais Top - CF48 Merthyr Tydfil"},{"id":"42834","sname":"Asda Bangor","postcode":"0","longitude":"-4.1334203","latitude":"53.2239716","tel":"0","address":"0","add":"Farrar Road, - LL57 Bangor"},{"id":"42835","sname":"Asda Aberdare","postcode":"0","longitude":"-3.4518160","latitude":"51.7161540","tel":"0","address":"0","add":"Riverside Retail Park - CF44 Aberdare"},{"id":"42836","sname":"Asda Ebbw Vale","postcode":"0","longitude":"-3.2061510","latitude":"51.7775320","tel":"0","address":"0","add":"Lakeside Retail Park - Nantyglo - NP23 Ebbw Vale"},{"id":"42837","sname":"Asda Llangefni","postcode":"0","longitude":"-4.3114020","latitude":"53.2557850","tel":"0","address":"0","add":"Ffordd Cae Sel - LL77 Llangefni"},{"id":"42838","sname":"Asda Maesteg","postcode":"0","longitude":"-3.6586163","latitude":"51.6100831","tel":"0","address":"0","add":"Castle Street - CF34 Maesteg"},{"id":"42839","sname":"Asda Shrewsbury","postcode":"0","longitude":"-2.7425102","latitude":"52.7043763","tel":"0","address":"0","add":"Old Potts Way, - SY3 Shrewsbury"},{"id":"42840","sname":"Asda Llandudno Junction","postcode":"0","longitude":"-3.8031720","latitude":"53.2836148","tel":"0","address":"0","add":"Conway Road - LL31 Llandudno Junction"},{"id":"42841","sname":"Asda Tonypandy","postcode":"0","longitude":"-3.4535109","latitude":"51.6275421","tel":"0","address":"0","add":"Colliers Way - CF40 Tonypandy"},{"id":"42842","sname":"Asda Pembroke Dock","postcode":"0","longitude":"-4.9409845","latitude":"51.6943452","tel":"0","address":"0","add":"Gordon Street - SA72 Pembroke Dock"},{"id":"42843","sname":"Asda Wrexham","postcode":"0","longitude":"-2.9924940","latitude":"53.0430400","tel":"0","address":"0","add":"Island Green Shopping Park, Hill Street - LL13 Wrexham"},{"id":"42844","sname":"Asda Llandudno","postcode":"0","longitude":"-3.8138615","latitude":"53.3134920","tel":"0","address":"0","add":"Conway Road - LL30 Llandudno"},{"id":"42845","sname":"Asda Hereford","postcode":"0","longitude":"-2.7269550","latitude":"52.0454125","tel":"0","address":"0","add":"Belmont Road - HR2 Hereford"},{"id":"42846","sname":"Asda Wrexham","postcode":"0","longitude":"-2.9741913","latitude":"53.0525258","tel":"0","address":"0","add":"Holt Road - LL13 Wrexham"},{"id":"42847","sname":"Asda Blackwood","postcode":"0","longitude":"-3.1933945","latitude":"51.6756142","tel":"0","address":"0","add":"High Street - NP12 Blackwood"},{"id":"42848","sname":"Asda Holyhead","postcode":"0","longitude":"-4.6322062","latitude":"53.3065070","tel":"0","address":"0","add":"Kingsland Road - LL65 Holyhead"},{"id":"42849","sname":"Asda Kinmel Bay","postcode":"0","longitude":"-3.5173751","latitude":"53.3040678","tel":"0","address":"0","add":"St Asaph Avenue North - LL18 Kinmel Bay"},{"id":"42850","sname":"Asda Bridgend","postcode":"0","longitude":"-3.5528112","latitude":"51.5040747","tel":"0","address":"0","add":"Coychurch Road - CF31 Bridgend"},{"id":"42851","sname":"Asda Llantrisant","postcode":"0","longitude":"-3.3749525","latitude":"51.5429188","tel":"0","address":"0","add":"Unit 4 Glamorgan Vale Retail Park - CF72 Llantrisant"},{"id":"42852","sname":"Asda Caerphilly","postcode":"0","longitude":"-3.2212834","latitude":"51.5850174","tel":"0","address":"0","add":"Pontygwindy Road - CF83 Caerphilly"},{"id":"42853","sname":"Asda Telford","postcode":"0","longitude":"-2.4859177","latitude":"52.6807283","tel":"0","address":"0","add":"Wrekin Park - TF1 Telford"},{"id":"42854","sname":"Asda Chester","postcode":"0","longitude":"-2.9726429","latitude":"53.1690023","tel":"0","address":"0","add":"Unit 17, Broughton Retail Park - CH4 Chester"},{"id":"42855","sname":"Asda Flint","postcode":"0","longitude":"-3.1357700","latitude":"53.2482360","tel":"0","address":"0","add":"Holywell Road, Flintshire Retail Park - CH6 Flint"},{"id":"42856","sname":"Asda Cwmbran","postcode":"0","longitude":"-3.0209211","latitude":"51.6485704","tel":"0","address":"0","add":"Llewelyn - NP44 Cwmbran"},{"id":"42857","sname":"Asda Queensferry","postcode":"0","longitude":"-3.0329582","latitude":"53.2020976","tel":"0","address":"0","add":"Aston Road - CH5 Queensferry"},{"id":"42858","sname":"Asda Telford","postcode":"0","longitude":"-2.4512896","latitude":"52.6762346","tel":"0","address":"0","add":"Malinsgate - TF3 Telford"},{"id":"42859","sname":"Asda Cardiff","postcode":"0","longitude":"-3.2531758","latitude":"51.5231531","tel":"0","address":"0","add":"Longwood Drive - CF14 Cardiff"},{"id":"42860","sname":"Asda Saltney","postcode":"0","longitude":"-2.9272732","latitude":"53.1806980","tel":"0","address":"0","add":"River Lane - CH4 Saltney"},{"id":"42861","sname":"Asda Telford","postcode":"0","longitude":"-2.4340343","latitude":"52.7103042","tel":"0","address":"0","add":"St Georges Road - TF2 Telford"},{"id":"42862","sname":"Asda Pontprennau","postcode":"0","longitude":"-3.1297683","latitude":"51.5356653","tel":"0","address":"0","add":"8 Dering Road - CF23 Pontprennau"},{"id":"42863","sname":"Asda Newport","postcode":"0","longitude":"-2.9887749","latitude":"51.5826091","tel":"0","address":"0","add":"Lower Dock Street - NP20 Newport"},{"id":"42864","sname":"Asda Newport","postcode":"0","longitude":"-3.0296315","latitude":"51.5585390","tel":"0","address":"0","add":"Pencarn Way - Coedkernew - NP10 Newport"},{"id":"42865","sname":"Asda Market Drayton","postcode":"0","longitude":"-2.4830929","latitude":"52.9047464","tel":"0","address":"0","add":"32 Stafford Street - TF9 Market Drayton"},{"id":"42866","sname":"Asda Cardiff","postcode":"0","longitude":"-3.2107903","latitude":"51.4705287","tel":"0","address":"0","add":"Capital Retail Park-Leckwith Road - CF11 Cardiff"},{"id":"42867","sname":"Asda Newport","postcode":"0","longitude":"-2.9615551","latitude":"51.5776790","tel":"0","address":"0","add":"Unit 3 & 4, Newport Retail Park - NP19 Newport"},{"id":"42868","sname":"Asda Cardiff","postcode":"0","longitude":"-3.1857006","latitude":"51.4570489","tel":"0","address":"0","add":"Ferry Road Retail Park - CF11 Cardiff"},{"id":"42869","sname":"Asda Ellesmere Port","postcode":"0","longitude":"-2.8966004","latitude":"53.2769025","tel":"0","address":"0","add":"Grange Road - CH65 Ellesmere Port"},{"id":"42870","sname":"Asda Kidderminster","postcode":"0","longitude":"-2.2488880","latitude":"52.3832062","tel":"0","address":"0","add":"New Road,  - DY10 Kidderminster"},{"id":"42871","sname":"Asda Birkenhead","postcode":"0","longitude":"-3.0361211","latitude":"53.3842368","tel":"0","address":"0","add":"Woodchurch Road - CH41 Birkenhead"},{"id":"42872","sname":"Asda Bromborough","postcode":"0","longitude":"-2.9757088","latitude":"53.3408408","tel":"0","address":"0","add":"Welton Road - Croft Business Park - CH62 Bromborough"},{"id":"42873","sname":"Asda Birkenhead","postcode":"0","longitude":"-3.0211331","latitude":"53.3897846","tel":"0","address":"0","add":"222 Grange Road - CH41 Birkenhead"},{"id":"42874","sname":"Asda Birkenhead","postcode":"0","longitude":"-3.0601807","latitude":"53.4032320","tel":"0","address":"0","add":"Unit 1 Stanley Road - CH41 Birkenhead"},{"id":"42875","sname":"Asda Worcester","postcode":"0","longitude":"-2.2183625","latitude":"52.1939969","tel":"0","address":"0","add":"Silver Street - WR1 Worcester"},{"id":"42876","sname":"Asda Garston","postcode":"0","longitude":"-2.8994216","latitude":"53.3542450","tel":"0","address":"0","add":"St. Mary's Road - L19 Garston"},{"id":"42877","sname":"Asda Wallasey","postcode":"0","longitude":"-3.0479433","latitude":"53.4244109","tel":"0","address":"0","add":"Sea View Road - CH45 Wallasey"},{"id":"42878","sname":"Asda Liverpool","postcode":"0","longitude":"-2.8671346","latitude":"53.3579403","tel":"0","address":"0","add":"Hunts Cross Shopping Centre - L24 Liverpool"},{"id":"42879","sname":"Asda Liverpool","postcode":"0","longitude":"-2.9405135","latitude":"53.3956678","tel":"0","address":"0","add":"126 Smithdown Road - L15 Liverpool"},{"id":"42880","sname":"Asda Wavertree","postcode":"0","longitude":"-2.9168226","latitude":"53.3900728","tel":"0","address":"0","add":"Penny Lane Centre, Church Road, - L15 Wavertree"},{"id":"42881","sname":"Asda Brierley Hill","postcode":"0","longitude":"-2.1204410","latitude":"52.4829043","tel":"0","address":"0","add":"Pearson Street - DY5 Brierley Hill"},{"id":"42882","sname":"Asda Wolverhampton","postcode":"0","longitude":"-2.1000388","latitude":"52.5853486","tel":"0","address":"0","add":"Molineux Way - Waterloo Road - WV1 Wolverhampton"},{"id":"42883","sname":"Asda Crewe","postcode":"0","longitude":"-2.4451722","latitude":"53.0999100","tel":"0","address":"0","add":"Victoria Centre - CW1 Crewe"},{"id":"42824","sname":"Asda Aberdeen","postcode":"0","longitude":"-2.0958216","latitude":"57.1684445","tel":"0","address":"0","add":"Unit 1, Beach Boulevard Retail Park - AB24 Aberdeen"},{"id":"42825","sname":"Asda Aberdeen","postcode":"0","longitude":"-2.1726194","latitude":"57.2063280","tel":"0","address":"0","add":"Riverview Drive - AB21 Aberdeen"},{"id":"42826","sname":"Asda Pwllheli","postcode":"0","longitude":"-4.4138086","latitude":"52.8907578","tel":"0","address":"0","add":"Sand Street - LL53 Pwllheli"},{"id":"42827","sname":"Asda Godrergraig","postcode":"0","longitude":"-3.7818585","latitude":"51.7623920","tel":"0","address":"0","add":"Glanyrafon - SA9 Godrergraig"},{"id":"42828","sname":"Asda Caernarfon","postcode":"0","longitude":"-4.2596886","latitude":"53.1539838","tel":"0","address":"0","add":"Bangor Road - LL55 Caernarfon"},{"id":"42829","sname":"Asda Llanelli","postcode":"0","longitude":"-4.1614003","latitude":"51.6805045","tel":"0","address":"0","add":"Murray Street - SA15 Llanelli"},{"id":"42830","sname":"Asda Llanelli","postcode":"0","longitude":"-4.1386968","latitude":"51.6761080","tel":"0","address":"0","add":"Unit 5 Trostre Retail Park - SA14 Llanelli"},{"id":"42831","sname":"Asda Gorseinon","postcode":"0","longitude":"-4.0329768","latitude":"51.6716028","tel":"0","address":"0","add":"Heol Y Mynydd,  - SA4 Gorseinon"},{"id":"42832","sname":"Asda Swansea","postcode":"0","longitude":"-3.9112492","latitude":"51.6653026","tel":"0","address":"0","add":"Upper Forest Way - SA6 Swansea"},{"id":"42833","sname":"Asda Merthyr Tydfil","postcode":"0","longitude":"-3.3416272","latitude":"51.7638332","tel":"0","address":"0","add":"Dowlais Top - CF48 Merthyr Tydfil"},{"id":"42834","sname":"Asda Bangor","postcode":"0","longitude":"-4.1334203","latitude":"53.2239716","tel":"0","address":"0","add":"Farrar Road, - LL57 Bangor"},{"id":"42835","sname":"Asda Aberdare","postcode":"0","longitude":"-3.4518160","latitude":"51.7161540","tel":"0","address":"0","add":"Riverside Retail Park - CF44 Aberdare"},{"id":"42836","sname":"Asda Ebbw Vale","postcode":"0","longitude":"-3.2061510","latitude":"51.7775320","tel":"0","address":"0","add":"Lakeside Retail Park - Nantyglo - NP23 Ebbw Vale"},{"id":"42837","sname":"Asda Llangefni","postcode":"0","longitude":"-4.3114020","latitude":"53.2557850","tel":"0","address":"0","add":"Ffordd Cae Sel - LL77 Llangefni"},{"id":"42838","sname":"Asda Maesteg","postcode":"0","longitude":"-3.6586163","latitude":"51.6100831","tel":"0","address":"0","add":"Castle Street - CF34 Maesteg"},{"id":"42839","sname":"Asda Shrewsbury","postcode":"0","longitude":"-2.7425102","latitude":"52.7043763","tel":"0","address":"0","add":"Old Potts Way, - SY3 Shrewsbury"},{"id":"42840","sname":"Asda Llandudno Junction","postcode":"0","longitude":"-3.8031720","latitude":"53.2836148","tel":"0","address":"0","add":"Conway Road - LL31 Llandudno Junction"},{"id":"42841","sname":"Asda Tonypandy","postcode":"0","longitude":"-3.4535109","latitude":"51.6275421","tel":"0","address":"0","add":"Colliers Way - CF40 Tonypandy"},{"id":"42842","sname":"Asda Pembroke Dock","postcode":"0","longitude":"-4.9409845","latitude":"51.6943452","tel":"0","address":"0","add":"Gordon Street - SA72 Pembroke Dock"},{"id":"42843","sname":"Asda Wrexham","postcode":"0","longitude":"-2.9924940","latitude":"53.0430400","tel":"0","address":"0","add":"Island Green Shopping Park, Hill Street - LL13 Wrexham"},{"id":"42844","sname":"Asda Llandudno","postcode":"0","longitude":"-3.8138615","latitude":"53.3134920","tel":"0","address":"0","add":"Conway Road - LL30 Llandudno"},{"id":"42845","sname":"Asda Hereford","postcode":"0","longitude":"-2.7269550","latitude":"52.0454125","tel":"0","address":"0","add":"Belmont Road - HR2 Hereford"},{"id":"42846","sname":"Asda Wrexham","postcode":"0","longitude":"-2.9741913","latitude":"53.0525258","tel":"0","address":"0","add":"Holt Road - LL13 Wrexham"},{"id":"42847","sname":"Asda Blackwood","postcode":"0","longitude":"-3.1933945","latitude":"51.6756142","tel":"0","address":"0","add":"High Street - NP12 Blackwood"},{"id":"42848","sname":"Asda Holyhead","postcode":"0","longitude":"-4.6322062","latitude":"53.3065070","tel":"0","address":"0","add":"Kingsland Road - LL65 Holyhead"},{"id":"42849","sname":"Asda Kinmel Bay","postcode":"0","longitude":"-3.5173751","latitude":"53.3040678","tel":"0","address":"0","add":"St Asaph Avenue North - LL18 Kinmel Bay"},{"id":"42850","sname":"Asda Bridgend","postcode":"0","longitude":"-3.5528112","latitude":"51.5040747","tel":"0","address":"0","add":"Coychurch Road - CF31 Bridgend"},{"id":"42851","sname":"Asda Llantrisant","postcode":"0","longitude":"-3.3749525","latitude":"51.5429188","tel":"0","address":"0","add":"Unit 4 Glamorgan Vale Retail Park - CF72 Llantrisant"},{"id":"42852","sname":"Asda Caerphilly","postcode":"0","longitude":"-3.2212834","latitude":"51.5850174","tel":"0","address":"0","add":"Pontygwindy Road - CF83 Caerphilly"},{"id":"42853","sname":"Asda Telford","postcode":"0","longitude":"-2.4859177","latitude":"52.6807283","tel":"0","address":"0","add":"Wrekin Park - TF1 Telford"},{"id":"42854","sname":"Asda Chester","postcode":"0","longitude":"-2.9726429","latitude":"53.1690023","tel":"0","address":"0","add":"Unit 17, Broughton Retail Park - CH4 Chester"},{"id":"42855","sname":"Asda Flint","postcode":"0","longitude":"-3.1357700","latitude":"53.2482360","tel":"0","address":"0","add":"Holywell Road, Flintshire Retail Park - CH6 Flint"},{"id":"42856","sname":"Asda Cwmbran","postcode":"0","longitude":"-3.0209211","latitude":"51.6485704","tel":"0","address":"0","add":"Llewelyn - NP44 Cwmbran"},{"id":"42857","sname":"Asda Queensferry","postcode":"0","longitude":"-3.0329582","latitude":"53.2020976","tel":"0","address":"0","add":"Aston Road - CH5 Queensferry"},{"id":"42858","sname":"Asda Telford","postcode":"0","longitude":"-2.4512896","latitude":"52.6762346","tel":"0","address":"0","add":"Malinsgate - TF3 Telford"},{"id":"42859","sname":"Asda Cardiff","postcode":"0","longitude":"-3.2531758","latitude":"51.5231531","tel":"0","address":"0","add":"Longwood Drive - CF14 Cardiff"},{"id":"42860","sname":"Asda Saltney","postcode":"0","longitude":"-2.9272732","latitude":"53.1806980","tel":"0","address":"0","add":"River Lane - CH4 Saltney"},{"id":"42861","sname":"Asda Telford","postcode":"0","longitude":"-2.4340343","latitude":"52.7103042","tel":"0","address":"0","add":"St Georges Road - TF2 Telford"},{"id":"42862","sname":"Asda Pontprennau","postcode":"0","longitude":"-3.1297683","latitude":"51.5356653","tel":"0","address":"0","add":"8 Dering Road - CF23 Pontprennau"},{"id":"42863","sname":"Asda Newport","postcode":"0","longitude":"-2.9887749","latitude":"51.5826091","tel":"0","address":"0","add":"Lower Dock Street - NP20 Newport"},{"id":"42864","sname":"Asda Newport","postcode":"0","longitude":"-3.0296315","latitude":"51.5585390","tel":"0","address":"0","add":"Pencarn Way - Coedkernew - NP10 Newport"},{"id":"42865","sname":"Asda Market Drayton","postcode":"0","longitude":"-2.4830929","latitude":"52.9047464","tel":"0","address":"0","add":"32 Stafford Street - TF9 Market Drayton"},{"id":"42866","sname":"Asda Cardiff","postcode":"0","longitude":"-3.2107903","latitude":"51.4705287","tel":"0","address":"0","add":"Capital Retail Park-Leckwith Road - CF11 Cardiff"},{"id":"42867","sname":"Asda Newport","postcode":"0","longitude":"-2.9615551","latitude":"51.5776790","tel":"0","address":"0","add":"Unit 3 & 4, Newport Retail Park - NP19 Newport"},{"id":"42868","sname":"Asda Cardiff","postcode":"0","longitude":"-3.1857006","latitude":"51.4570489","tel":"0","address":"0","add":"Ferry Road Retail Park - CF11 Cardiff"},{"id":"42869","sname":"Asda Ellesmere Port","postcode":"0","longitude":"-2.8966004","latitude":"53.2769025","tel":"0","address":"0","add":"Grange Road - CH65 Ellesmere Port"},{"id":"42870","sname":"Asda Kidderminster","postcode":"0","longitude":"-2.2488880","latitude":"52.3832062","tel":"0","address":"0","add":"New Road,  - DY10 Kidderminster"},{"id":"42871","sname":"Asda Birkenhead","postcode":"0","longitude":"-3.0361211","latitude":"53.3842368","tel":"0","address":"0","add":"Woodchurch Road - CH41 Birkenhead"},{"id":"42872","sname":"Asda Bromborough","postcode":"0","longitude":"-2.9757088","latitude":"53.3408408","tel":"0","address":"0","add":"Welton Road - Croft Business Park - CH62 Bromborough"},{"id":"42873","sname":"Asda Birkenhead","postcode":"0","longitude":"-3.0211331","latitude":"53.3897846","tel":"0","address":"0","add":"222 Grange Road - CH41 Birkenhead"},{"id":"42874","sname":"Asda Birkenhead","postcode":"0","longitude":"-3.0601807","latitude":"53.4032320","tel":"0","address":"0","add":"Unit 1 Stanley Road - CH41 Birkenhead"},{"id":"42875","sname":"Asda Worcester","postcode":"0","longitude":"-2.2183625","latitude":"52.1939969","tel":"0","address":"0","add":"Silver Street - WR1 Worcester"},{"id":"42876","sname":"Asda Garston","postcode":"0","longitude":"-2.8994216","latitude":"53.3542450","tel":"0","address":"0","add":"St. Mary's Road - L19 Garston"},{"id":"42877","sname":"Asda Wallasey","postcode":"0","longitude":"-3.0479433","latitude":"53.4244109","tel":"0","address":"0","add":"Sea View Road - CH45 Wallasey"},{"id":"42878","sname":"Asda Liverpool","postcode":"0","longitude":"-2.8671346","latitude":"53.3579403","tel":"0","address":"0","add":"Hunts Cross Shopping Centre - L24 Liverpool"},{"id":"42879","sname":"Asda Liverpool","postcode":"0","longitude":"-2.9405135","latitude":"53.3956678","tel":"0","address":"0","add":"126 Smithdown Road - L15 Liverpool"},{"id":"42880","sname":"Asda Wavertree","postcode":"0","longitude":"-2.9168226","latitude":"53.3900728","tel":"0","address":"0","add":"Penny Lane Centre, Church Road, - L15 Wavertree"},{"id":"42881","sname":"Asda Brierley Hill","postcode":"0","longitude":"-2.1204410","latitude":"52.4829043","tel":"0","address":"0","add":"Pearson Street - DY5 Brierley Hill"},{"id":"42882","sname":"Asda Wolverhampton","postcode":"0","longitude":"-2.1000388","latitude":"52.5853486","tel":"0","address":"0","add":"Molineux Way - Waterloo Road - WV1 Wolverhampton"},{"id":"42883","sname":"Asda Crewe","postcode":"0","longitude":"-2.4451722","latitude":"53.0999100","tel":"0","address":"0","add":"Victoria Centre - CW1 Crewe"},{"id":"42824","sname":"Asda Aberdeen","postcode":"0","longitude":"-2.0958216","latitude":"57.1684445","tel":"0","address":"0","add":"Unit 1, Beach Boulevard Retail Park - AB24 Aberdeen"},{"id":"42825","sname":"Asda Aberdeen","postcode":"0","longitude":"-2.1726194","latitude":"57.2063280","tel":"0","address":"0","add":"Riverview Drive - AB21 Aberdeen"},{"id":"42826","sname":"Asda Pwllheli","postcode":"0","longitude":"-4.4138086","latitude":"52.8907578","tel":"0","address":"0","add":"Sand Street - LL53 Pwllheli"},{"id":"42827","sname":"Asda Godrergraig","postcode":"0","longitude":"-3.7818585","latitude":"51.7623920","tel":"0","address":"0","add":"Glanyrafon - SA9 Godrergraig"},{"id":"42828","sname":"Asda Caernarfon","postcode":"0","longitude":"-4.2596886","latitude":"53.1539838","tel":"0","address":"0","add":"Bangor Road - LL55 Caernarfon"},{"id":"42829","sname":"Asda Llanelli","postcode":"0","longitude":"-4.1614003","latitude":"51.6805045","tel":"0","address":"0","add":"Murray Street - SA15 Llanelli"},{"id":"42830","sname":"Asda Llanelli","postcode":"0","longitude":"-4.1386968","latitude":"51.6761080","tel":"0","address":"0","add":"Unit 5 Trostre Retail Park - SA14 Llanelli"},{"id":"42831","sname":"Asda Gorseinon","postcode":"0","longitude":"-4.0329768","latitude":"51.6716028","tel":"0","address":"0","add":"Heol Y Mynydd,  - SA4 Gorseinon"},{"id":"42832","sname":"Asda Swansea","postcode":"0","longitude":"-3.9112492","latitude":"51.6653026","tel":"0","address":"0","add":"Upper Forest Way - SA6 Swansea"},{"id":"42833","sname":"Asda Merthyr Tydfil","postcode":"0","longitude":"-3.3416272","latitude":"51.7638332","tel":"0","address":"0","add":"Dowlais Top - CF48 Merthyr Tydfil"},{"id":"42834","sname":"Asda Bangor","postcode":"0","longitude":"-4.1334203","latitude":"53.2239716","tel":"0","address":"0","add":"Farrar Road, - LL57 Bangor"},{"id":"42835","sname":"Asda Aberdare","postcode":"0","longitude":"-3.4518160","latitude":"51.7161540","tel":"0","address":"0","add":"Riverside Retail Park - CF44 Aberdare"},{"id":"42836","sname":"Asda Ebbw Vale","postcode":"0","longitude":"-3.2061510","latitude":"51.7775320","tel":"0","address":"0","add":"Lakeside Retail Park - Nantyglo - NP23 Ebbw Vale"},{"id":"42837","sname":"Asda Llangefni","postcode":"0","longitude":"-4.3114020","latitude":"53.2557850","tel":"0","address":"0","add":"Ffordd Cae Sel - LL77 Llangefni"},{"id":"42838","sname":"Asda Maesteg","postcode":"0","longitude":"-3.6586163","latitude":"51.6100831","tel":"0","address":"0","add":"Castle Street - CF34 Maesteg"},{"id":"42839","sname":"Asda Shrewsbury","postcode":"0","longitude":"-2.7425102","latitude":"52.7043763","tel":"0","address":"0","add":"Old Potts Way, - SY3 Shrewsbury"},{"id":"42840","sname":"Asda Llandudno Junction","postcode":"0","longitude":"-3.8031720","latitude":"53.2836148","tel":"0","address":"0","add":"Conway Road - LL31 Llandudno Junction"},{"id":"42841","sname":"Asda Tonypandy","postcode":"0","longitude":"-3.4535109","latitude":"51.6275421","tel":"0","address":"0","add":"Colliers Way - CF40 Tonypandy"},{"id":"42842","sname":"Asda Pembroke Dock","postcode":"0","longitude":"-4.9409845","latitude":"51.6943452","tel":"0","address":"0","add":"Gordon Street - SA72 Pembroke Dock"},{"id":"42843","sname":"Asda Wrexham","postcode":"0","longitude":"-2.9924940","latitude":"53.0430400","tel":"0","address":"0","add":"Island Green Shopping Park, Hill Street - LL13 Wrexham"},{"id":"42844","sname":"Asda Llandudno","postcode":"0","longitude":"-3.8138615","latitude":"53.3134920","tel":"0","address":"0","add":"Conway Road - LL30 Llandudno"},{"id":"42845","sname":"Asda Hereford","postcode":"0","longitude":"-2.7269550","latitude":"52.0454125","tel":"0","address":"0","add":"Belmont Road - HR2 Hereford"},{"id":"42846","sname":"Asda Wrexham","postcode":"0","longitude":"-2.9741913","latitude":"53.0525258","tel":"0","address":"0","add":"Holt Road - LL13 Wrexham"},{"id":"42847","sname":"Asda Blackwood","postcode":"0","longitude":"-3.1933945","latitude":"51.6756142","tel":"0","address":"0","add":"High Street - NP12 Blackwood"},{"id":"42848","sname":"Asda Holyhead","postcode":"0","longitude":"-4.6322062","latitude":"53.3065070","tel":"0","address":"0","add":"Kingsland Road - LL65 Holyhead"},{"id":"42849","sname":"Asda Kinmel Bay","postcode":"0","longitude":"-3.5173751","latitude":"53.3040678","tel":"0","address":"0","add":"St Asaph Avenue North - LL18 Kinmel Bay"},{"id":"42850","sname":"Asda Bridgend","postcode":"0","longitude":"-3.5528112","latitude":"51.5040747","tel":"0","address":"0","add":"Coychurch Road - CF31 Bridgend"},{"id":"42851","sname":"Asda Llantrisant","postcode":"0","longitude":"-3.3749525","latitude":"51.5429188","tel":"0","address":"0","add":"Unit 4 Glamorgan Vale Retail Park - CF72 Llantrisant"},{"id":"42852","sname":"Asda Caerphilly","postcode":"0","longitude":"-3.2212834","latitude":"51.5850174","tel":"0","address":"0","add":"Pontygwindy Road - CF83 Caerphilly"},{"id":"42853","sname":"Asda Telford","postcode":"0","longitude":"-2.4859177","latitude":"52.6807283","tel":"0","address":"0","add":"Wrekin Park - TF1 Telford"},{"id":"42854","sname":"Asda Chester","postcode":"0","longitude":"-2.9726429","latitude":"53.1690023","tel":"0","address":"0","add":"Unit 17, Broughton Retail Park - CH4 Chester"},{"id":"42855","sname":"Asda Flint","postcode":"0","longitude":"-3.1357700","latitude":"53.2482360","tel":"0","address":"0","add":"Holywell Road, Flintshire Retail Park - CH6 Flint"},{"id":"42856","sname":"Asda Cwmbran","postcode":"0","longitude":"-3.0209211","latitude":"51.6485704","tel":"0","address":"0","add":"Llewelyn - NP44 Cwmbran"},{"id":"42857","sname":"Asda Queensferry","postcode":"0","longitude":"-3.0329582","latitude":"53.2020976","tel":"0","address":"0","add":"Aston Road - CH5 Queensferry"},{"id":"42858","sname":"Asda Telford","postcode":"0","longitude":"-2.4512896","latitude":"52.6762346","tel":"0","address":"0","add":"Malinsgate - TF3 Telford"},{"id":"42859","sname":"Asda Cardiff","postcode":"0","longitude":"-3.2531758","latitude":"51.5231531","tel":"0","address":"0","add":"Longwood Drive - CF14 Cardiff"},{"id":"42860","sname":"Asda Saltney","postcode":"0","longitude":"-2.9272732","latitude":"53.1806980","tel":"0","address":"0","add":"River Lane - CH4 Saltney"},{"id":"42861","sname":"Asda Telford","postcode":"0","longitude":"-2.4340343","latitude":"52.7103042","tel":"0","address":"0","add":"St Georges Road - TF2 Telford"},{"id":"42862","sname":"Asda Pontprennau","postcode":"0","longitude":"-3.1297683","latitude":"51.5356653","tel":"0","address":"0","add":"8 Dering Road - CF23 Pontprennau"},{"id":"42863","sname":"Asda Newport","postcode":"0","longitude":"-2.9887749","latitude":"51.5826091","tel":"0","address":"0","add":"Lower Dock Street - NP20 Newport"},{"id":"42864","sname":"Asda Newport","postcode":"0","longitude":"-3.0296315","latitude":"51.5585390","tel":"0","address":"0","add":"Pencarn Way - Coedkernew - NP10 Newport"},{"id":"42865","sname":"Asda Market Drayton","postcode":"0","longitude":"-2.4830929","latitude":"52.9047464","tel":"0","address":"0","add":"32 Stafford Street - TF9 Market Drayton"},{"id":"42866","sname":"Asda Cardiff","postcode":"0","longitude":"-3.2107903","latitude":"51.4705287","tel":"0","address":"0","add":"Capital Retail Park-Leckwith Road - CF11 Cardiff"},{"id":"42867","sname":"Asda Newport","postcode":"0","longitude":"-2.9615551","latitude":"51.5776790","tel":"0","address":"0","add":"Unit 3 & 4, Newport Retail Park - NP19 Newport"},{"id":"42868","sname":"Asda Cardiff","postcode":"0","longitude":"-3.1857006","latitude":"51.4570489","tel":"0","address":"0","add":"Ferry Road Retail Park - CF11 Cardiff"},{"id":"42869","sname":"Asda Ellesmere Port","postcode":"0","longitude":"-2.8966004","latitude":"53.2769025","tel":"0","address":"0","add":"Grange Road - CH65 Ellesmere Port"},{"id":"42870","sname":"Asda Kidderminster","postcode":"0","longitude":"-2.2488880","latitude":"52.3832062","tel":"0","address":"0","add":"New Road,  - DY10 Kidderminster"},{"id":"42871","sname":"Asda Birkenhead","postcode":"0","longitude":"-3.0361211","latitude":"53.3842368","tel":"0","address":"0","add":"Woodchurch Road - CH41 Birkenhead"},{"id":"42872","sname":"Asda Bromborough","postcode":"0","longitude":"-2.9757088","latitude":"53.3408408","tel":"0","address":"0","add":"Welton Road - Croft Business Park - CH62 Bromborough"},{"id":"42873","sname":"Asda Birkenhead","postcode":"0","longitude":"-3.0211331","latitude":"53.3897846","tel":"0","address":"0","add":"222 Grange Road - CH41 Birkenhead"},{"id":"42874","sname":"Asda Birkenhead","postcode":"0","longitude":"-3.0601807","latitude":"53.4032320","tel":"0","address":"0","add":"Unit 1 Stanley Road - CH41 Birkenhead"},{"id":"42875","sname":"Asda Worcester","postcode":"0","longitude":"-2.2183625","latitude":"52.1939969","tel":"0","address":"0","add":"Silver Street - WR1 Worcester"},{"id":"42876","sname":"Asda Garston","postcode":"0","longitude":"-2.8994216","latitude":"53.3542450","tel":"0","address":"0","add":"St. Mary's Road - L19 Garston"},{"id":"42877","sname":"Asda Wallasey","postcode":"0","longitude":"-3.0479433","latitude":"53.4244109","tel":"0","address":"0","add":"Sea View Road - CH45 Wallasey"},{"id":"42878","sname":"Asda Liverpool","postcode":"0","longitude":"-2.8671346","latitude":"53.3579403","tel":"0","address":"0","add":"Hunts Cross Shopping Centre - L24 Liverpool"},{"id":"42879","sname":"Asda Liverpool","postcode":"0","longitude":"-2.9405135","latitude":"53.3956678","tel":"0","address":"0","add":"126 Smithdown Road - L15 Liverpool"},{"id":"42880","sname":"Asda Wavertree","postcode":"0","longitude":"-2.9168226","latitude":"53.3900728","tel":"0","address":"0","add":"Penny Lane Centre, Church Road, - L15 Wavertree"},{"id":"42881","sname":"Asda Brierley Hill","postcode":"0","longitude":"-2.1204410","latitude":"52.4829043","tel":"0","address":"0","add":"Pearson Street - DY5 Brierley Hill"},{"id":"42882","sname":"Asda Wolverhampton","postcode":"0","longitude":"-2.1000388","latitude":"52.5853486","tel":"0","address":"0","add":"Molineux Way - Waterloo Road - WV1 Wolverhampton"},{"id":"42883","sname":"Asda Crewe","postcode":"0","longitude":"-2.4451722","latitude":"53.0999100","tel":"0","address":"0","add":"Victoria Centre - CW1 Crewe"}]