[{"id":"42158","sname":"Lidl Aberdeen","postcode":"0","longitude":"-2.0964451","latitude":"57.1049905","tel":"0","address":"0","add":"Wellington Road - AB12 Aberdeen"},{"id":"42159","sname":"Lidl Aberdeen","postcode":"0","longitude":"-2.0926573","latitude":"57.1738714","tel":"0","address":"0","add":"King Street 739 - AB24 Aberdeen"},{"id":"42160","sname":"Lidl Aberdeen","postcode":"0","longitude":"-2.1895365","latitude":"57.1504383","tel":"0","address":"0","add":"Lang Stracht - AB15 Aberdeen"},{"id":"42161","sname":"Lidl Bucksburn","postcode":"0","longitude":"-2.1838881","latitude":"57.1795602","tel":"0","address":"0","add":"Inverurie Road - AB21 Bucksburn"},{"id":"42162","sname":"Lidl Aberystwyth","postcode":"0","longitude":"-4.0829500","latitude":"52.4139977","tel":"0","address":"0","add":"4, Rheidol Ret Pk, Alexandra Road 4 - SY23 Aberystwyth"},{"id":"42163","sname":"Lidl Ashford","postcode":"0","longitude":"0.8679760","latitude":"51.1508729","tel":"0","address":"0","add":"New Street - TN24 Ashford"},{"id":"42164","sname":"Lidl Bangor","postcode":"0","longitude":"-4.1323988","latitude":"53.2227376","tel":"0","address":"0","add":"High Street 20 - LL57 Bangor"},{"id":"42165","sname":"Lidl Llangefni","postcode":"0","longitude":"-4.3070467","latitude":"53.2510225","tel":"0","address":"0","add":"Industrial Estate Road - LL77 Llangefni"},{"id":"42166","sname":"Lidl Barnstaple","postcode":"0","longitude":"-4.0583380","latitude":"51.0781599","tel":"0","address":"0","add":"Unit F, Barnstaple Retail Park - EX31 Barnstaple"},{"id":"42167","sname":"Lidl Barnstaple","postcode":"0","longitude":"-4.0455561","latitude":"51.0754371","tel":"0","address":"0","add":"Old Station Road - EX32 Barnstaple"},{"id":"42168","sname":"Lidl Ilfracombe","postcode":"0","longitude":"-4.1250240","latitude":"51.2091860","tel":"0","address":"0","add":"Wilder Road - EX34 Ilfracombe"},{"id":"42169","sname":"Lidl Torrington","postcode":"0","longitude":"-4.1492144","latitude":"50.9525622","tel":"0","address":"0","add":"New Street - EX38 Torrington"},{"id":"42170","sname":"Lidl Birmingham","postcode":"0","longitude":"-1.9359738","latitude":"52.4866341","tel":"0","address":"0","add":"Dudley Road 167 - 193 - B18 Birmingham"},{"id":"42171","sname":"Lidl Birmingham","postcode":"0","longitude":"-1.8865560","latitude":"52.4548700","tel":"0","address":"0","add":"Moseley Road 579 - B12 Birmingham"},{"id":"42172","sname":"Lidl Birmingham","postcode":"0","longitude":"-1.9411955","latitude":"52.5045477","tel":"0","address":"0","add":"Soho Road 397 - B21 Birmingham"},{"id":"42173","sname":"Lidl Birmingham","postcode":"0","longitude":"-1.8440000","latitude":"52.4760000","tel":"0","address":"0","add":"Bordesley Green - B9 Birmingham"},{"id":"42174","sname":"Lidl Birmingham","postcode":"0","longitude":"-1.8947592","latitude":"52.4338420","tel":"0","address":"0","add":"20-28 Silver Street - B14 Birmingham"},{"id":"42175","sname":"Lidl Birmingham","postcode":"0","longitude":"-1.9156821","latitude":"52.5324039","tel":"0","address":"0","add":"Old Walsall Road, Hamstead Industrial Estate - B42 Birmingham"},{"id":"42176","sname":"Lidl Birmingham","postcode":"0","longitude":"-1.8216353","latitude":"52.4428464","tel":"0","address":"0","add":"Olton Boulevard East - B27 Birmingham"},{"id":"42177","sname":"Lidl Erdington","postcode":"0","longitude":"-1.8204164","latitude":"52.5169421","tel":"0","address":"0","add":"Kingsbury Road 640 - B24 Erdington"},{"id":"42178","sname":"Lidl West Bromwich","postcode":"0","longitude":"-1.9996483","latitude":"52.5218395","tel":"0","address":"0","add":"High Street 373 - B70 West Bromwich"},{"id":"42179","sname":"Lidl Maney","postcode":"0","longitude":"-1.8601630","latitude":"52.5483233","tel":"0","address":"0","add":"Kings Road 33 - B73 Maney"},{"id":"42180","sname":"Lidl Blackpool","postcode":"0","longitude":"-3.0417107","latitude":"53.8042997","tel":"0","address":"0","add":"Bloomfield Road - FY1 Blackpool"},{"id":"42181","sname":"Lidl Blackpool","postcode":"0","longitude":"-3.0391942","latitude":"53.8242681","tel":"0","address":"0","add":"Devonshire Road 127 - FY3 Blackpool"},{"id":"42182","sname":"Lidl Thornton-Cleveleys","postcode":"0","longitude":"-3.0442171","latitude":"53.8720286","tel":"0","address":"0","add":"Anchorsholme Lane West 4 - FY5 Thornton-Cleveleys"},{"id":"42183","sname":"Lidl Lytham","postcode":"0","longitude":"-2.9439925","latitude":"53.7426588","tel":"0","address":"0","add":"Preston Road - FY8 Lytham"},{"id":"42184","sname":"Lidl Bournemouth","postcode":"0","longitude":"-1.8718622","latitude":"50.7221342","tel":"0","address":"0","add":"Richmond Gdns, Old Christchurch Rd - BH1 Bournemouth"},{"id":"42185","sname":"Lidl Bournemouth","postcode":"0","longitude":"-1.8797114","latitude":"50.7414337","tel":"0","address":"0","add":"Wimbourne Road 376-378 - BH9 Bournemouth"},{"id":"42186","sname":"Lidl Poole","postcode":"0","longitude":"-1.9210408","latitude":"50.7270399","tel":"0","address":"0","add":"Poole Road 427 - BH12 Poole"},{"id":"42187","sname":"Lidl Bournemouth","postcode":"0","longitude":"-1.8395253","latitude":"50.7271681","tel":"0","address":"0","add":"Sovereign Centre, Christchurch Rd 600 - BH1 Bournemouth"},{"id":"42188","sname":"Lidl Bournemouth","postcode":"0","longitude":"-1.9101448","latitude":"50.7748023","tel":"0","address":"0","add":"Ringwood Road 937 - BH11 Bournemouth"},{"id":"42189","sname":"Lidl Poole","postcode":"0","longitude":"-1.9806865","latitude":"50.7437885","tel":"0","address":"0","add":"Hatch Pond Road - BH17 Poole"},{"id":"42190","sname":"Lidl Christchurch","postcode":"0","longitude":"-1.7521061","latitude":"50.7378174","tel":"0","address":"0","add":"Somerford Road 81 - BH23 Christchurch"},{"id":"42191","sname":"Lidl Poole","postcode":"0","longitude":"-2.0182718","latitude":"50.7278800","tel":"0","address":"0","add":"Blandford Road 446 - BH16 Poole"},{"id":"42192","sname":"Lidl Ferndown","postcode":"0","longitude":"-1.8918046","latitude":"50.8001954","tel":"0","address":"0","add":"Ringwood Rd, (A348) - BH22 Ferndown"},{"id":"42193","sname":"Lidl New Milton","postcode":"0","longitude":"-1.6586466","latitude":"50.7466308","tel":"0","address":"0","add":"Lymington Road 49 - BH25 New Milton"},{"id":"42194","sname":"Lidl Bradford","postcode":"0","longitude":"-1.7326383","latitude":"53.7978697","tel":"0","address":"0","add":"Barkerend Road - BD3 Bradford"},{"id":"42195","sname":"Lidl Bradford","postcode":"0","longitude":"-1.7601896","latitude":"53.7768815","tel":"0","address":"0","add":"Manchester Road - BD5 Bradford"},{"id":"42196","sname":"Lidl Bradford","postcode":"0","longitude":"-1.7846921","latitude":"53.7975620","tel":"0","address":"0","add":"Ingleby Road - BD8 Bradford"},{"id":"42197","sname":"Lidl Halifax","postcode":"0","longitude":"-1.8063314","latitude":"53.7570539","tel":"0","address":"0","add":"Carr House Road - HX3 Halifax"},{"id":"42198","sname":"Lidl Heckmondwike","postcode":"0","longitude":"-1.6706790","latitude":"53.7069760","tel":"0","address":"0","add":"Northgate Centre 1 - WF16 Heckmondwike"},{"id":"42199","sname":"Lidl Halifax","postcode":"0","longitude":"-1.8627254","latitude":"53.7297268","tel":"0","address":"0","add":"Haley Hill 83 - HX3 Halifax"},{"id":"42200","sname":"Lidl Dewsbury","postcode":"0","longitude":"-1.6326336","latitude":"53.6955253","tel":"0","address":"0","add":"Commercial Road - WF13 Dewsbury"},{"id":"42201","sname":"Lidl Leeds","postcode":"0","longitude":"-1.5288001","latitude":"53.7661518","tel":"0","address":"0","add":"Hunslet Green Ret Park-The Oval 2 - LS10 Leeds"},{"id":"42202","sname":"Lidl Leeds","postcode":"0","longitude":"-1.5382939","latitude":"53.8298756","tel":"0","address":"0","add":"Harrogate Road, Chapel Allerton - LS7 Leeds"},{"id":"42203","sname":"Lidl Mirfield","postcode":"0","longitude":"-1.6927393","latitude":"53.6724798","tel":"0","address":"0","add":"Station Road - WF14 Mirfield"},{"id":"42204","sname":"Lidl Brighton","postcode":"0","longitude":"-0.1072543","latitude":"50.8162709","tel":"0","address":"0","add":"Arundel Road 45 - BN2 Brighton"},{"id":"42205","sname":"Lidl Newhaven","postcode":"0","longitude":"0.0563845","latitude":"50.7960002","tel":"0","address":"0","add":"The Hub, Drove Road 3 - BN9 Newhaven"},{"id":"42206","sname":"Lidl Bristol","postcode":"0","longitude":"-2.5622564","latitude":"51.4580201","tel":"0","address":"0","add":"Church Road, Lawrence Hill - BS5 Bristol"},{"id":"42207","sname":"Lidl Bristol","postcode":"0","longitude":"-2.6004222","latitude":"51.4389908","tel":"0","address":"0","add":"Sheene Road - BS3 Bristol"},{"id":"42208","sname":"Lidl Bristol","postcode":"0","longitude":"-2.5565272","latitude":"51.4371897","tel":"0","address":"0","add":"Brislington Retail Park, Bath Road - BS4 Bristol"},{"id":"42209","sname":"Lidl Bristol","postcode":"0","longitude":"-2.6087974","latitude":"51.4142768","tel":"0","address":"0","add":"Whitchurch Lane 59 - BS13 Bristol"},{"id":"42210","sname":"Lidl Bristol","postcode":"0","longitude":"-2.5345571","latitude":"51.4782528","tel":"0","address":"0","add":"Fishponds Road - BS16 Bristol"},{"id":"42211","sname":"Lidl Bristol","postcode":"0","longitude":"-2.5959799","latitude":"51.4981858","tel":"0","address":"0","add":"Southmead Road - BS10 Bristol"},{"id":"42212","sname":"Lidl Bristol","postcode":"0","longitude":"-2.5124254","latitude":"51.4477538","tel":"0","address":"0","add":"High Street 135 - BS15 Bristol"},{"id":"42213","sname":"Lidl Bristol","postcode":"0","longitude":"-2.4744748","latitude":"51.4928640","tel":"0","address":"0","add":"Unit A3, The Village, Emersons Way - BS16 Bristol"},{"id":"42214","sname":"Lidl Portishead","postcode":"0","longitude":"-2.7620472","latitude":"51.4857013","tel":"0","address":"0","add":"Harbour Road - BS20 Portishead"},{"id":"42215","sname":"Lidl Yate","postcode":"0","longitude":"-2.4123099","latitude":"51.5387564","tel":"0","address":"0","add":"Kennedy Way - BS37 Yate"},{"id":"42216","sname":"Lidl Cardiff","postcode":"0","longitude":"-3.2498529","latitude":"51.4755284","tel":"0","address":"0","add":"Cowbridge Road West - CF5 Cardiff"},{"id":"42217","sname":"Lidl Cardiff","postcode":"0","longitude":"-3.1937158","latitude":"51.5196865","tel":"0","address":"0","add":"Maes-Y-Coed Road - CF14 Cardiff"},{"id":"42158","sname":"Lidl Aberdeen","postcode":"0","longitude":"-2.0964451","latitude":"57.1049905","tel":"0","address":"0","add":"Wellington Road - AB12 Aberdeen"},{"id":"42159","sname":"Lidl Aberdeen","postcode":"0","longitude":"-2.0926573","latitude":"57.1738714","tel":"0","address":"0","add":"King Street 739 - AB24 Aberdeen"},{"id":"42160","sname":"Lidl Aberdeen","postcode":"0","longitude":"-2.1895365","latitude":"57.1504383","tel":"0","address":"0","add":"Lang Stracht - AB15 Aberdeen"},{"id":"42161","sname":"Lidl Bucksburn","postcode":"0","longitude":"-2.1838881","latitude":"57.1795602","tel":"0","address":"0","add":"Inverurie Road - AB21 Bucksburn"},{"id":"42162","sname":"Lidl Aberystwyth","postcode":"0","longitude":"-4.0829500","latitude":"52.4139977","tel":"0","address":"0","add":"4, Rheidol Ret Pk, Alexandra Road 4 - SY23 Aberystwyth"},{"id":"42163","sname":"Lidl Ashford","postcode":"0","longitude":"0.8679760","latitude":"51.1508729","tel":"0","address":"0","add":"New Street - TN24 Ashford"},{"id":"42164","sname":"Lidl Bangor","postcode":"0","longitude":"-4.1323988","latitude":"53.2227376","tel":"0","address":"0","add":"High Street 20 - LL57 Bangor"},{"id":"42165","sname":"Lidl Llangefni","postcode":"0","longitude":"-4.3070467","latitude":"53.2510225","tel":"0","address":"0","add":"Industrial Estate Road - LL77 Llangefni"},{"id":"42166","sname":"Lidl Barnstaple","postcode":"0","longitude":"-4.0583380","latitude":"51.0781599","tel":"0","address":"0","add":"Unit F, Barnstaple Retail Park - EX31 Barnstaple"},{"id":"42167","sname":"Lidl Barnstaple","postcode":"0","longitude":"-4.0455561","latitude":"51.0754371","tel":"0","address":"0","add":"Old Station Road - EX32 Barnstaple"},{"id":"42168","sname":"Lidl Ilfracombe","postcode":"0","longitude":"-4.1250240","latitude":"51.2091860","tel":"0","address":"0","add":"Wilder Road - EX34 Ilfracombe"},{"id":"42169","sname":"Lidl Torrington","postcode":"0","longitude":"-4.1492144","latitude":"50.9525622","tel":"0","address":"0","add":"New Street - EX38 Torrington"},{"id":"42170","sname":"Lidl Birmingham","postcode":"0","longitude":"-1.9359738","latitude":"52.4866341","tel":"0","address":"0","add":"Dudley Road 167 - 193 - B18 Birmingham"},{"id":"42171","sname":"Lidl Birmingham","postcode":"0","longitude":"-1.8865560","latitude":"52.4548700","tel":"0","address":"0","add":"Moseley Road 579 - B12 Birmingham"},{"id":"42172","sname":"Lidl Birmingham","postcode":"0","longitude":"-1.9411955","latitude":"52.5045477","tel":"0","address":"0","add":"Soho Road 397 - B21 Birmingham"},{"id":"42173","sname":"Lidl Birmingham","postcode":"0","longitude":"-1.8440000","latitude":"52.4760000","tel":"0","address":"0","add":"Bordesley Green - B9 Birmingham"},{"id":"42174","sname":"Lidl Birmingham","postcode":"0","longitude":"-1.8947592","latitude":"52.4338420","tel":"0","address":"0","add":"20-28 Silver Street - B14 Birmingham"},{"id":"42175","sname":"Lidl Birmingham","postcode":"0","longitude":"-1.9156821","latitude":"52.5324039","tel":"0","address":"0","add":"Old Walsall Road, Hamstead Industrial Estate - B42 Birmingham"},{"id":"42176","sname":"Lidl Birmingham","postcode":"0","longitude":"-1.8216353","latitude":"52.4428464","tel":"0","address":"0","add":"Olton Boulevard East - B27 Birmingham"},{"id":"42177","sname":"Lidl Erdington","postcode":"0","longitude":"-1.8204164","latitude":"52.5169421","tel":"0","address":"0","add":"Kingsbury Road 640 - B24 Erdington"},{"id":"42178","sname":"Lidl West Bromwich","postcode":"0","longitude":"-1.9996483","latitude":"52.5218395","tel":"0","address":"0","add":"High Street 373 - B70 West Bromwich"},{"id":"42179","sname":"Lidl Maney","postcode":"0","longitude":"-1.8601630","latitude":"52.5483233","tel":"0","address":"0","add":"Kings Road 33 - B73 Maney"},{"id":"42180","sname":"Lidl Blackpool","postcode":"0","longitude":"-3.0417107","latitude":"53.8042997","tel":"0","address":"0","add":"Bloomfield Road - FY1 Blackpool"},{"id":"42181","sname":"Lidl Blackpool","postcode":"0","longitude":"-3.0391942","latitude":"53.8242681","tel":"0","address":"0","add":"Devonshire Road 127 - FY3 Blackpool"},{"id":"42182","sname":"Lidl Thornton-Cleveleys","postcode":"0","longitude":"-3.0442171","latitude":"53.8720286","tel":"0","address":"0","add":"Anchorsholme Lane West 4 - FY5 Thornton-Cleveleys"},{"id":"42183","sname":"Lidl Lytham","postcode":"0","longitude":"-2.9439925","latitude":"53.7426588","tel":"0","address":"0","add":"Preston Road - FY8 Lytham"},{"id":"42184","sname":"Lidl Bournemouth","postcode":"0","longitude":"-1.8718622","latitude":"50.7221342","tel":"0","address":"0","add":"Richmond Gdns, Old Christchurch Rd - BH1 Bournemouth"},{"id":"42185","sname":"Lidl Bournemouth","postcode":"0","longitude":"-1.8797114","latitude":"50.7414337","tel":"0","address":"0","add":"Wimbourne Road 376-378 - BH9 Bournemouth"},{"id":"42186","sname":"Lidl Poole","postcode":"0","longitude":"-1.9210408","latitude":"50.7270399","tel":"0","address":"0","add":"Poole Road 427 - BH12 Poole"},{"id":"42187","sname":"Lidl Bournemouth","postcode":"0","longitude":"-1.8395253","latitude":"50.7271681","tel":"0","address":"0","add":"Sovereign Centre, Christchurch Rd 600 - BH1 Bournemouth"},{"id":"42188","sname":"Lidl Bournemouth","postcode":"0","longitude":"-1.9101448","latitude":"50.7748023","tel":"0","address":"0","add":"Ringwood Road 937 - BH11 Bournemouth"},{"id":"42189","sname":"Lidl Poole","postcode":"0","longitude":"-1.9806865","latitude":"50.7437885","tel":"0","address":"0","add":"Hatch Pond Road - BH17 Poole"},{"id":"42190","sname":"Lidl Christchurch","postcode":"0","longitude":"-1.7521061","latitude":"50.7378174","tel":"0","address":"0","add":"Somerford Road 81 - BH23 Christchurch"},{"id":"42191","sname":"Lidl Poole","postcode":"0","longitude":"-2.0182718","latitude":"50.7278800","tel":"0","address":"0","add":"Blandford Road 446 - BH16 Poole"},{"id":"42192","sname":"Lidl Ferndown","postcode":"0","longitude":"-1.8918046","latitude":"50.8001954","tel":"0","address":"0","add":"Ringwood Rd, (A348) - BH22 Ferndown"},{"id":"42193","sname":"Lidl New Milton","postcode":"0","longitude":"-1.6586466","latitude":"50.7466308","tel":"0","address":"0","add":"Lymington Road 49 - BH25 New Milton"},{"id":"42194","sname":"Lidl Bradford","postcode":"0","longitude":"-1.7326383","latitude":"53.7978697","tel":"0","address":"0","add":"Barkerend Road - BD3 Bradford"},{"id":"42195","sname":"Lidl Bradford","postcode":"0","longitude":"-1.7601896","latitude":"53.7768815","tel":"0","address":"0","add":"Manchester Road - BD5 Bradford"},{"id":"42196","sname":"Lidl Bradford","postcode":"0","longitude":"-1.7846921","latitude":"53.7975620","tel":"0","address":"0","add":"Ingleby Road - BD8 Bradford"},{"id":"42197","sname":"Lidl Halifax","postcode":"0","longitude":"-1.8063314","latitude":"53.7570539","tel":"0","address":"0","add":"Carr House Road - HX3 Halifax"},{"id":"42198","sname":"Lidl Heckmondwike","postcode":"0","longitude":"-1.6706790","latitude":"53.7069760","tel":"0","address":"0","add":"Northgate Centre 1 - WF16 Heckmondwike"},{"id":"42199","sname":"Lidl Halifax","postcode":"0","longitude":"-1.8627254","latitude":"53.7297268","tel":"0","address":"0","add":"Haley Hill 83 - HX3 Halifax"},{"id":"42200","sname":"Lidl Dewsbury","postcode":"0","longitude":"-1.6326336","latitude":"53.6955253","tel":"0","address":"0","add":"Commercial Road - WF13 Dewsbury"},{"id":"42201","sname":"Lidl Leeds","postcode":"0","longitude":"-1.5288001","latitude":"53.7661518","tel":"0","address":"0","add":"Hunslet Green Ret Park-The Oval 2 - LS10 Leeds"},{"id":"42202","sname":"Lidl Leeds","postcode":"0","longitude":"-1.5382939","latitude":"53.8298756","tel":"0","address":"0","add":"Harrogate Road, Chapel Allerton - LS7 Leeds"},{"id":"42203","sname":"Lidl Mirfield","postcode":"0","longitude":"-1.6927393","latitude":"53.6724798","tel":"0","address":"0","add":"Station Road - WF14 Mirfield"},{"id":"42204","sname":"Lidl Brighton","postcode":"0","longitude":"-0.1072543","latitude":"50.8162709","tel":"0","address":"0","add":"Arundel Road 45 - BN2 Brighton"},{"id":"42205","sname":"Lidl Newhaven","postcode":"0","longitude":"0.0563845","latitude":"50.7960002","tel":"0","address":"0","add":"The Hub, Drove Road 3 - BN9 Newhaven"},{"id":"42206","sname":"Lidl Bristol","postcode":"0","longitude":"-2.5622564","latitude":"51.4580201","tel":"0","address":"0","add":"Church Road, Lawrence Hill - BS5 Bristol"},{"id":"42207","sname":"Lidl Bristol","postcode":"0","longitude":"-2.6004222","latitude":"51.4389908","tel":"0","address":"0","add":"Sheene Road - BS3 Bristol"},{"id":"42208","sname":"Lidl Bristol","postcode":"0","longitude":"-2.5565272","latitude":"51.4371897","tel":"0","address":"0","add":"Brislington Retail Park, Bath Road - BS4 Bristol"},{"id":"42209","sname":"Lidl Bristol","postcode":"0","longitude":"-2.6087974","latitude":"51.4142768","tel":"0","address":"0","add":"Whitchurch Lane 59 - BS13 Bristol"},{"id":"42210","sname":"Lidl Bristol","postcode":"0","longitude":"-2.5345571","latitude":"51.4782528","tel":"0","address":"0","add":"Fishponds Road - BS16 Bristol"},{"id":"42211","sname":"Lidl Bristol","postcode":"0","longitude":"-2.5959799","latitude":"51.4981858","tel":"0","address":"0","add":"Southmead Road - BS10 Bristol"},{"id":"42212","sname":"Lidl Bristol","postcode":"0","longitude":"-2.5124254","latitude":"51.4477538","tel":"0","address":"0","add":"High Street 135 - BS15 Bristol"},{"id":"42213","sname":"Lidl Bristol","postcode":"0","longitude":"-2.4744748","latitude":"51.4928640","tel":"0","address":"0","add":"Unit A3, The Village, Emersons Way - BS16 Bristol"},{"id":"42214","sname":"Lidl Portishead","postcode":"0","longitude":"-2.7620472","latitude":"51.4857013","tel":"0","address":"0","add":"Harbour Road - BS20 Portishead"},{"id":"42215","sname":"Lidl Yate","postcode":"0","longitude":"-2.4123099","latitude":"51.5387564","tel":"0","address":"0","add":"Kennedy Way - BS37 Yate"},{"id":"42216","sname":"Lidl Cardiff","postcode":"0","longitude":"-3.2498529","latitude":"51.4755284","tel":"0","address":"0","add":"Cowbridge Road West - CF5 Cardiff"},{"id":"42217","sname":"Lidl Cardiff","postcode":"0","longitude":"-3.1937158","latitude":"51.5196865","tel":"0","address":"0","add":"Maes-Y-Coed Road - CF14 Cardiff"},{"id":"42158","sname":"Lidl Aberdeen","postcode":"0","longitude":"-2.0964451","latitude":"57.1049905","tel":"0","address":"0","add":"Wellington Road - AB12 Aberdeen"},{"id":"42159","sname":"Lidl Aberdeen","postcode":"0","longitude":"-2.0926573","latitude":"57.1738714","tel":"0","address":"0","add":"King Street 739 - AB24 Aberdeen"},{"id":"42160","sname":"Lidl Aberdeen","postcode":"0","longitude":"-2.1895365","latitude":"57.1504383","tel":"0","address":"0","add":"Lang Stracht - AB15 Aberdeen"},{"id":"42161","sname":"Lidl Bucksburn","postcode":"0","longitude":"-2.1838881","latitude":"57.1795602","tel":"0","address":"0","add":"Inverurie Road - AB21 Bucksburn"},{"id":"42162","sname":"Lidl Aberystwyth","postcode":"0","longitude":"-4.0829500","latitude":"52.4139977","tel":"0","address":"0","add":"4, Rheidol Ret Pk, Alexandra Road 4 - SY23 Aberystwyth"},{"id":"42163","sname":"Lidl Ashford","postcode":"0","longitude":"0.8679760","latitude":"51.1508729","tel":"0","address":"0","add":"New Street - TN24 Ashford"},{"id":"42164","sname":"Lidl Bangor","postcode":"0","longitude":"-4.1323988","latitude":"53.2227376","tel":"0","address":"0","add":"High Street 20 - LL57 Bangor"},{"id":"42165","sname":"Lidl Llangefni","postcode":"0","longitude":"-4.3070467","latitude":"53.2510225","tel":"0","address":"0","add":"Industrial Estate Road - LL77 Llangefni"},{"id":"42166","sname":"Lidl Barnstaple","postcode":"0","longitude":"-4.0583380","latitude":"51.0781599","tel":"0","address":"0","add":"Unit F, Barnstaple Retail Park - EX31 Barnstaple"},{"id":"42167","sname":"Lidl Barnstaple","postcode":"0","longitude":"-4.0455561","latitude":"51.0754371","tel":"0","address":"0","add":"Old Station Road - EX32 Barnstaple"},{"id":"42168","sname":"Lidl Ilfracombe","postcode":"0","longitude":"-4.1250240","latitude":"51.2091860","tel":"0","address":"0","add":"Wilder Road - EX34 Ilfracombe"},{"id":"42169","sname":"Lidl Torrington","postcode":"0","longitude":"-4.1492144","latitude":"50.9525622","tel":"0","address":"0","add":"New Street - EX38 Torrington"},{"id":"42170","sname":"Lidl Birmingham","postcode":"0","longitude":"-1.9359738","latitude":"52.4866341","tel":"0","address":"0","add":"Dudley Road 167 - 193 - B18 Birmingham"},{"id":"42171","sname":"Lidl Birmingham","postcode":"0","longitude":"-1.8865560","latitude":"52.4548700","tel":"0","address":"0","add":"Moseley Road 579 - B12 Birmingham"},{"id":"42172","sname":"Lidl Birmingham","postcode":"0","longitude":"-1.9411955","latitude":"52.5045477","tel":"0","address":"0","add":"Soho Road 397 - B21 Birmingham"},{"id":"42173","sname":"Lidl Birmingham","postcode":"0","longitude":"-1.8440000","latitude":"52.4760000","tel":"0","address":"0","add":"Bordesley Green - B9 Birmingham"},{"id":"42174","sname":"Lidl Birmingham","postcode":"0","longitude":"-1.8947592","latitude":"52.4338420","tel":"0","address":"0","add":"20-28 Silver Street - B14 Birmingham"},{"id":"42175","sname":"Lidl Birmingham","postcode":"0","longitude":"-1.9156821","latitude":"52.5324039","tel":"0","address":"0","add":"Old Walsall Road, Hamstead Industrial Estate - B42 Birmingham"},{"id":"42176","sname":"Lidl Birmingham","postcode":"0","longitude":"-1.8216353","latitude":"52.4428464","tel":"0","address":"0","add":"Olton Boulevard East - B27 Birmingham"},{"id":"42177","sname":"Lidl Erdington","postcode":"0","longitude":"-1.8204164","latitude":"52.5169421","tel":"0","address":"0","add":"Kingsbury Road 640 - B24 Erdington"},{"id":"42178","sname":"Lidl West Bromwich","postcode":"0","longitude":"-1.9996483","latitude":"52.5218395","tel":"0","address":"0","add":"High Street 373 - B70 West Bromwich"},{"id":"42179","sname":"Lidl Maney","postcode":"0","longitude":"-1.8601630","latitude":"52.5483233","tel":"0","address":"0","add":"Kings Road 33 - B73 Maney"},{"id":"42180","sname":"Lidl Blackpool","postcode":"0","longitude":"-3.0417107","latitude":"53.8042997","tel":"0","address":"0","add":"Bloomfield Road - FY1 Blackpool"},{"id":"42181","sname":"Lidl Blackpool","postcode":"0","longitude":"-3.0391942","latitude":"53.8242681","tel":"0","address":"0","add":"Devonshire Road 127 - FY3 Blackpool"},{"id":"42182","sname":"Lidl Thornton-Cleveleys","postcode":"0","longitude":"-3.0442171","latitude":"53.8720286","tel":"0","address":"0","add":"Anchorsholme Lane West 4 - FY5 Thornton-Cleveleys"},{"id":"42183","sname":"Lidl Lytham","postcode":"0","longitude":"-2.9439925","latitude":"53.7426588","tel":"0","address":"0","add":"Preston Road - FY8 Lytham"},{"id":"42184","sname":"Lidl Bournemouth","postcode":"0","longitude":"-1.8718622","latitude":"50.7221342","tel":"0","address":"0","add":"Richmond Gdns, Old Christchurch Rd - BH1 Bournemouth"},{"id":"42185","sname":"Lidl Bournemouth","postcode":"0","longitude":"-1.8797114","latitude":"50.7414337","tel":"0","address":"0","add":"Wimbourne Road 376-378 - BH9 Bournemouth"},{"id":"42186","sname":"Lidl Poole","postcode":"0","longitude":"-1.9210408","latitude":"50.7270399","tel":"0","address":"0","add":"Poole Road 427 - BH12 Poole"},{"id":"42187","sname":"Lidl Bournemouth","postcode":"0","longitude":"-1.8395253","latitude":"50.7271681","tel":"0","address":"0","add":"Sovereign Centre, Christchurch Rd 600 - BH1 Bournemouth"},{"id":"42188","sname":"Lidl Bournemouth","postcode":"0","longitude":"-1.9101448","latitude":"50.7748023","tel":"0","address":"0","add":"Ringwood Road 937 - BH11 Bournemouth"},{"id":"42189","sname":"Lidl Poole","postcode":"0","longitude":"-1.9806865","latitude":"50.7437885","tel":"0","address":"0","add":"Hatch Pond Road - BH17 Poole"},{"id":"42190","sname":"Lidl Christchurch","postcode":"0","longitude":"-1.7521061","latitude":"50.7378174","tel":"0","address":"0","add":"Somerford Road 81 - BH23 Christchurch"},{"id":"42191","sname":"Lidl Poole","postcode":"0","longitude":"-2.0182718","latitude":"50.7278800","tel":"0","address":"0","add":"Blandford Road 446 - BH16 Poole"},{"id":"42192","sname":"Lidl Ferndown","postcode":"0","longitude":"-1.8918046","latitude":"50.8001954","tel":"0","address":"0","add":"Ringwood Rd, (A348) - BH22 Ferndown"},{"id":"42193","sname":"Lidl New Milton","postcode":"0","longitude":"-1.6586466","latitude":"50.7466308","tel":"0","address":"0","add":"Lymington Road 49 - BH25 New Milton"},{"id":"42194","sname":"Lidl Bradford","postcode":"0","longitude":"-1.7326383","latitude":"53.7978697","tel":"0","address":"0","add":"Barkerend Road - BD3 Bradford"},{"id":"42195","sname":"Lidl Bradford","postcode":"0","longitude":"-1.7601896","latitude":"53.7768815","tel":"0","address":"0","add":"Manchester Road - BD5 Bradford"},{"id":"42196","sname":"Lidl Bradford","postcode":"0","longitude":"-1.7846921","latitude":"53.7975620","tel":"0","address":"0","add":"Ingleby Road - BD8 Bradford"},{"id":"42197","sname":"Lidl Halifax","postcode":"0","longitude":"-1.8063314","latitude":"53.7570539","tel":"0","address":"0","add":"Carr House Road - HX3 Halifax"},{"id":"42198","sname":"Lidl Heckmondwike","postcode":"0","longitude":"-1.6706790","latitude":"53.7069760","tel":"0","address":"0","add":"Northgate Centre 1 - WF16 Heckmondwike"},{"id":"42199","sname":"Lidl Halifax","postcode":"0","longitude":"-1.8627254","latitude":"53.7297268","tel":"0","address":"0","add":"Haley Hill 83 - HX3 Halifax"},{"id":"42200","sname":"Lidl Dewsbury","postcode":"0","longitude":"-1.6326336","latitude":"53.6955253","tel":"0","address":"0","add":"Commercial Road - WF13 Dewsbury"},{"id":"42201","sname":"Lidl Leeds","postcode":"0","longitude":"-1.5288001","latitude":"53.7661518","tel":"0","address":"0","add":"Hunslet Green Ret Park-The Oval 2 - LS10 Leeds"},{"id":"42202","sname":"Lidl Leeds","postcode":"0","longitude":"-1.5382939","latitude":"53.8298756","tel":"0","address":"0","add":"Harrogate Road, Chapel Allerton - LS7 Leeds"},{"id":"42203","sname":"Lidl Mirfield","postcode":"0","longitude":"-1.6927393","latitude":"53.6724798","tel":"0","address":"0","add":"Station Road - WF14 Mirfield"},{"id":"42204","sname":"Lidl Brighton","postcode":"0","longitude":"-0.1072543","latitude":"50.8162709","tel":"0","address":"0","add":"Arundel Road 45 - BN2 Brighton"},{"id":"42205","sname":"Lidl Newhaven","postcode":"0","longitude":"0.0563845","latitude":"50.7960002","tel":"0","address":"0","add":"The Hub, Drove Road 3 - BN9 Newhaven"},{"id":"42206","sname":"Lidl Bristol","postcode":"0","longitude":"-2.5622564","latitude":"51.4580201","tel":"0","address":"0","add":"Church Road, Lawrence Hill - BS5 Bristol"},{"id":"42207","sname":"Lidl Bristol","postcode":"0","longitude":"-2.6004222","latitude":"51.4389908","tel":"0","address":"0","add":"Sheene Road - BS3 Bristol"},{"id":"42208","sname":"Lidl Bristol","postcode":"0","longitude":"-2.5565272","latitude":"51.4371897","tel":"0","address":"0","add":"Brislington Retail Park, Bath Road - BS4 Bristol"},{"id":"42209","sname":"Lidl Bristol","postcode":"0","longitude":"-2.6087974","latitude":"51.4142768","tel":"0","address":"0","add":"Whitchurch Lane 59 - BS13 Bristol"},{"id":"42210","sname":"Lidl Bristol","postcode":"0","longitude":"-2.5345571","latitude":"51.4782528","tel":"0","address":"0","add":"Fishponds Road - BS16 Bristol"},{"id":"42211","sname":"Lidl Bristol","postcode":"0","longitude":"-2.5959799","latitude":"51.4981858","tel":"0","address":"0","add":"Southmead Road - BS10 Bristol"},{"id":"42212","sname":"Lidl Bristol","postcode":"0","longitude":"-2.5124254","latitude":"51.4477538","tel":"0","address":"0","add":"High Street 135 - BS15 Bristol"},{"id":"42213","sname":"Lidl Bristol","postcode":"0","longitude":"-2.4744748","latitude":"51.4928640","tel":"0","address":"0","add":"Unit A3, The Village, Emersons Way - BS16 Bristol"},{"id":"42214","sname":"Lidl Portishead","postcode":"0","longitude":"-2.7620472","latitude":"51.4857013","tel":"0","address":"0","add":"Harbour Road - BS20 Portishead"},{"id":"42215","sname":"Lidl Yate","postcode":"0","longitude":"-2.4123099","latitude":"51.5387564","tel":"0","address":"0","add":"Kennedy Way - BS37 Yate"},{"id":"42216","sname":"Lidl Cardiff","postcode":"0","longitude":"-3.2498529","latitude":"51.4755284","tel":"0","address":"0","add":"Cowbridge Road West - CF5 Cardiff"},{"id":"42217","sname":"Lidl Cardiff","postcode":"0","longitude":"-3.1937158","latitude":"51.5196865","tel":"0","address":"0","add":"Maes-Y-Coed Road - CF14 Cardiff"},{"id":"42158","sname":"Lidl Aberdeen","postcode":"0","longitude":"-2.0964451","latitude":"57.1049905","tel":"0","address":"0","add":"Wellington Road - AB12 Aberdeen"},{"id":"42159","sname":"Lidl Aberdeen","postcode":"0","longitude":"-2.0926573","latitude":"57.1738714","tel":"0","address":"0","add":"King Street 739 - AB24 Aberdeen"},{"id":"42160","sname":"Lidl Aberdeen","postcode":"0","longitude":"-2.1895365","latitude":"57.1504383","tel":"0","address":"0","add":"Lang Stracht - AB15 Aberdeen"},{"id":"42161","sname":"Lidl Bucksburn","postcode":"0","longitude":"-2.1838881","latitude":"57.1795602","tel":"0","address":"0","add":"Inverurie Road - AB21 Bucksburn"},{"id":"42162","sname":"Lidl Aberystwyth","postcode":"0","longitude":"-4.0829500","latitude":"52.4139977","tel":"0","address":"0","add":"4, Rheidol Ret Pk, Alexandra Road 4 - SY23 Aberystwyth"},{"id":"42163","sname":"Lidl Ashford","postcode":"0","longitude":"0.8679760","latitude":"51.1508729","tel":"0","address":"0","add":"New Street - TN24 Ashford"},{"id":"42164","sname":"Lidl Bangor","postcode":"0","longitude":"-4.1323988","latitude":"53.2227376","tel":"0","address":"0","add":"High Street 20 - LL57 Bangor"},{"id":"42165","sname":"Lidl Llangefni","postcode":"0","longitude":"-4.3070467","latitude":"53.2510225","tel":"0","address":"0","add":"Industrial Estate Road - LL77 Llangefni"},{"id":"42166","sname":"Lidl Barnstaple","postcode":"0","longitude":"-4.0583380","latitude":"51.0781599","tel":"0","address":"0","add":"Unit F, Barnstaple Retail Park - EX31 Barnstaple"},{"id":"42167","sname":"Lidl Barnstaple","postcode":"0","longitude":"-4.0455561","latitude":"51.0754371","tel":"0","address":"0","add":"Old Station Road - EX32 Barnstaple"},{"id":"42168","sname":"Lidl Ilfracombe","postcode":"0","longitude":"-4.1250240","latitude":"51.2091860","tel":"0","address":"0","add":"Wilder Road - EX34 Ilfracombe"},{"id":"42169","sname":"Lidl Torrington","postcode":"0","longitude":"-4.1492144","latitude":"50.9525622","tel":"0","address":"0","add":"New Street - EX38 Torrington"},{"id":"42170","sname":"Lidl Birmingham","postcode":"0","longitude":"-1.9359738","latitude":"52.4866341","tel":"0","address":"0","add":"Dudley Road 167 - 193 - B18 Birmingham"},{"id":"42171","sname":"Lidl Birmingham","postcode":"0","longitude":"-1.8865560","latitude":"52.4548700","tel":"0","address":"0","add":"Moseley Road 579 - B12 Birmingham"},{"id":"42172","sname":"Lidl Birmingham","postcode":"0","longitude":"-1.9411955","latitude":"52.5045477","tel":"0","address":"0","add":"Soho Road 397 - B21 Birmingham"},{"id":"42173","sname":"Lidl Birmingham","postcode":"0","longitude":"-1.8440000","latitude":"52.4760000","tel":"0","address":"0","add":"Bordesley Green - B9 Birmingham"},{"id":"42174","sname":"Lidl Birmingham","postcode":"0","longitude":"-1.8947592","latitude":"52.4338420","tel":"0","address":"0","add":"20-28 Silver Street - B14 Birmingham"},{"id":"42175","sname":"Lidl Birmingham","postcode":"0","longitude":"-1.9156821","latitude":"52.5324039","tel":"0","address":"0","add":"Old Walsall Road, Hamstead Industrial Estate - B42 Birmingham"},{"id":"42176","sname":"Lidl Birmingham","postcode":"0","longitude":"-1.8216353","latitude":"52.4428464","tel":"0","address":"0","add":"Olton Boulevard East - B27 Birmingham"},{"id":"42177","sname":"Lidl Erdington","postcode":"0","longitude":"-1.8204164","latitude":"52.5169421","tel":"0","address":"0","add":"Kingsbury Road 640 - B24 Erdington"},{"id":"42178","sname":"Lidl West Bromwich","postcode":"0","longitude":"-1.9996483","latitude":"52.5218395","tel":"0","address":"0","add":"High Street 373 - B70 West Bromwich"},{"id":"42179","sname":"Lidl Maney","postcode":"0","longitude":"-1.8601630","latitude":"52.5483233","tel":"0","address":"0","add":"Kings Road 33 - B73 Maney"},{"id":"42180","sname":"Lidl Blackpool","postcode":"0","longitude":"-3.0417107","latitude":"53.8042997","tel":"0","address":"0","add":"Bloomfield Road - FY1 Blackpool"},{"id":"42181","sname":"Lidl Blackpool","postcode":"0","longitude":"-3.0391942","latitude":"53.8242681","tel":"0","address":"0","add":"Devonshire Road 127 - FY3 Blackpool"},{"id":"42182","sname":"Lidl Thornton-Cleveleys","postcode":"0","longitude":"-3.0442171","latitude":"53.8720286","tel":"0","address":"0","add":"Anchorsholme Lane West 4 - FY5 Thornton-Cleveleys"},{"id":"42183","sname":"Lidl Lytham","postcode":"0","longitude":"-2.9439925","latitude":"53.7426588","tel":"0","address":"0","add":"Preston Road - FY8 Lytham"},{"id":"42184","sname":"Lidl Bournemouth","postcode":"0","longitude":"-1.8718622","latitude":"50.7221342","tel":"0","address":"0","add":"Richmond Gdns, Old Christchurch Rd - BH1 Bournemouth"},{"id":"42185","sname":"Lidl Bournemouth","postcode":"0","longitude":"-1.8797114","latitude":"50.7414337","tel":"0","address":"0","add":"Wimbourne Road 376-378 - BH9 Bournemouth"},{"id":"42186","sname":"Lidl Poole","postcode":"0","longitude":"-1.9210408","latitude":"50.7270399","tel":"0","address":"0","add":"Poole Road 427 - BH12 Poole"},{"id":"42187","sname":"Lidl Bournemouth","postcode":"0","longitude":"-1.8395253","latitude":"50.7271681","tel":"0","address":"0","add":"Sovereign Centre, Christchurch Rd 600 - BH1 Bournemouth"},{"id":"42188","sname":"Lidl Bournemouth","postcode":"0","longitude":"-1.9101448","latitude":"50.7748023","tel":"0","address":"0","add":"Ringwood Road 937 - BH11 Bournemouth"},{"id":"42189","sname":"Lidl Poole","postcode":"0","longitude":"-1.9806865","latitude":"50.7437885","tel":"0","address":"0","add":"Hatch Pond Road - BH17 Poole"},{"id":"42190","sname":"Lidl Christchurch","postcode":"0","longitude":"-1.7521061","latitude":"50.7378174","tel":"0","address":"0","add":"Somerford Road 81 - BH23 Christchurch"},{"id":"42191","sname":"Lidl Poole","postcode":"0","longitude":"-2.0182718","latitude":"50.7278800","tel":"0","address":"0","add":"Blandford Road 446 - BH16 Poole"},{"id":"42192","sname":"Lidl Ferndown","postcode":"0","longitude":"-1.8918046","latitude":"50.8001954","tel":"0","address":"0","add":"Ringwood Rd, (A348) - BH22 Ferndown"},{"id":"42193","sname":"Lidl New Milton","postcode":"0","longitude":"-1.6586466","latitude":"50.7466308","tel":"0","address":"0","add":"Lymington Road 49 - BH25 New Milton"},{"id":"42194","sname":"Lidl Bradford","postcode":"0","longitude":"-1.7326383","latitude":"53.7978697","tel":"0","address":"0","add":"Barkerend Road - BD3 Bradford"},{"id":"42195","sname":"Lidl Bradford","postcode":"0","longitude":"-1.7601896","latitude":"53.7768815","tel":"0","address":"0","add":"Manchester Road - BD5 Bradford"},{"id":"42196","sname":"Lidl Bradford","postcode":"0","longitude":"-1.7846921","latitude":"53.7975620","tel":"0","address":"0","add":"Ingleby Road - BD8 Bradford"},{"id":"42197","sname":"Lidl Halifax","postcode":"0","longitude":"-1.8063314","latitude":"53.7570539","tel":"0","address":"0","add":"Carr House Road - HX3 Halifax"},{"id":"42198","sname":"Lidl Heckmondwike","postcode":"0","longitude":"-1.6706790","latitude":"53.7069760","tel":"0","address":"0","add":"Northgate Centre 1 - WF16 Heckmondwike"},{"id":"42199","sname":"Lidl Halifax","postcode":"0","longitude":"-1.8627254","latitude":"53.7297268","tel":"0","address":"0","add":"Haley Hill 83 - HX3 Halifax"},{"id":"42200","sname":"Lidl Dewsbury","postcode":"0","longitude":"-1.6326336","latitude":"53.6955253","tel":"0","address":"0","add":"Commercial Road - WF13 Dewsbury"},{"id":"42201","sname":"Lidl Leeds","postcode":"0","longitude":"-1.5288001","latitude":"53.7661518","tel":"0","address":"0","add":"Hunslet Green Ret Park-The Oval 2 - LS10 Leeds"},{"id":"42202","sname":"Lidl Leeds","postcode":"0","longitude":"-1.5382939","latitude":"53.8298756","tel":"0","address":"0","add":"Harrogate Road, Chapel Allerton - LS7 Leeds"},{"id":"42203","sname":"Lidl Mirfield","postcode":"0","longitude":"-1.6927393","latitude":"53.6724798","tel":"0","address":"0","add":"Station Road - WF14 Mirfield"},{"id":"42204","sname":"Lidl Brighton","postcode":"0","longitude":"-0.1072543","latitude":"50.8162709","tel":"0","address":"0","add":"Arundel Road 45 - BN2 Brighton"},{"id":"42205","sname":"Lidl Newhaven","postcode":"0","longitude":"0.0563845","latitude":"50.7960002","tel":"0","address":"0","add":"The Hub, Drove Road 3 - BN9 Newhaven"},{"id":"42206","sname":"Lidl Bristol","postcode":"0","longitude":"-2.5622564","latitude":"51.4580201","tel":"0","address":"0","add":"Church Road, Lawrence Hill - BS5 Bristol"},{"id":"42207","sname":"Lidl Bristol","postcode":"0","longitude":"-2.6004222","latitude":"51.4389908","tel":"0","address":"0","add":"Sheene Road - BS3 Bristol"},{"id":"42208","sname":"Lidl Bristol","postcode":"0","longitude":"-2.5565272","latitude":"51.4371897","tel":"0","address":"0","add":"Brislington Retail Park, Bath Road - BS4 Bristol"},{"id":"42209","sname":"Lidl Bristol","postcode":"0","longitude":"-2.6087974","latitude":"51.4142768","tel":"0","address":"0","add":"Whitchurch Lane 59 - BS13 Bristol"},{"id":"42210","sname":"Lidl Bristol","postcode":"0","longitude":"-2.5345571","latitude":"51.4782528","tel":"0","address":"0","add":"Fishponds Road - BS16 Bristol"},{"id":"42211","sname":"Lidl Bristol","postcode":"0","longitude":"-2.5959799","latitude":"51.4981858","tel":"0","address":"0","add":"Southmead Road - BS10 Bristol"},{"id":"42212","sname":"Lidl Bristol","postcode":"0","longitude":"-2.5124254","latitude":"51.4477538","tel":"0","address":"0","add":"High Street 135 - BS15 Bristol"},{"id":"42213","sname":"Lidl Bristol","postcode":"0","longitude":"-2.4744748","latitude":"51.4928640","tel":"0","address":"0","add":"Unit A3, The Village, Emersons Way - BS16 Bristol"},{"id":"42214","sname":"Lidl Portishead","postcode":"0","longitude":"-2.7620472","latitude":"51.4857013","tel":"0","address":"0","add":"Harbour Road - BS20 Portishead"},{"id":"42215","sname":"Lidl Yate","postcode":"0","longitude":"-2.4123099","latitude":"51.5387564","tel":"0","address":"0","add":"Kennedy Way - BS37 Yate"},{"id":"42216","sname":"Lidl Cardiff","postcode":"0","longitude":"-3.2498529","latitude":"51.4755284","tel":"0","address":"0","add":"Cowbridge Road West - CF5 Cardiff"},{"id":"42217","sname":"Lidl Cardiff","postcode":"0","longitude":"-3.1937158","latitude":"51.5196865","tel":"0","address":"0","add":"Maes-Y-Coed Road - CF14 Cardiff"},{"id":"42158","sname":"Lidl Aberdeen","postcode":"0","longitude":"-2.0964451","latitude":"57.1049905","tel":"0","address":"0","add":"Wellington Road - AB12 Aberdeen"},{"id":"42159","sname":"Lidl Aberdeen","postcode":"0","longitude":"-2.0926573","latitude":"57.1738714","tel":"0","address":"0","add":"King Street 739 - AB24 Aberdeen"},{"id":"42160","sname":"Lidl Aberdeen","postcode":"0","longitude":"-2.1895365","latitude":"57.1504383","tel":"0","address":"0","add":"Lang Stracht - AB15 Aberdeen"},{"id":"42161","sname":"Lidl Bucksburn","postcode":"0","longitude":"-2.1838881","latitude":"57.1795602","tel":"0","address":"0","add":"Inverurie Road - AB21 Bucksburn"},{"id":"42162","sname":"Lidl Aberystwyth","postcode":"0","longitude":"-4.0829500","latitude":"52.4139977","tel":"0","address":"0","add":"4, Rheidol Ret Pk, Alexandra Road 4 - SY23 Aberystwyth"},{"id":"42163","sname":"Lidl Ashford","postcode":"0","longitude":"0.8679760","latitude":"51.1508729","tel":"0","address":"0","add":"New Street - TN24 Ashford"},{"id":"42164","sname":"Lidl Bangor","postcode":"0","longitude":"-4.1323988","latitude":"53.2227376","tel":"0","address":"0","add":"High Street 20 - LL57 Bangor"},{"id":"42165","sname":"Lidl Llangefni","postcode":"0","longitude":"-4.3070467","latitude":"53.2510225","tel":"0","address":"0","add":"Industrial Estate Road - LL77 Llangefni"},{"id":"42166","sname":"Lidl Barnstaple","postcode":"0","longitude":"-4.0583380","latitude":"51.0781599","tel":"0","address":"0","add":"Unit F, Barnstaple Retail Park - EX31 Barnstaple"},{"id":"42167","sname":"Lidl Barnstaple","postcode":"0","longitude":"-4.0455561","latitude":"51.0754371","tel":"0","address":"0","add":"Old Station Road - EX32 Barnstaple"},{"id":"42168","sname":"Lidl Ilfracombe","postcode":"0","longitude":"-4.1250240","latitude":"51.2091860","tel":"0","address":"0","add":"Wilder Road - EX34 Ilfracombe"},{"id":"42169","sname":"Lidl Torrington","postcode":"0","longitude":"-4.1492144","latitude":"50.9525622","tel":"0","address":"0","add":"New Street - EX38 Torrington"},{"id":"42170","sname":"Lidl Birmingham","postcode":"0","longitude":"-1.9359738","latitude":"52.4866341","tel":"0","address":"0","add":"Dudley Road 167 - 193 - B18 Birmingham"},{"id":"42171","sname":"Lidl Birmingham","postcode":"0","longitude":"-1.8865560","latitude":"52.4548700","tel":"0","address":"0","add":"Moseley Road 579 - B12 Birmingham"},{"id":"42172","sname":"Lidl Birmingham","postcode":"0","longitude":"-1.9411955","latitude":"52.5045477","tel":"0","address":"0","add":"Soho Road 397 - B21 Birmingham"},{"id":"42173","sname":"Lidl Birmingham","postcode":"0","longitude":"-1.8440000","latitude":"52.4760000","tel":"0","address":"0","add":"Bordesley Green - B9 Birmingham"},{"id":"42174","sname":"Lidl Birmingham","postcode":"0","longitude":"-1.8947592","latitude":"52.4338420","tel":"0","address":"0","add":"20-28 Silver Street - B14 Birmingham"},{"id":"42175","sname":"Lidl Birmingham","postcode":"0","longitude":"-1.9156821","latitude":"52.5324039","tel":"0","address":"0","add":"Old Walsall Road, Hamstead Industrial Estate - B42 Birmingham"},{"id":"42176","sname":"Lidl Birmingham","postcode":"0","longitude":"-1.8216353","latitude":"52.4428464","tel":"0","address":"0","add":"Olton Boulevard East - B27 Birmingham"},{"id":"42177","sname":"Lidl Erdington","postcode":"0","longitude":"-1.8204164","latitude":"52.5169421","tel":"0","address":"0","add":"Kingsbury Road 640 - B24 Erdington"},{"id":"42178","sname":"Lidl West Bromwich","postcode":"0","longitude":"-1.9996483","latitude":"52.5218395","tel":"0","address":"0","add":"High Street 373 - B70 West Bromwich"},{"id":"42179","sname":"Lidl Maney","postcode":"0","longitude":"-1.8601630","latitude":"52.5483233","tel":"0","address":"0","add":"Kings Road 33 - B73 Maney"},{"id":"42180","sname":"Lidl Blackpool","postcode":"0","longitude":"-3.0417107","latitude":"53.8042997","tel":"0","address":"0","add":"Bloomfield Road - FY1 Blackpool"},{"id":"42181","sname":"Lidl Blackpool","postcode":"0","longitude":"-3.0391942","latitude":"53.8242681","tel":"0","address":"0","add":"Devonshire Road 127 - FY3 Blackpool"},{"id":"42182","sname":"Lidl Thornton-Cleveleys","postcode":"0","longitude":"-3.0442171","latitude":"53.8720286","tel":"0","address":"0","add":"Anchorsholme Lane West 4 - FY5 Thornton-Cleveleys"},{"id":"42183","sname":"Lidl Lytham","postcode":"0","longitude":"-2.9439925","latitude":"53.7426588","tel":"0","address":"0","add":"Preston Road - FY8 Lytham"},{"id":"42184","sname":"Lidl Bournemouth","postcode":"0","longitude":"-1.8718622","latitude":"50.7221342","tel":"0","address":"0","add":"Richmond Gdns, Old Christchurch Rd - BH1 Bournemouth"},{"id":"42185","sname":"Lidl Bournemouth","postcode":"0","longitude":"-1.8797114","latitude":"50.7414337","tel":"0","address":"0","add":"Wimbourne Road 376-378 - BH9 Bournemouth"},{"id":"42186","sname":"Lidl Poole","postcode":"0","longitude":"-1.9210408","latitude":"50.7270399","tel":"0","address":"0","add":"Poole Road 427 - BH12 Poole"},{"id":"42187","sname":"Lidl Bournemouth","postcode":"0","longitude":"-1.8395253","latitude":"50.7271681","tel":"0","address":"0","add":"Sovereign Centre, Christchurch Rd 600 - BH1 Bournemouth"},{"id":"42188","sname":"Lidl Bournemouth","postcode":"0","longitude":"-1.9101448","latitude":"50.7748023","tel":"0","address":"0","add":"Ringwood Road 937 - BH11 Bournemouth"},{"id":"42189","sname":"Lidl Poole","postcode":"0","longitude":"-1.9806865","latitude":"50.7437885","tel":"0","address":"0","add":"Hatch Pond Road - BH17 Poole"},{"id":"42190","sname":"Lidl Christchurch","postcode":"0","longitude":"-1.7521061","latitude":"50.7378174","tel":"0","address":"0","add":"Somerford Road 81 - BH23 Christchurch"},{"id":"42191","sname":"Lidl Poole","postcode":"0","longitude":"-2.0182718","latitude":"50.7278800","tel":"0","address":"0","add":"Blandford Road 446 - BH16 Poole"},{"id":"42192","sname":"Lidl Ferndown","postcode":"0","longitude":"-1.8918046","latitude":"50.8001954","tel":"0","address":"0","add":"Ringwood Rd, (A348) - BH22 Ferndown"},{"id":"42193","sname":"Lidl New Milton","postcode":"0","longitude":"-1.6586466","latitude":"50.7466308","tel":"0","address":"0","add":"Lymington Road 49 - BH25 New Milton"},{"id":"42194","sname":"Lidl Bradford","postcode":"0","longitude":"-1.7326383","latitude":"53.7978697","tel":"0","address":"0","add":"Barkerend Road - BD3 Bradford"},{"id":"42195","sname":"Lidl Bradford","postcode":"0","longitude":"-1.7601896","latitude":"53.7768815","tel":"0","address":"0","add":"Manchester Road - BD5 Bradford"},{"id":"42196","sname":"Lidl Bradford","postcode":"0","longitude":"-1.7846921","latitude":"53.7975620","tel":"0","address":"0","add":"Ingleby Road - BD8 Bradford"},{"id":"42197","sname":"Lidl Halifax","postcode":"0","longitude":"-1.8063314","latitude":"53.7570539","tel":"0","address":"0","add":"Carr House Road - HX3 Halifax"},{"id":"42198","sname":"Lidl Heckmondwike","postcode":"0","longitude":"-1.6706790","latitude":"53.7069760","tel":"0","address":"0","add":"Northgate Centre 1 - WF16 Heckmondwike"},{"id":"42199","sname":"Lidl Halifax","postcode":"0","longitude":"-1.8627254","latitude":"53.7297268","tel":"0","address":"0","add":"Haley Hill 83 - HX3 Halifax"},{"id":"42200","sname":"Lidl Dewsbury","postcode":"0","longitude":"-1.6326336","latitude":"53.6955253","tel":"0","address":"0","add":"Commercial Road - WF13 Dewsbury"},{"id":"42201","sname":"Lidl Leeds","postcode":"0","longitude":"-1.5288001","latitude":"53.7661518","tel":"0","address":"0","add":"Hunslet Green Ret Park-The Oval 2 - LS10 Leeds"},{"id":"42202","sname":"Lidl Leeds","postcode":"0","longitude":"-1.5382939","latitude":"53.8298756","tel":"0","address":"0","add":"Harrogate Road, Chapel Allerton - LS7 Leeds"},{"id":"42203","sname":"Lidl Mirfield","postcode":"0","longitude":"-1.6927393","latitude":"53.6724798","tel":"0","address":"0","add":"Station Road - WF14 Mirfield"},{"id":"42204","sname":"Lidl Brighton","postcode":"0","longitude":"-0.1072543","latitude":"50.8162709","tel":"0","address":"0","add":"Arundel Road 45 - BN2 Brighton"},{"id":"42205","sname":"Lidl Newhaven","postcode":"0","longitude":"0.0563845","latitude":"50.7960002","tel":"0","address":"0","add":"The Hub, Drove Road 3 - BN9 Newhaven"},{"id":"42206","sname":"Lidl Bristol","postcode":"0","longitude":"-2.5622564","latitude":"51.4580201","tel":"0","address":"0","add":"Church Road, Lawrence Hill - BS5 Bristol"},{"id":"42207","sname":"Lidl Bristol","postcode":"0","longitude":"-2.6004222","latitude":"51.4389908","tel":"0","address":"0","add":"Sheene Road - BS3 Bristol"},{"id":"42208","sname":"Lidl Bristol","postcode":"0","longitude":"-2.5565272","latitude":"51.4371897","tel":"0","address":"0","add":"Brislington Retail Park, Bath Road - BS4 Bristol"},{"id":"42209","sname":"Lidl Bristol","postcode":"0","longitude":"-2.6087974","latitude":"51.4142768","tel":"0","address":"0","add":"Whitchurch Lane 59 - BS13 Bristol"},{"id":"42210","sname":"Lidl Bristol","postcode":"0","longitude":"-2.5345571","latitude":"51.4782528","tel":"0","address":"0","add":"Fishponds Road - BS16 Bristol"},{"id":"42211","sname":"Lidl Bristol","postcode":"0","longitude":"-2.5959799","latitude":"51.4981858","tel":"0","address":"0","add":"Southmead Road - BS10 Bristol"},{"id":"42212","sname":"Lidl Bristol","postcode":"0","longitude":"-2.5124254","latitude":"51.4477538","tel":"0","address":"0","add":"High Street 135 - BS15 Bristol"},{"id":"42213","sname":"Lidl Bristol","postcode":"0","longitude":"-2.4744748","latitude":"51.4928640","tel":"0","address":"0","add":"Unit A3, The Village, Emersons Way - BS16 Bristol"},{"id":"42214","sname":"Lidl Portishead","postcode":"0","longitude":"-2.7620472","latitude":"51.4857013","tel":"0","address":"0","add":"Harbour Road - BS20 Portishead"},{"id":"42215","sname":"Lidl Yate","postcode":"0","longitude":"-2.4123099","latitude":"51.5387564","tel":"0","address":"0","add":"Kennedy Way - BS37 Yate"},{"id":"42216","sname":"Lidl Cardiff","postcode":"0","longitude":"-3.2498529","latitude":"51.4755284","tel":"0","address":"0","add":"Cowbridge Road West - CF5 Cardiff"},{"id":"42217","sname":"Lidl Cardiff","postcode":"0","longitude":"-3.1937158","latitude":"51.5196865","tel":"0","address":"0","add":"Maes-Y-Coed Road - CF14 Cardiff"}]