[{"id":"19805","sname":"Sainsbury's Belfast","postcode":"0","longitude":"-5.9794754","latitude":"54.5823663","tel":"0","address":"Unit 28, Kennedy Centre\nFalls Road - BT11 Belfast"},{"id":"19806","sname":"Sainsbury's Belfast","postcode":"0","longitude":"-5.9435783","latitude":"54.5734928","tel":"0","address":"Forestside Shopping Centre\nUpper Galwally - BT8 Belfast"},{"id":"19807","sname":"Sainsbury's Belfast","postcode":"0","longitude":"-5.8592312","latitude":"54.6263908","tel":"0","address":"Holywood Exchange\n302 Airport Road West - BT3 Belfast"},{"id":"19808","sname":"Sainsbury's Lisburn","postcode":"0","longitude":"-6.0678313","latitude":"54.4917241","tel":"0","address":"5 Sprucefield Park - BT27 Lisburn"},{"id":"19809","sname":"Sainsbury's Carrickfergus","postcode":"0","longitude":"-5.8097320","latitude":"54.7121057","tel":"0","address":"1 Rodgers Quay - BT38 Carrickfergus"},{"id":"19810","sname":"Sainsbury's Bangor","postcode":"0","longitude":"-5.6697875","latitude":"54.6452585","tel":"0","address":"10 Balloo Link - BT19 Bangor"},{"id":"19811","sname":"Sainsbury's Londonderry","postcode":"0","longitude":"-7.3168832","latitude":"55.0111041","tel":"0","address":"150 Strand Road - BT48 Londonderry"},{"id":"19812","sname":"Sainsbury's Newry","postcode":"0","longitude":"-6.3398962","latitude":"54.1674576","tel":"0","address":"The Quays  - BT35 Newry"},{"id":"19813","sname":"Sainsbury's Armagh","postcode":"0","longitude":"-6.6510120","latitude":"54.3481882","tel":"0","address":"The Mall Shopping Centre\nThe Mall West - BT61 Armagh"},{"id":"19814","sname":"Sainsbury's Dungannon","postcode":"0","longitude":"-6.7653600","latitude":"54.5042500","tel":"0","address":"Unit 14, The Oaks Centre\nOaks Road - BT71 Dungannon"},{"id":"19815","sname":"Sainsbury's Craigavon","postcode":"0","longitude":"-6.3917715","latitude":"54.4494828","tel":"0","address":"Rushmere Shopping Centre - BT64 Craigavon"},{"id":"19816","sname":"Sainsbury's Aberdeen","postcode":"0","longitude":"-2.0980018","latitude":"57.1477815","tel":"0","address":"St. Nicholas Centre - AB10 Aberdeen"},{"id":"19817","sname":"Sainsbury's Aberdeen","postcode":"0","longitude":"-2.1039645","latitude":"57.1522741","tel":"0","address":"313 George Street - AB25 Aberdeen"},{"id":"19818","sname":"Sainsbury's Aberdeen","postcode":"0","longitude":"-2.1055308","latitude":"57.1447933","tel":"0","address":"206 Union Street - AB10 Aberdeen"},{"id":"19819","sname":"Sainsbury's Aberdeen","postcode":"0","longitude":"-2.1008171","latitude":"57.1459634","tel":"0","address":"492 - 494 Union Street - AB10 Aberdeen"},{"id":"19820","sname":"Sainsbury's Aberdeen","postcode":"0","longitude":"-2.1150103","latitude":"57.1498589","tel":"0","address":"97-99 Rosemount Place - AB25 Aberdeen"},{"id":"19821","sname":"Sainsbury's Aberdeen","postcode":"0","longitude":"-2.1142529","latitude":"57.1388476","tel":"0","address":"124-130 Holburn Street - AB10 Aberdeen"},{"id":"19822","sname":"Sainsbury's Aberdeen","postcode":"0","longitude":"-2.1151510","latitude":"57.1560341","tel":"0","address":"Berryden Road - AB25 Aberdeen"},{"id":"19823","sname":"Sainsbury's Aberdeen","postcode":"0","longitude":"-2.1247641","latitude":"57.1200809","tel":"0","address":"45-47 Garthdee Road - AB10 Aberdeen"},{"id":"19824","sname":"Sainsbury's Ashford","postcode":"0","longitude":"0.8683840","latitude":"51.1573258","tel":"0","address":"Simone Weil Avenue - TN24 Ashford"},{"id":"19825","sname":"Sainsbury's Hythe","postcode":"0","longitude":"1.0776017","latitude":"51.0714044","tel":"0","address":"19 Military Road - CT21 Hythe"},{"id":"19826","sname":"Sainsbury's Headcorn","postcode":"0","longitude":"0.6227179","latitude":"51.1677228","tel":"0","address":"34 High Street - TN27 Headcorn"},{"id":"19827","sname":"Sainsbury's New Romney","postcode":"0","longitude":"0.9515213","latitude":"50.9927841","tel":"0","address":"Dymchurch Road - TN28 New Romney"},{"id":"19828","sname":"Sainsbury's Faversham","postcode":"0","longitude":"0.8761524","latitude":"51.3222976","tel":"0","address":"Bysing Wood Road - ME13 Faversham"},{"id":"19829","sname":"Sainsbury's Canterbury","postcode":"0","longitude":"1.0919123","latitude":"51.2689357","tel":"0","address":"Unit 1, St. Lawrence Ground\nThe Drive, Old Dover Road - CT1 Canterbury"},{"id":"19830","sname":"Sainsbury's Canterbury","postcode":"0","longitude":"1.0737576","latitude":"51.2824872","tel":"0","address":"24 St. Dunstans Street - CT2 Canterbury"},{"id":"19831","sname":"Sainsbury's Folkestone","postcode":"0","longitude":"1.1669419","latitude":"51.0950260","tel":"0","address":"Park Farm Retail Park\nPark Farm Road - CT19 Folkestone"},{"id":"19832","sname":"Sainsbury's Canterbury","postcode":"0","longitude":"1.0864019","latitude":"51.2848267","tel":"0","address":"Kingsmead Road - CT1 Canterbury"},{"id":"19833","sname":"Sainsbury's Folkestone","postcode":"0","longitude":"1.1751496","latitude":"51.0787977","tel":"0","address":"5 Bouverie Road West - CT20 Folkestone"},{"id":"19834","sname":"Sainsbury's Birmingham","postcode":"0","longitude":"-1.8979239","latitude":"52.4822161","tel":"0","address":"Unit 1 5 St Philips Place\n18 - 20 Colmore Row - B3 Birmingham"},{"id":"19835","sname":"Sainsbury's Birmingham","postcode":"0","longitude":"-1.8965668","latitude":"52.4800591","tel":"0","address":"17 Union Street - B2 Birmingham"},{"id":"19836","sname":"Sainsbury's Birmingham","postcode":"0","longitude":"-1.9026353","latitude":"52.4776904","tel":"0","address":"89 Navigation Street - B5 Birmingham"},{"id":"19837","sname":"Sainsbury's Birmingham","postcode":"0","longitude":"-1.9098529","latitude":"52.4804349","tel":"0","address":"10 Brindley Place - B1 Birmingham"},{"id":"19838","sname":"Sainsbury's Harborne","postcode":"0","longitude":"-1.9458400","latitude":"52.4601645","tel":"0","address":"77A-79A High Street - B17 Harborne"},{"id":"19839","sname":"Sainsbury's Birmingham","postcode":"0","longitude":"-1.9388594","latitude":"52.4419909","tel":"0","address":"1 Chapel Lane\nSelly Oak - B29 Birmingham"},{"id":"19840","sname":"Sainsbury's Birmingham","postcode":"0","longitude":"-1.8927420","latitude":"52.4289417","tel":"0","address":"38-54 Alcester Road South - B14 Birmingham"},{"id":"19841","sname":"Sainsbury's Acocks Green","postcode":"0","longitude":"-1.8218270","latitude":"52.4463857","tel":"0","address":"1149 Warwick Road\n - B27 Acocks Green"},{"id":"19842","sname":"Sainsbury's Sutton Coldfield","postcode":"0","longitude":"-1.8272725","latitude":"52.5363113","tel":"0","address":"346 Birmingham Road - B72 Sutton Coldfield"},{"id":"19843","sname":"Sainsbury's Birmingham","postcode":"0","longitude":"-1.7983598","latitude":"52.5141428","tel":"0","address":"Castle Vale Retail Park\nChester Road, Castle Vale - B35 Birmingham"},{"id":"19844","sname":"Sainsbury's Sutton Coldfield","postcode":"0","longitude":"-1.8412508","latitude":"52.5485245","tel":"0","address":"36-38 Boldmere Road - B73 Sutton Coldfield"},{"id":"19845","sname":"Sainsbury's Oldbury","postcode":"0","longitude":"-2.0180549","latitude":"52.5047993","tel":"0","address":"Freeth Street - B69 Oldbury"},{"id":"19846","sname":"Sainsbury's Birmingham","postcode":"0","longitude":"-1.8857388","latitude":"52.4045719","tel":"0","address":"1059-1061 Alcester Road  - B14 Birmingham"},{"id":"19847","sname":"Sainsbury's Birmingham","postcode":"0","longitude":"-1.9838597","latitude":"52.4106117","tel":"0","address":"Frankley Beeches Road - B31 Birmingham"},{"id":"19848","sname":"Sainsbury's Rowley Regis","postcode":"0","longitude":"-2.0419612","latitude":"52.4732692","tel":"0","address":"Halesowen Street - B65 Rowley Regis"},{"id":"19849","sname":"Sainsbury's Shirley","postcode":"0","longitude":"-1.8211446","latitude":"52.4007848","tel":"0","address":"545 Stratford Road - B90 Shirley"},{"id":"19850","sname":"Sainsbury's Solihull","postcode":"0","longitude":"-1.7786202","latitude":"52.4146176","tel":"0","address":"11 Poplar Way - B91 Solihull"},{"id":"19851","sname":"Sainsbury's Sutton Coldfield","postcode":"0","longitude":"-1.8260425","latitude":"52.5875890","tel":"0","address":"30 Mere Green Road - B75 Sutton Coldfield"},{"id":"19852","sname":"Sainsbury's Walsall","postcode":"0","longitude":"-2.0072268","latitude":"52.5967583","tel":"0","address":"Reedswood Way - WS2 Walsall"},{"id":"19853","sname":"Sainsbury's Brierley Hill","postcode":"0","longitude":"-2.1112619","latitude":"52.4824898","tel":"0","address":"The Merry Hill Centre - DY5 Brierley Hill"},{"id":"19854","sname":"Sainsbury's Brierley Hill","postcode":"0","longitude":"-2.1290541","latitude":"52.4676749","tel":"0","address":"Sandringham Way - DY5 Brierley Hill"},{"id":"19855","sname":"Sainsbury's Dudley","postcode":"0","longitude":"-2.1317280","latitude":"52.5174382","tel":"0","address":"18 Louise Street - DY3 Dudley"},{"id":"19856","sname":"Sainsbury's Wolverhampton","postcode":"0","longitude":"-2.0858510","latitude":"52.5986605","tel":"0","address":"Rookery Street - WV11 Wolverhampton"},{"id":"19857","sname":"Sainsbury's Stourbridge","postcode":"0","longitude":"-2.1645185","latitude":"52.4811390","tel":"0","address":"23 Lawnswood Road - DY8 Stourbridge"},{"id":"19858","sname":"Sainsbury's Wolverhampton","postcode":"0","longitude":"-2.1295449","latitude":"52.5847821","tel":"0","address":"7 Victoria Square - WV1 Wolverhampton"},{"id":"19859","sname":"Sainsbury's Wolverhampton","postcode":"0","longitude":"-2.1230001","latitude":"52.5833806","tel":"0","address":"20 St. Georges Parade - WV2 Wolverhampton"},{"id":"19860","sname":"Sainsbury's Redditch","postcode":"0","longitude":"-1.9390950","latitude":"52.3131806","tel":"0","address":"Abbey Trading Centre\nAlvechurch Highway - B97 Redditch"},{"id":"19861","sname":"Sainsbury's Bonehill","postcode":"0","longitude":"-1.7005993","latitude":"52.6197644","tel":"0","address":"Bitterscote Drive - B78 Bonehill"},{"id":"19862","sname":"Sainsbury's Wombourne","postcode":"0","longitude":"-2.2094845","latitude":"52.5240851","tel":"0","address":"Heath Mill Road - WV5 Wombourne"},{"id":"19863","sname":"Sainsbury's Cannock","postcode":"0","longitude":"-2.0189321","latitude":"52.6749497","tel":"0","address":"Voyager Drive\nOrbital Retail Centre - WS11 Cannock"},{"id":"19864","sname":"Sainsbury's Blackpool","postcode":"0","longitude":"-3.0333351","latitude":"53.8109514","tel":"0","address":"66 Whitegate Drive - FY3 Blackpool"},{"id":"19865","sname":"Sainsbury's Blackpool","postcode":"0","longitude":"-3.0482371","latitude":"53.8501836","tel":"0","address":"80 Red Bank Road - FY2 Blackpool"},{"id":"19866","sname":"Sainsbury's Thornton-Cleveleys","postcode":"0","longitude":"-3.0353689","latitude":"53.8764854","tel":"0","address":"Unit 1, 157 Victoria Road West - FY5 Thornton-Cleveleys"},{"id":"19867","sname":"Sainsbury's Lytham St Annes","postcode":"0","longitude":"-3.0330987","latitude":"53.7552038","tel":"0","address":"St. Andrews Road North - FY8 Lytham St Annes"},{"id":"19868","sname":"Sainsbury's Southport","postcode":"0","longitude":"-3.0013504","latitude":"53.6506462","tel":"0","address":"St. Georges Place\nLord Street - PR9 Southport"},{"id":"19869","sname":"Sainsbury's Preston","postcode":"0","longitude":"-2.6876685","latitude":"53.7760843","tel":"0","address":"Flintoff Way - PR1 Preston"},{"id":"19870","sname":"Sainsbury's Liverpool","postcode":"0","longitude":"-2.9907733","latitude":"53.4059454","tel":"0","address":"42 Castle Street - L2 Liverpool"},{"id":"19871","sname":"Sainsbury's Liverpool","postcode":"0","longitude":"-2.9941578","latitude":"53.4094542","tel":"0","address":"Nations House\nEdmund Street - L3 Liverpool"},{"id":"19872","sname":"Sainsbury's Liverpool","postcode":"0","longitude":"-2.9803698","latitude":"53.3993970","tel":"0","address":"11 Lyceum Road\nRanlalgh Street - L1 Liverpool"},{"id":"19873","sname":"Sainsbury's Liverpool","postcode":"0","longitude":"-2.9768302","latitude":"53.4023501","tel":"0","address":"105-107 Bold Street - L1 Liverpool"},{"id":"19874","sname":"Sainsbury's Birkenhead","postcode":"0","longitude":"-3.0451120","latitude":"53.3738989","tel":"0","address":"342A Woodchurch Road - CH42 Birkenhead"},{"id":"19875","sname":"Sainsbury's Liverpool","postcode":"0","longitude":"-2.9620125","latitude":"53.4543920","tel":"0","address":"Rice Lane - L9 Liverpool"},{"id":"19876","sname":"Sainsbury's Liverpool","postcode":"0","longitude":"-2.8979505","latitude":"53.4150256","tel":"0","address":"112 East Prescot Road - L14 Liverpool"},{"id":"19877","sname":"Sainsbury's Wirral","postcode":"0","longitude":"-3.1080237","latitude":"53.3858663","tel":"0","address":"Upton By Pass - CH49 Wirral"},{"id":"19878","sname":"Sainsbury's Liverpool","postcode":"0","longitude":"-2.8645193","latitude":"53.3749182","tel":"0","address":"1 Sainsburys Centre\nJames Road - L25 Liverpool"},{"id":"19879","sname":"Sainsbury's Crosby","postcode":"0","longitude":"-3.0269226","latitude":"53.4924320","tel":"0","address":"1-3 Liverpool Road - L23 Crosby"},{"id":"19880","sname":"Sainsbury's Wirral","postcode":"0","longitude":"-3.0974435","latitude":"53.3333101","tel":"0","address":"143 Pensby Road - CH60 Wirral"},{"id":"19881","sname":"Sainsbury's Wirral","postcode":"0","longitude":"-3.1801342","latitude":"53.3906850","tel":"0","address":"19A Market Street - CH47 Wirral"},{"id":"19882","sname":"Sainsbury's Neston","postcode":"0","longitude":"-3.0628028","latitude":"53.2900634","tel":"0","address":"Brook Street - CH64 Neston"},{"id":"19883","sname":"Sainsbury's Ellesmere Port","postcode":"0","longitude":"-2.8844161","latitude":"53.2629986","tel":"0","address":"Kinsey Road - CH65 Ellesmere Port"},{"id":"19884","sname":"Sainsbury's Flint","postcode":"0","longitude":"-3.1376072","latitude":"53.2520711","tel":"0","address":"Unit M, Flintshire Retail Park\nHolywell Road - CH6 Flint"},{"id":"19885","sname":"Sainsbury's Warrington","postcode":"0","longitude":"-2.6412482","latitude":"53.3985910","tel":"0","address":"Santa Rosa Boulevard\nGreat Sankey - WA5 Warrington"},{"id":"19886","sname":"Sainsbury's Bournemouth","postcode":"0","longitude":"-1.8781670","latitude":"50.7451343","tel":"0","address":"501 Wimborne Road - BH9 Bournemouth"},{"id":"19887","sname":"Sainsbury's Bournemouth","postcode":"0","longitude":"-1.8373161","latitude":"50.7268952","tel":"0","address":"637-641 Christchurch Road - BH1 Bournemouth"},{"id":"19888","sname":"Sainsbury's Poole","postcode":"0","longitude":"-1.9177287","latitude":"50.7372444","tel":"0","address":"4 Alder Park\nAlder Road - BH12 Poole"},{"id":"19889","sname":"Sainsbury's Poole","postcode":"0","longitude":"-1.9376475","latitude":"50.7245112","tel":"0","address":"104-106 Bournemouth Road - BH14 Poole"},{"id":"19890","sname":"Sainsbury's Bournemouth","postcode":"0","longitude":"-1.8408665","latitude":"50.7537072","tel":"0","address":"Castlepoint\nCastle Lane West - BH8 Bournemouth"},{"id":"19891","sname":"Sainsbury's Bournemouth","postcode":"0","longitude":"-1.8147205","latitude":"50.7263759","tel":"0","address":"46/48 Southbourne Grove - BH6 Bournemouth"},{"id":"19892","sname":"Sainsbury's Bournemouth","postcode":"0","longitude":"-1.8175930","latitude":"50.7343564","tel":"0","address":"1098-1100 Christchurch Road - BH7 Bournemouth"},{"id":"19893","sname":"Sainsbury's Poole","postcode":"0","longitude":"-1.9809409","latitude":"50.7163531","tel":"0","address":"11 Pitwines Close - BH15 Poole"},{"id":"19894","sname":"Sainsbury's Poole","postcode":"0","longitude":"-1.9860871","latitude":"50.7138894","tel":"0","address":"Orchard Plaza\n39 High Street - BH15 Poole"},{"id":"19895","sname":"Sainsbury's Christchurch","postcode":"0","longitude":"-1.7417720","latitude":"50.7443306","tel":"0","address":"1 Lyndhurst Road - BH23 Christchurch"},{"id":"19896","sname":"Sainsbury's Ferndown","postcode":"0","longitude":"-1.8754296","latitude":"50.8116703","tel":"0","address":"597 Ringwood Road - BH22 Ferndown"},{"id":"19897","sname":"Sainsbury's Ringwood","postcode":"0","longitude":"-1.7918617","latitude":"50.8470561","tel":"0","address":"24 Meeting House Lane - BH24 Ringwood"},{"id":"19898","sname":"Sainsbury's Wareham","postcode":"0","longitude":"-2.1095399","latitude":"50.6848226","tel":"0","address":"South Street - BH20 Wareham"},{"id":"19899","sname":"Sainsbury's Brighton","postcode":"0","longitude":"-0.1364487","latitude":"50.8212242","tel":"0","address":"13-15 Old Steine - BN1 Brighton"},{"id":"19900","sname":"Sainsbury's Brighton","postcode":"0","longitude":"-0.1423724","latitude":"50.8236274","tel":"0","address":"134 North Street - BN1 Brighton"},{"id":"19901","sname":"Sainsbury's Brighton","postcode":"0","longitude":"-0.1379538","latitude":"50.8304082","tel":"0","address":"27 New England Street - BN1 Brighton"},{"id":"19902","sname":"Sainsbury's Brighton","postcode":"0","longitude":"-0.1503600","latitude":"50.8246272","tel":"0","address":"147-148 Western Road - BN1 Brighton"},{"id":"19903","sname":"Sainsbury's Brighton","postcode":"0","longitude":"-0.1245596","latitude":"50.8376840","tel":"0","address":"93 Lewes Road - BN2 Brighton"},{"id":"19904","sname":"Sainsbury's Hove","postcode":"0","longitude":"-0.1611911","latitude":"50.8260117","tel":"0","address":"55-56 Western Road - BN3 Hove"},{"id":"19905","sname":"Sainsbury's Brighton","postcode":"0","longitude":"-0.1516451","latitude":"50.8437590","tel":"0","address":"227-233 Preston Road - BN1 Brighton"},{"id":"19906","sname":"Sainsbury's Hove","postcode":"0","longitude":"-0.1842146","latitude":"50.8331904","tel":"0","address":"123-125 Portland Road - BN3 Hove"},{"id":"19907","sname":"Sainsbury's Brighton","postcode":"0","longitude":"-0.1357717","latitude":"50.8621858","tel":"0","address":"189 Carden Avenue - BN1 Brighton"},{"id":"19908","sname":"Sainsbury's Hove","postcode":"0","longitude":"-0.2050408","latitude":"50.8422774","tel":"0","address":"361-367 Old Shoreham Rd - BN3 Hove"},{"id":"19909","sname":"Sainsbury's Peacehaven","postcode":"0","longitude":"-0.0075065","latitude":"50.7926166","tel":"0","address":"204 South Coast Road - BN10 Peacehaven"},{"id":"19910","sname":"Sainsbury's Newhaven","postcode":"0","longitude":"0.0606950","latitude":"50.7980685","tel":"0","address":"The Drove - BN9 Newhaven"},{"id":"19911","sname":"Sainsbury's Worthing","postcode":"0","longitude":"-0.3728820","latitude":"50.8178700","tel":"0","address":"Downland Business Park\nLyons Farm - BN14 Worthing"},{"id":"19912","sname":"Sainsbury's Haywards Heath","postcode":"0","longitude":"-0.1000496","latitude":"50.9920466","tel":"0","address":"25 Wivelsfield Road - RH16 Haywards Heath"},{"id":"19913","sname":"Sainsbury's Bristol","postcode":"0","longitude":"-2.5872417","latitude":"51.4578980","tel":"0","address":"1-3 Broadmead - BS1 Bristol"},{"id":"19914","sname":"Sainsbury's Bristol","postcode":"0","longitude":"-2.5971256","latitude":"51.4530283","tel":"0","address":"9 Broad Quay - BS1 Bristol"},{"id":"19915","sname":"Sainsbury's Clifton","postcode":"0","longitude":"-2.6063664","latitude":"51.4565683","tel":"0","address":"46-56 Queens Road - BS8 Clifton"},{"id":"19916","sname":"Sainsbury's Bishopston","postcode":"0","longitude":"-2.5932015","latitude":"51.4713280","tel":"0","address":"2-4 Gloucester Road - BS7 Bishopston"},{"id":"19917","sname":"Sainsbury's Bristol","postcode":"0","longitude":"-2.6107403","latitude":"51.4639996","tel":"0","address":"Clifton Down Shopping Centre\nWhiteladies Road - BS8 Bristol"},{"id":"19918","sname":"Sainsbury's Bristol","postcode":"0","longitude":"-2.5608837","latitude":"51.4440480","tel":"0","address":"St. Philips Causeway\nArnos Vale - BS4 Bristol"},{"id":"19919","sname":"Sainsbury's Bristol","postcode":"0","longitude":"-2.6144075","latitude":"51.4690967","tel":"0","address":"140A Whiteladies Road - BS8 Bristol"},{"id":"19920","sname":"Sainsbury's Horfield","postcode":"0","longitude":"-2.5895567","latitude":"51.4787352","tel":"0","address":"256-258 Gloucester Road - BS7 Horfield"},{"id":"19921","sname":"Sainsbury's Bristol","postcode":"0","longitude":"-2.6181574","latitude":"51.4344501","tel":"0","address":"111 Winterstoke Road - BS3 Bristol"},{"id":"19922","sname":"Sainsbury's Fishponds","postcode":"0","longitude":"-2.5278371","latitude":"51.4812436","tel":"0","address":"794 Fishponds Road - BS16 Fishponds"},{"id":"19923","sname":"Sainsbury's Kingswood","postcode":"0","longitude":"-2.5082450","latitude":"51.4625432","tel":"0","address":"13 Kings Chase Shopping Centre\nRegent Street - BS15 Kingswood"},{"id":"19924","sname":"Sainsbury's Stoke Gifford","postcode":"0","longitude":"-2.5505890","latitude":"51.5085213","tel":"0","address":"Fox Den Road\n - BS34 Stoke Gifford"},{"id":"19925","sname":"Sainsbury's Emersons Green","postcode":"0","longitude":"-2.4744748","latitude":"51.4928640","tel":"0","address":"The Village\nEmerson Way - BS16 Emersons Green"},{"id":"19926","sname":"Sainsbury's Bath","postcode":"0","longitude":"-2.3784359","latitude":"51.3768371","tel":"0","address":"54-56 Moorland Road - BA2 Bath"},{"id":"19927","sname":"Sainsbury's Bath","postcode":"0","longitude":"-2.3685406","latitude":"51.3812006","tel":"0","address":"Green Park Station\nGreen Park Road - BA1 Bath"},{"id":"19928","sname":"Sainsbury's Bath","postcode":"0","longitude":"-2.3626562","latitude":"51.3814744","tel":"0","address":"43 Monmouth Street - BA1 Bath"},{"id":"19929","sname":"Sainsbury's Bath","postcode":"0","longitude":"-2.3599870","latitude":"51.3779311","tel":"0","address":"2-4 Dorchester Street\nSouthgate - BA1 Bath"},{"id":"19930","sname":"Sainsbury's Bath","postcode":"0","longitude":"-2.3767843","latitude":"51.3590211","tel":"0","address":"Frome Road - BA2 Bath"},{"id":"19931","sname":"Sainsbury's Radstock","postcode":"0","longitude":"-2.4824946","latitude":"51.2863368","tel":"0","address":"The Hollies\nHigh Street, Midsomer Norton - BA3 Radstock"},{"id":"19932","sname":"Sainsbury's Paignton","postcode":"0","longitude":"-3.5634482","latitude":"50.4443864","tel":"0","address":"227-231 Torquay Road - TQ3 Paignton"},{"id":"19933","sname":"Sainsbury's Torquay","postcode":"0","longitude":"-3.5559518","latitude":"50.4875812","tel":"0","address":"Nicholson Road - TQ2 Torquay"},{"id":"19934","sname":"Sainsbury's Paignton","postcode":"0","longitude":"-3.5946274","latitude":"50.4206204","tel":"0","address":"Yalberton Road - TQ4 Paignton"},{"id":"19935","sname":"Sainsbury's Newton Abbot","postcode":"0","longitude":"-3.5907370","latitude":"50.5240090","tel":"0","address":"Penn Inn - TQ12 Newton Abbot"},{"id":"19936","sname":"Sainsbury's Dartmouth","postcode":"0","longitude":"-3.6026635","latitude":"50.3500522","tel":"0","address":"Nelson Road - TQ6 Dartmouth"},{"id":"19937","sname":"Sainsbury's Dawlish","postcode":"0","longitude":"-3.4618858","latitude":"50.5969299","tel":"0","address":"Exeter Road - EX7 Dawlish"},{"id":"19938","sname":"Sainsbury's Taunton","postcode":"0","longitude":"-3.0994002","latitude":"51.0136273","tel":"0","address":"Billet Street - TA1 Taunton"},{"id":"19939","sname":"Sainsbury's Taunton","postcode":"0","longitude":"-3.0636337","latitude":"51.0212354","tel":"0","address":"Hankridge Farm\nHankridge Way - TA1 Taunton"},{"id":"19940","sname":"Sainsbury's Bridgwater","postcode":"0","longitude":"-2.9995736","latitude":"51.1318622","tel":"0","address":"The Clink - TA6 Bridgwater"},{"id":"19941","sname":"Sainsbury's Chard","postcode":"0","longitude":"-2.9654121","latitude":"50.8715668","tel":"0","address":"Holyrood Street - TA20 Chard"},{"id":"19943","sname":"Sainsbury's Cambridge","postcode":"0","longitude":"0.1243131","latitude":"52.2026458","tel":"0","address":"52-54 St. Andrews Street - CB2 Cambridge"},{"id":"19944","sname":"Sainsbury's Cambridge","postcode":"0","longitude":"0.1198867","latitude":"52.2071209","tel":"0","address":"42-45 Sidney Street - CB2 Cambridge"},{"id":"19945","sname":"Sainsbury's Cambridge","postcode":"0","longitude":"0.1368770","latitude":"52.1909811","tel":"0","address":"Cambridge Leisure Park\nClifton Way - CB1 Cambridge"},{"id":"19946","sname":"Sainsbury's Cambridge","postcode":"0","longitude":"0.1564774","latitude":"52.1983292","tel":"0","address":"Brooks Road - CB1 Cambridge"},{"id":"19947","sname":"Sainsbury's Haverhill","postcode":"0","longitude":"0.4090140","latitude":"52.0888159","tel":"0","address":"Haycocks Road - CB9 Haverhill"},{"id":"19948","sname":"Sainsbury's Ely","postcode":"0","longitude":"0.2725596","latitude":"52.3996826","tel":"0","address":"Lisle Lane - CB7 Ely"},{"id":"19949","sname":"Sainsbury's Cardiff","postcode":"0","longitude":"-3.1800826","latitude":"51.4791951","tel":"0","address":"114-116 St. Mary Street - CF10 Cardiff"},{"id":"19950","sname":"Sainsbury's Cardiff","postcode":"0","longitude":"-3.1724043","latitude":"51.4829259","tel":"0","address":"133-139 Queen Street - CF10 Cardiff"},{"id":"19951","sname":"Sainsbury's Cardiff","postcode":"0","longitude":"-3.1768374","latitude":"51.4941248","tel":"0","address":"123-127 Woodville Road - CF24 Cardiff"},{"id":"19952","sname":"Sainsbury's Cardiff","postcode":"0","longitude":"-3.1695545","latitude":"51.4708805","tel":"0","address":"Bute Street - CF10 Cardiff"},{"id":"19953","sname":"Sainsbury's Cardiff","postcode":"0","longitude":"-3.1882033","latitude":"51.5012515","tel":"0","address":"116-120 Whitchurch Road - CF14 Cardiff"},{"id":"19954","sname":"Sainsbury's Cardiff","postcode":"0","longitude":"-3.1518631","latitude":"51.4976050","tel":"0","address":"Colchester Avenue\nPenylan - CF23 Cardiff"},{"id":"19955","sname":"Sainsbury's Rumney","postcode":"0","longitude":"-3.1339614","latitude":"51.5069474","tel":"0","address":"751 Newport Road\n - CF3 Rumney"},{"id":"19956","sname":"Sainsbury's Penarth","postcode":"0","longitude":"-3.1787937","latitude":"51.4401311","tel":"0","address":"28-30 Windsor Road - CF64 Penarth"},{"id":"19957","sname":"Sainsbury's Thornhill","postcode":"0","longitude":"-3.1945211","latitude":"51.5376979","tel":"0","address":"District Shopping Centre\nExcalibur Drive - CF14 Thornhill"},{"id":"19958","sname":"Sainsbury's Barry","postcode":"0","longitude":"-3.2880122","latitude":"51.4012427","tel":"0","address":"39-40 Park Crescent - CF62 Barry"},{"id":"19959","sname":"Sainsbury's Newport","postcode":"0","longitude":"-2.9942850","latitude":"51.6000123","tel":"0","address":"Albany Street\n - NP20 Newport"},{"id":"19960","sname":"Sainsbury's Pontllanfraith","postcode":"0","longitude":"-3.1775582","latitude":"51.6579901","tel":"0","address":"Newbridge Rd Industrial Estate - NP12 Pontllanfraith"},{"id":"19961","sname":"Sainsbury's Cwmbran","postcode":"0","longitude":"-3.0215785","latitude":"51.6487850","tel":"0","address":"Llewellyn Road - NP44 Cwmbran"},{"id":"19962","sname":"Sainsbury's Weston-super-mare","postcode":"0","longitude":"-2.9057705","latitude":"51.3608429","tel":"0","address":"Queensway - BS22 Weston-super-mare"},{"id":"19963","sname":"Sainsbury's Chelmsford","postcode":"0","longitude":"0.5115396","latitude":"51.7508578","tel":"0","address":"White Hart Lane - CM2 Chelmsford"},{"id":"19964","sname":"Sainsbury's Ongar","postcode":"0","longitude":"0.2447648","latitude":"51.7054337","tel":"0","address":"Bansons Lane - CM5 Ongar"},{"id":"19965","sname":"Sainsbury's Basildon","postcode":"0","longitude":"0.5023262","latitude":"51.5908309","tel":"0","address":"Cricketers Retail Park\nCricketers Way - SS13 Basildon"},{"id":"19966","sname":"Sainsbury's Braintree","postcode":"0","longitude":"0.5525150","latitude":"51.8789430","tel":"0","address":"1 Tofts Walk - CM7 Braintree"},{"id":"19967","sname":"Sainsbury's Brentwood","postcode":"0","longitude":"0.3033892","latitude":"51.6220817","tel":"0","address":"51 William Hunter Way - CM14 Brentwood"},{"id":"19968","sname":"Sainsbury's Hockley","postcode":"0","longitude":"0.6560945","latitude":"51.6016210","tel":"0","address":"40 Spa Road - SS5 Hockley"},{"id":"19969","sname":"Sainsbury's Benfleet","postcode":"0","longitude":"0.5991945","latitude":"51.5749516","tel":"0","address":"21 Stadium Way - SS7 Benfleet"},{"id":"19970","sname":"Sainsbury's Rayleigh","postcode":"0","longitude":"0.6199899","latitude":"51.5790523","tel":"0","address":"239/243 Eastwood Road - SS6 Rayleigh"},{"id":"19971","sname":"Sainsbury's Harold Hill","postcode":"0","longitude":"0.2196615","latitude":"51.6058724","tel":"0","address":"44 Farnham Road - RM3 Harold Hill"},{"id":"19972","sname":"Sainsbury's Rochford","postcode":"0","longitude":"0.7017713","latitude":"51.5827512","tel":"0","address":"74-78 West Street - SS4 Rochford"},{"id":"19973","sname":"Sainsbury's Hoole","postcode":"0","longitude":"-2.8758590","latitude":"53.1991004","tel":"0","address":"2-6 Charles Street - CH2 Hoole"},{"id":"19974","sname":"Sainsbury's Great Boughton","postcode":"0","longitude":"-2.8596098","latitude":"53.1811257","tel":"0","address":"Caldy Valley Road - CH3 Great Boughton"},{"id":"19975","sname":"Sainsbury's Ellesmere Port","postcode":"0","longitude":"-2.8844161","latitude":"53.2629986","tel":"0","address":"Kinsey Road - CH65 Ellesmere Port"},{"id":"19976","sname":"Sainsbury's Mold","postcode":"0","longitude":"-3.1419030","latitude":"53.1672030","tel":"0","address":"1 The Square, Mercia Drive\nMynydd Isa - CH7 Mold"},{"id":"19977","sname":"Sainsbury's Neston","postcode":"0","longitude":"-3.0628028","latitude":"53.2900634","tel":"0","address":"Brook Street - CH64 Neston"},{"id":"19978","sname":"Sainsbury's Wrexham","postcode":"0","longitude":"-3.0059599","latitude":"53.0557380","tel":"0","address":"Retail Park\nPlas Coch Road - LL11 Wrexham"},{"id":"19979","sname":"Sainsbury's Flint","postcode":"0","longitude":"-3.1376072","latitude":"53.2520711","tel":"0","address":"Unit M, Flintshire Retail Park\nHolywell Road - CH6 Flint"},{"id":"19980","sname":"Sainsbury's Colchester","postcode":"0","longitude":"0.9028509","latitude":"51.8887460","tel":"0","address":"11-14 Priory Walk - CO1 Colchester"},{"id":"19981","sname":"Sainsbury's Stanway","postcode":"0","longitude":"0.8280914","latitude":"51.8852024","tel":"0","address":"1 Western Approach - CO3 Stanway"},{"id":"19982","sname":"Sainsbury's Halstead","postcode":"0","longitude":"0.6362132","latitude":"51.9443438","tel":"0","address":"48A High Street - CO9 Halstead"},{"id":"19983","sname":"Sainsbury's Sudbury","postcode":"0","longitude":"0.7393118","latitude":"52.0359214","tel":"0","address":"66 Cornard Road - CO10 Sudbury"},{"id":"19984","sname":"Sainsbury's Clacton-on-Sea","postcode":"0","longitude":"1.1551774","latitude":"51.7905712","tel":"0","address":"39 High Street - CO15 Clacton-on-Sea"},{"id":"19985","sname":"Sainsbury's Coventry","postcode":"0","longitude":"-1.5090911","latitude":"52.4100897","tel":"0","address":"24-26 Trinity Street - CV1 Coventry"},{"id":"19986","sname":"Sainsbury's Coventry","postcode":"0","longitude":"-1.5549883","latitude":"52.4015509","tel":"0","address":"330 Fletchamstead Highway - CV4 Coventry"},{"id":"19987","sname":"Sainsbury's Coventry","postcode":"0","longitude":"-1.4847659","latitude":"52.4287318","tel":"0","address":"Austin Drive - CV6 Coventry"},{"id":"19988","sname":"Sainsbury's Coventry","postcode":"0","longitude":"-1.4304571","latitude":"52.4581672","tel":"0","address":"The Orchard - CV7 Coventry"},{"id":"19989","sname":"Sainsbury's Kenilworth","postcode":"0","longitude":"-1.5771773","latitude":"52.3403753","tel":"0","address":"60-66 Warwick Road - CV8 Kenilworth"},{"id":"19990","sname":"Sainsbury's Nuneaton","postcode":"0","longitude":"-1.4630448","latitude":"52.5227993","tel":"0","address":"Vicarage Street - CV11 Nuneaton"},{"id":"19991","sname":"Sainsbury's Warwick","postcode":"0","longitude":"-1.5450500","latitude":"52.2758542","tel":"0","address":"The Shires Retail Park\nTachbrook Park Drive - CV34 Warwick"},{"id":"19992","sname":"Sainsbury's Warwick","postcode":"0","longitude":"-1.5780335","latitude":"52.2845214","tel":"0","address":"22 Coten End - CV34 Warwick"},{"id":"19993","sname":"Sainsbury's Warwick","postcode":"0","longitude":"-1.5942174","latitude":"52.2853575","tel":"0","address":"Saltisford - CV34 Warwick"},{"id":"19994","sname":"Sainsbury's Solihull","postcode":"0","longitude":"-1.7786202","latitude":"52.4146176","tel":"0","address":"11 Poplar Way - B91 Solihull"},{"id":"19995","sname":"Sainsbury's Hinckley","postcode":"0","longitude":"-1.3909603","latitude":"52.5452894","tel":"0","address":"Clifton Way - LE10 Hinckley"},{"id":"19996","sname":"Sainsbury's Rugby","postcode":"0","longitude":"-1.2733197","latitude":"52.3522214","tel":"0","address":"385 Dunchurch Road - CV22 Rugby"},{"id":"19997","sname":"Sainsbury's Acocks Green","postcode":"0","longitude":"-1.8218270","latitude":"52.4463857","tel":"0","address":"1149 Warwick Road\n - B27 Acocks Green"},{"id":"19998","sname":"Sainsbury's Birmingham","postcode":"0","longitude":"-1.7983598","latitude":"52.5141428","tel":"0","address":"Castle Vale Retail Park\nChester Road, Castle Vale - B35 Birmingham"},{"id":"19999","sname":"Sainsbury's Dundee","postcode":"0","longitude":"-3.0227595","latitude":"56.5137374","tel":"0","address":"1 Tom Johnston Road - DD3 Dundee"},{"id":"20000","sname":"Sainsbury's St Andrews","postcode":"0","longitude":"-2.7949690","latitude":"56.3395761","tel":"0","address":"71 Market Street - KY16 St Andrews"},{"id":"20001","sname":"Sainsbury's Edinburgh","postcode":"0","longitude":"-3.1939726","latitude":"55.9535368","tel":"0","address":"9-10 St. Andrew Square - EH2 Edinburgh"},{"id":"20002","sname":"Sainsbury's Edinburgh","postcode":"0","longitude":"-3.1919726","latitude":"55.9436293","tel":"0","address":"29-30 Simpson Loan - EH3 Edinburgh"},{"id":"20003","sname":"Sainsbury's Edinburgh","postcode":"0","longitude":"-3.2026661","latitude":"55.9562948","tel":"0","address":"28 Howe Street  - EH3 Edinburgh"},{"id":"20004","sname":"Sainsbury's Edinburgh","postcode":"0","longitude":"-3.2015620","latitude":"55.9458477","tel":"0","address":"102 West Port - EH3 Edinburgh"},{"id":"20005","sname":"Sainsbury's Edinburgh","postcode":"0","longitude":"-3.2096343","latitude":"55.9495214","tel":"0","address":"32-36 Shandwick Place - EH2 Edinburgh"},{"id":"20006","sname":"Sainsbury's Edinburgh","postcode":"0","longitude":"-3.2097674","latitude":"55.9586422","tel":"0","address":"35 Deanhaugh Street - EH4 Edinburgh"},{"id":"20007","sname":"Sainsbury's Edinburgh","postcode":"0","longitude":"-3.1805757","latitude":"55.9407281","tel":"0","address":"33-39 South Clerk Street - EH8 Edinburgh"},{"id":"20008","sname":"Sainsbury's Edinburgh","postcode":"0","longitude":"-3.2154822","latitude":"55.9461942","tel":"0","address":"3 Morrison Street - EH3 Edinburgh"},{"id":"20009","sname":"Sainsbury's Edinburgh","postcode":"0","longitude":"-3.1633223","latitude":"55.9582000","tel":"0","address":"Unit 9-10 Moray Park - EH7 Edinburgh"},{"id":"20010","sname":"Sainsbury's Edinburgh","postcode":"0","longitude":"-3.2091111","latitude":"55.9359580","tel":"0","address":"155-159 Bruntsfield Place - EH10 Edinburgh"},{"id":"20011","sname":"Sainsbury's Edinburgh","postcode":"0","longitude":"-3.1688195","latitude":"55.9759786","tel":"0","address":"45 Bernard Street - EH6 Edinburgh"},{"id":"20012","sname":"Sainsbury's Edinburgh","postcode":"0","longitude":"-3.1637521","latitude":"55.9272813","tel":"0","address":"Cameron Toll Shopping Centre\n6 Lady Road - EH16 Edinburgh"},{"id":"20013","sname":"Sainsbury's Edinburgh","postcode":"0","longitude":"-3.2093978","latitude":"55.9266909","tel":"0","address":"358 Morningside Road - EH10 Edinburgh"},{"id":"20014","sname":"Sainsbury's Edinburgh","postcode":"0","longitude":"-3.2417533","latitude":"55.9564003","tel":"0","address":"185 Craighleith Road - EH4 Edinburgh"},{"id":"20015","sname":"Sainsbury's Edinburgh","postcode":"0","longitude":"-3.2398866","latitude":"55.9400223","tel":"0","address":"39 Westfield Road - EH11 Edinburgh"},{"id":"20016","sname":"Sainsbury's Edinburgh","postcode":"0","longitude":"-3.2818132","latitude":"55.9427061","tel":"0","address":"141 St. Johns Road - EH12 Edinburgh"},{"id":"20017","sname":"Sainsbury's Edinburgh","postcode":"0","longitude":"-3.3059778","latitude":"55.9615498","tel":"0","address":"197 Whitehouse Road - EH4 Edinburgh"},{"id":"20018","sname":"Sainsbury's Straiton","postcode":"0","longitude":"-3.1679310","latitude":"55.8820850","tel":"0","address":"Straiton Mains - EH20 Straiton"},{"id":"20019","sname":"Sainsbury's Kirkcaldy","postcode":"0","longitude":"-3.1984205","latitude":"56.1344837","tel":"0","address":"Fife Central Retail Park\nChapel Park - KY2 Kirkcaldy"},{"id":"20020","sname":"Sainsbury's Livingston","postcode":"0","longitude":"-3.5134830","latitude":"55.8831628","tel":"0","address":"Unit 1, Almondvale Retail Park\nAlmondvale South - EH54 Livingston"},{"id":"20021","sname":"Sainsbury's Exeter","postcode":"0","longitude":"-3.5330558","latitude":"50.7240662","tel":"0","address":"Guildhall Shopping Centre - EX4 Exeter"},{"id":"20022","sname":"Sainsbury's Exeter","postcode":"0","longitude":"-3.5263853","latitude":"50.7259394","tel":"0","address":"12 Sidwell Street - EX4 Exeter"},{"id":"20023","sname":"Sainsbury's Exeter","postcode":"0","longitude":"-3.5380661","latitude":"50.7099075","tel":"0","address":"Alphington Road - EX2 Exeter"},{"id":"20024","sname":"Sainsbury's Exeter","postcode":"0","longitude":"-3.4809493","latitude":"50.7338993","tel":"0","address":"1 Hill Barton Road - EX1 Exeter"},{"id":"20025","sname":"Sainsbury's Dawlish","postcode":"0","longitude":"-3.4618858","latitude":"50.5969299","tel":"0","address":"Exeter Road - EX7 Dawlish"},{"id":"20026","sname":"Sainsbury's Ottery St Mary","postcode":"0","longitude":"-3.2813440","latitude":"50.7516612","tel":"0","address":"Hind Street - EX11 Ottery St Mary"},{"id":"20027","sname":"Sainsbury's Newton Abbot","postcode":"0","longitude":"-3.5907370","latitude":"50.5240090","tel":"0","address":"Penn Inn - TQ12 Newton Abbot"},{"id":"20028","sname":"Sainsbury's Glasgow","postcode":"0","longitude":"-4.2456050","latitude":"55.8585849","tel":"0","address":"Buchanan Galleries\n236-240 Buchanan Street - G1 Glasgow"},{"id":"20029","sname":"Sainsbury's Glasgow","postcode":"0","longitude":"-4.2531656","latitude":"55.8654026","tel":"0","address":"Port Dundas Place - G2 Glasgow"},{"id":"20030","sname":"Sainsbury's Glasgow","postcode":"0","longitude":"-4.2518836","latitude":"55.8618170","tel":"0","address":"14 West George Street - G2 Glasgow"},{"id":"20031","sname":"Sainsbury's Glasgow","postcode":"0","longitude":"-4.2520818","latitude":"55.8590608","tel":"0","address":"54 Queen Street - G1 Glasgow"},{"id":"20032","sname":"Sainsbury's Glasgow","postcode":"0","longitude":"-4.2613760","latitude":"55.8610161","tel":"0","address":"Mercantile Chambers\n53 Bothwell Street - G2 Glasgow"},{"id":"20033","sname":"Sainsbury's Glasgow","postcode":"0","longitude":"-4.2452628","latitude":"55.8609645","tel":"0","address":"135 George Street - G1 Glasgow"},{"id":"20034","sname":"Sainsbury's Glasgow","postcode":"0","longitude":"-4.2500979","latitude":"55.8576351","tel":"0","address":"1-9 Argyle Street - G2 Glasgow"},{"id":"20035","sname":"Sainsbury's Glasgow","postcode":"0","longitude":"-4.2611240","latitude":"55.8649303","tel":"0","address":"219 Sauchiehall Street - G2 Glasgow"},{"id":"20036","sname":"Sainsbury's Glasgow","postcode":"0","longitude":"-4.2728003","latitude":"55.8686427","tel":"0","address":"88 Woodlands Road - G3 Glasgow"},{"id":"20037","sname":"Sainsbury's Glasgow","postcode":"0","longitude":"-4.2735637","latitude":"55.8727306","tel":"0","address":"286-288 Great Western Road - G4 Glasgow"},{"id":"20038","sname":"Sainsbury's Glasgow","postcode":"0","longitude":"-4.2865746","latitude":"55.8649820","tel":"0","address":"6 Kelvinhaugh Street - G3 Glasgow"},{"id":"20039","sname":"Sainsbury's Glasgow","postcode":"0","longitude":"-4.2787429","latitude":"55.8360797","tel":"0","address":"Darnley Road, Pollokshields - G41 Glasgow"},{"id":"20040","sname":"Sainsbury's Glasgow","postcode":"0","longitude":"-4.2654195","latitude":"55.8352528","tel":"0","address":"478 Victoria Road - G42 Glasgow"},{"id":"20041","sname":"Sainsbury's Glasgow","postcode":"0","longitude":"-4.3120973","latitude":"55.8722783","tel":"0","address":"80 Crow Road - G11 Glasgow"},{"id":"20042","sname":"Sainsbury's Glasgow","postcode":"0","longitude":"-4.2819682","latitude":"55.8297399","tel":"0","address":"102 Kilmarnock Road - G41 Glasgow"},{"id":"20043","sname":"Sainsbury's Glasgow","postcode":"0","longitude":"-4.2714373","latitude":"55.8102490","tel":"0","address":"384-390 Clarkston Road - G44 Glasgow"},{"id":"20044","sname":"Sainsbury's Glasgow","postcode":"0","longitude":"-4.3573898","latitude":"55.8725102","tel":"0","address":"110 Kings Inch Drive - G51 Glasgow"},{"id":"20045","sname":"Sainsbury's Giffnock","postcode":"0","longitude":"-4.2956349","latitude":"55.8013421","tel":"0","address":"188 Fenwick Road - G46 Giffnock"},{"id":"20046","sname":"Sainsbury's Glasgow","postcode":"0","longitude":"-4.3427314","latitude":"55.8048042","tel":"0","address":"10 Darnley Mains Road - G53 Glasgow"},{"id":"20047","sname":"Sainsbury's Glasgow","postcode":"0","longitude":"-4.3730511","latitude":"55.9049109","tel":"0","address":"10 Allerdyce Road - G15 Glasgow"},{"id":"20048","sname":"Sainsbury's Kirkintilloch","postcode":"0","longitude":"-4.1546171","latitude":"55.9370047","tel":"0","address":"6 Shamrock Street\n - G66 Kirkintilloch"},{"id":"20049","sname":"Sainsbury's Glasgow","postcode":"0","longitude":"-4.2518060","latitude":"55.8642370","tel":"0","address":"3 Kingsgate Retail Park\nGlasgow Road, East Kilbride - G74 Glasgow"},{"id":"20050","sname":"Sainsbury's Glasgow","postcode":"0","longitude":"-4.1746099","latitude":"55.7598912","tel":"0","address":"Olympia Arcade\nEast Kilbride - G74 Glasgow"},{"id":"20051","sname":"Sainsbury's Hamilton","postcode":"0","longitude":"-4.0549300","latitude":"55.7803320","tel":"0","address":"5 Douglas Park Lane - ML3 Hamilton"},{"id":"20052","sname":"Sainsbury's Strathaven","postcode":"0","longitude":"-4.0677598","latitude":"55.6747270","tel":"0","address":"Kirk Street - ML10 Strathaven"},{"id":"20053","sname":"Sainsbury's Hull","postcode":"0","longitude":"-0.3543474","latitude":"53.7500447","tel":"0","address":"129 Spring Bank - HU3 Hull"},{"id":"20054","sname":"Sainsbury's Hull","postcode":"0","longitude":"-0.3599194","latitude":"53.7544340","tel":"0","address":"81-85 Princes Avenue - HU5 Hull"},{"id":"20055","sname":"Sainsbury's Hull","postcode":"0","longitude":"-0.3659752","latitude":"53.7349275","tel":"0","address":"306 Hessle Road - HU3 Hull"},{"id":"20056","sname":"Sainsbury's Hull","postcode":"0","longitude":"-0.3736173","latitude":"53.7437495","tel":"0","address":"455 Anlaby Road - HU3 Hull"},{"id":"20057","sname":"Sainsbury's Hull","postcode":"0","longitude":"-0.3587062","latitude":"53.7643788","tel":"0","address":"120-122 Newland Avenue - HU5 Hull"},{"id":"20058","sname":"Sainsbury's Hull","postcode":"0","longitude":"-0.3735800","latitude":"53.7543436","tel":"0","address":"72-74 Chanterlands Avenue - HU5 Hull"},{"id":"20059","sname":"Sainsbury's Hull","postcode":"0","longitude":"-0.3034748","latitude":"53.7752076","tel":"0","address":"372 Ings Road - HU8 Hull"},{"id":"20060","sname":"Sainsbury's Hull","postcode":"0","longitude":"-0.3876416","latitude":"53.7670586","tel":"0","address":"282 Bricknell Avenue - HU5 Hull"},{"id":"20061","sname":"Sainsbury's Hull","postcode":"0","longitude":"-0.3438311","latitude":"53.7845377","tel":"0","address":"Grandale - HU7 Hull"},{"id":"20062","sname":"Sainsbury's Hull","postcode":"0","longitude":"-0.4061522","latitude":"53.7446177","tel":"0","address":"1022-1024 Anlaby Road - HU4 Hull"},{"id":"20063","sname":"Sainsbury's Hull","postcode":"0","longitude":"-0.3848332","latitude":"53.7757941","tel":"0","address":"557-561 Inglemire Lane - HU6 Hull"},{"id":"20064","sname":"Sainsbury's Hull","postcode":"0","longitude":"-0.4089214","latitude":"53.7569284","tel":"0","address":"252 Woldroad - HU5 Hull"},{"id":"20065","sname":"Sainsbury's Hull","postcode":"0","longitude":"-0.4172820","latitude":"53.7300561","tel":"0","address":"89 Bethune Avenue - HU4 Hull"},{"id":"20066","sname":"Sainsbury's Hessle","postcode":"0","longitude":"-0.4200128","latitude":"53.7237250","tel":"0","address":"Sainsbury Way - HU13 Hessle"},{"id":"20067","sname":"Sainsbury's Anlaby","postcode":"0","longitude":"-0.4296410","latitude":"53.7447384","tel":"0","address":"42 Hull Road - HU10 Anlaby"},{"id":"20068","sname":"Sainsbury's Cottingham","postcode":"0","longitude":"-0.4136416","latitude":"53.7808890","tel":"0","address":"34-36 King Street - HU16 Cottingham"},{"id":"20069","sname":"Sainsbury's Willerby","postcode":"0","longitude":"-0.4463375","latitude":"53.7569480","tel":"0","address":"13 The Square - HU10 Willerby"},{"id":"20070","sname":"Sainsbury's Beverley","postcode":"0","longitude":"-0.4128002","latitude":"53.8436873","tel":"0","address":"228 Grovehill Road - HU17 Beverley"},{"id":"20071","sname":"Sainsbury's Brough","postcode":"0","longitude":"-0.5735385","latitude":"53.7275975","tel":"0","address":"51-53 Skillings Lane - HU15 Brough"},{"id":"20072","sname":"Sainsbury's Immingham","postcode":"0","longitude":"-0.2223047","latitude":"53.6125707","tel":"0","address":"391 Pelham Road - DN40 Immingham"},{"id":"20073","sname":"Sainsbury's Leeds","postcode":"0","longitude":"-1.5447752","latitude":"53.8013741","tel":"0","address":"30-32 Woodhouse Lane - LS2 Leeds"},{"id":"20074","sname":"Sainsbury's Leeds","postcode":"0","longitude":"-1.5449421","latitude":"53.7986682","tel":"0","address":"22-26 The Headrow - LS1 Leeds"},{"id":"20075","sname":"Sainsbury's Leeds","postcode":"0","longitude":"-1.5449875","latitude":"53.7959087","tel":"0","address":"63 Boar Lane - LS1 Leeds"},{"id":"20076","sname":"Sainsbury's Leeds","postcode":"0","longitude":"-1.5475857","latitude":"53.7941673","tel":"0","address":"City Station - LS1 Leeds"},{"id":"20077","sname":"Sainsbury's Leeds","postcode":"0","longitude":"-1.5377362","latitude":"53.7939230","tel":"0","address":"6 Brewery Place - LS10 Leeds"},{"id":"20078","sname":"Sainsbury's Leeds","postcode":"0","longitude":"-1.5690822","latitude":"53.8124496","tel":"0","address":"72 Brudenell Road - LS6 Leeds"},{"id":"20079","sname":"Sainsbury's Leeds","postcode":"0","longitude":"-1.5104643","latitude":"53.8101268","tel":"0","address":"318-320 Harehills Lane - LS9 Leeds"},{"id":"20080","sname":"Sainsbury's Headingley","postcode":"0","longitude":"-1.5788429","latitude":"53.8225917","tel":"0","address":"12-16 Arndale Centre, Otley Rd - LS6 Headingley"},{"id":"20081","sname":"Sainsbury's Headingley","postcode":"0","longitude":"-1.5805278","latitude":"53.8205148","tel":"0","address":"40 North Lane - LS6 Headingley"},{"id":"20082","sname":"Sainsbury's Leeds","postcode":"0","longitude":"-1.5548542","latitude":"53.8313010","tel":"0","address":"105 Stainbeck Road - LS7 Leeds"},{"id":"20083","sname":"Sainsbury's Leeds","postcode":"0","longitude":"-1.5364143","latitude":"53.8386195","tel":"0","address":"296 Harrogate Road - LS17 Leeds"},{"id":"20084","sname":"Sainsbury's Farnley","postcode":"0","longitude":"-1.6183077","latitude":"53.7924967","tel":"0","address":"37-39 Ring Road - LS12 Farnley"},{"id":"20085","sname":"Sainsbury's Leeds","postcode":"0","longitude":"-1.5504260","latitude":"53.8451760","tel":"0","address":"9-11 Moor Allerton Centre - LS17 Leeds"},{"id":"20086","sname":"Sainsbury's Leeds","postcode":"0","longitude":"-1.5191550","latitude":"53.8443986","tel":"0","address":"135-137 Street Lane - LS8 Leeds"},{"id":"20087","sname":"Sainsbury's Leeds","postcode":"0","longitude":"-1.5742228","latitude":"53.7586361","tel":"0","address":"White Rose Shopping Centre - LS11 Leeds"},{"id":"20088","sname":"Sainsbury's Leeds","postcode":"0","longitude":"-1.5481096","latitude":"53.7468021","tel":"0","address":"7 Middleton Park Avenue - LS10 Leeds"},{"id":"20089","sname":"Sainsbury's Pudsey","postcode":"0","longitude":"-1.6643082","latitude":"53.7959152","tel":"0","address":"29 Church Lane - LS28 Pudsey"},{"id":"20090","sname":"Sainsbury's Colton","postcode":"0","longitude":"-1.4339561","latitude":"53.7932626","tel":"0","address":"1 Stile Hill Way\nColton Retail Park - LS15 Colton"},{"id":"20091","sname":"Sainsbury's Pudsey","postcode":"0","longitude":"-1.6699533","latitude":"53.7925529","tel":"0","address":"15-17 Chapeltown - LS28 Pudsey"},{"id":"20092","sname":"Sainsbury's Garforth","postcode":"0","longitude":"-1.3885724","latitude":"53.7928871","tel":"0","address":"49 Main Street - LS25 Garforth"},{"id":"20093","sname":"Sainsbury's Bradford","postcode":"0","longitude":"-1.7131431","latitude":"53.8294683","tel":"0","address":"760 Harrogate Road - BD10 Bradford"},{"id":"20094","sname":"Sainsbury's Kippax","postcode":"0","longitude":"-1.3748922","latitude":"53.7746429","tel":"0","address":"157 Moorgate Road - LS25 Kippax"},{"id":"20095","sname":"Sainsbury's Yeadon","postcode":"0","longitude":"-1.6903563","latitude":"53.8700411","tel":"0","address":"125 Queensway - LS19 Yeadon"},{"id":"20096","sname":"Sainsbury's Staincliffe","postcode":"0","longitude":"-1.6332021","latitude":"53.6943831","tel":"0","address":"17 Halifax Road - WF13 Staincliffe"},{"id":"20097","sname":"Sainsbury's Wakefield","postcode":"0","longitude":"-1.5187656","latitude":"53.6840433","tel":"0","address":"169 Alverthorperoad - WF2 Wakefield"},{"id":"20098","sname":"Sainsbury's Dewsbury","postcode":"0","longitude":"-1.6254925","latitude":"53.6892988","tel":"0","address":"Railway Street - WF12 Dewsbury"},{"id":"20099","sname":"Sainsbury's Wakefield","postcode":"0","longitude":"-1.4946985","latitude":"53.6846167","tel":"0","address":"Lower Trinity Walk - WF1 Wakefield"},{"id":"20100","sname":"Sainsbury's Wakefield","postcode":"0","longitude":"-1.5355252","latitude":"53.6779383","tel":"0","address":"317-319 Dewsbury Road - WF2 Wakefield"},{"id":"20101","sname":"Sainsbury's Wakefield","postcode":"0","longitude":"-1.4974535","latitude":"53.6784519","tel":"0","address":"50 Ings Road - WF1 Wakefield"},{"id":"20102","sname":"Sainsbury's Ossett","postcode":"0","longitude":"-1.5615868","latitude":"53.6755796","tel":"0","address":"69 South Parade - WF5 Ossett"},{"id":"20103","sname":"Sainsbury's Bradford","postcode":"0","longitude":"-1.7630298","latitude":"53.7909461","tel":"0","address":"53 Great Horton Road - BD7 Bradford"},{"id":"20104","sname":"Sainsbury's Bradford","postcode":"0","longitude":"-1.7730941","latitude":"53.8161479","tel":"0","address":"Unit 1, The Parkside Centre\nKeighley Road - BD9 Bradford"},{"id":"20105","sname":"Sainsbury's Otley","postcode":"0","longitude":"-1.6933930","latitude":"53.9040848","tel":"0","address":"11 Bondgate - LS21 Otley"},{"id":"20106","sname":"Sainsbury's Normanton","postcode":"0","longitude":"-1.4159089","latitude":"53.6892148","tel":"0","address":"66 Queen Elizabeth Drive - WF6 Normanton"},{"id":"20107","sname":"Sainsbury's Castleford","postcode":"0","longitude":"-1.3545837","latitude":"53.7207907","tel":"0","address":"30 Smawthorne Lane - WF10 Castleford"},{"id":"20108","sname":"Sainsbury's Wetherby","postcode":"0","longitude":"-1.3894244","latitude":"53.9302698","tel":"0","address":"13 Crossley Street - LS22 Wetherby"},{"id":"20109","sname":"Sainsbury's Crofton","postcode":"0","longitude":"-1.4273171","latitude":"53.6549835","tel":"0","address":"69 High Street - WF4 Crofton"},{"id":"20110","sname":"Sainsbury's Brighouse","postcode":"0","longitude":"-1.7763360","latitude":"53.7010304","tel":"0","address":"Mill Lane - HD6 Brighouse"},{"id":"20111","sname":"Sainsbury's Harrogate","postcode":"0","longitude":"-1.5351562","latitude":"53.9804661","tel":"0","address":"55 Leeds Road - HG2 Harrogate"},{"id":"20112","sname":"Sainsbury's Harrogate","postcode":"0","longitude":"-1.5103627","latitude":"53.9898096","tel":"0","address":"Wetherby Road - HG2 Harrogate"},{"id":"20113","sname":"Sainsbury's Harrogate","postcode":"0","longitude":"-1.5481874","latitude":"53.9894856","tel":"0","address":"67-71 Cold Bath Road - HG2 Harrogate"},{"id":"20114","sname":"Sainsbury's Tadcaster","postcode":"0","longitude":"-1.2602146","latitude":"53.8867743","tel":"0","address":"Mill Lane - LS24 Tadcaster"},{"id":"20115","sname":"Sainsbury's Halifax","postcode":"0","longitude":"-1.8566153","latitude":"53.7250085","tel":"0","address":"Wade Street - HX1 Halifax"},{"id":"20116","sname":"Sainsbury's Harrogate","postcode":"0","longitude":"-1.5369574","latitude":"54.0033669","tel":"0","address":"Unit 2\n143-145 Kings Road - HG1 Harrogate"},{"id":"20117","sname":"Sainsbury's Huddersfield","postcode":"0","longitude":"-1.7747910","latitude":"53.6456609","tel":"0","address":"Southgate - HD1 Huddersfield"},{"id":"20118","sname":"Sainsbury's Knottingley","postcode":"0","longitude":"-1.2380217","latitude":"53.7077551","tel":"0","address":"10 Raccagreen - WF11 Knottingley"},{"id":"20119","sname":"Sainsbury's Royston","postcode":"0","longitude":"-1.4470867","latitude":"53.6009071","tel":"0","address":"125-127 Midland Road - S71 Royston"},{"id":"20120","sname":"Sainsbury's Huddersfield","postcode":"0","longitude":"-1.7993284","latitude":"53.6420809","tel":"0","address":"22-24 Market Street - HD1 Huddersfield"},{"id":"20121","sname":"Sainsbury's Knaresborough","postcode":"0","longitude":"-1.4680613","latitude":"54.0089951","tel":"0","address":"Winterton House\nHigh Street - HG5 Knaresborough"},{"id":"20122","sname":"Sainsbury's Huddersfield","postcode":"0","longitude":"-1.8189652","latitude":"53.6556861","tel":"0","address":"Acre Street - HD3 Huddersfield"},{"id":"20123","sname":"Sainsbury's Lincoln","postcode":"0","longitude":"-0.5539968","latitude":"53.2323816","tel":"0","address":"Carholme Road - LN1 Lincoln"},{"id":"20124","sname":"Sainsbury's Lincoln","postcode":"0","longitude":"-0.5701390","latitude":"53.2117737","tel":"0","address":"Tritton Road - LN6 Lincoln"},{"id":"20125","sname":"Sainsbury's Llandudno","postcode":"0","longitude":"-3.8314105","latitude":"53.3252184","tel":"0","address":"113 Mostyn Street - LL30 Llandudno"},{"id":"20126","sname":"Sainsbury's London","postcode":"0","longitude":"-0.1244646","latitude":"51.5089498","tel":"0","address":"36-37 Strand - WC2N London"},{"id":"20127","sname":"Sainsbury's London","postcode":"0","longitude":"-0.1205610","latitude":"51.5172381","tel":"0","address":"129-133 Kingsway - WC2B London"},{"id":"20128","sname":"Sainsbury's London","postcode":"0","longitude":"-0.1106538","latitude":"51.5030913","tel":"0","address":"101 Waterloo Road - SE1 London"},{"id":"20129","sname":"Sainsbury's London","postcode":"0","longitude":"-0.1160997","latitude":"51.5184705","tel":"0","address":"71 High Holborn - WC1V London"},{"id":"20130","sname":"Sainsbury's London","postcode":"0","longitude":"-0.1101070","latitude":"51.5139511","tel":"0","address":"77 Fleet Street - EC4Y London"},{"id":"20131","sname":"Sainsbury's London","postcode":"0","longitude":"-0.1089739","latitude":"51.5174240","tel":"0","address":"60 Fetter Lane - EC4A London"},{"id":"20132","sname":"Sainsbury's London","postcode":"0","longitude":"-0.1309880","latitude":"51.5170850","tel":"0","address":"15-17 Tottenham Court Road - W1T London"},{"id":"20133","sname":"Sainsbury's London","postcode":"0","longitude":"-0.1056777","latitude":"51.5193355","tel":"0","address":"17-23 Farringdon Road - EC1M London"},{"id":"20134","sname":"Sainsbury's London","postcode":"0","longitude":"-0.1178928","latitude":"51.4988015","tel":"0","address":"London St. Thomas Hospital - SE1 London"},{"id":"20135","sname":"Sainsbury's London","postcode":"0","longitude":"0.0762053","latitude":"51.4781982","tel":"0","address":"55A The Cut - SE18 London"},{"id":"20136","sname":"Sainsbury's London","postcode":"0","longitude":"-0.1114973","latitude":"51.5219176","tel":"0","address":"Jameson House\n146-148 Clerkenwell Road - EC1R London"},{"id":"20137","sname":"Sainsbury's London","postcode":"0","longitude":"-0.1385700","latitude":"51.5181881","tel":"0","address":"29-35 Mortimer Street - W1T London"},{"id":"20138","sname":"Sainsbury's London","postcode":"0","longitude":"-0.0988384","latitude":"51.5149704","tel":"0","address":"10 Paternoster Square - EC4M London"},{"id":"20139","sname":"Sainsbury's London","postcode":"0","longitude":"-0.1433712","latitude":"51.5081316","tel":"0","address":"38 Stratton Street - W1J London"},{"id":"20140","sname":"Sainsbury's London","postcode":"0","longitude":"-0.1372021","latitude":"51.5241041","tel":"0","address":"145 Tottenham Court Road - W1T London"},{"id":"20141","sname":"Sainsbury's London","postcode":"0","longitude":"-0.1433918","latitude":"51.5219605","tel":"0","address":"202 Great Portland Street - W1W London"},{"id":"20142","sname":"Sainsbury's London","postcode":"0","longitude":"-0.1392892","latitude":"51.5252433","tel":"0","address":"Euston Tower\n286 Euston Road - NW1 London"},{"id":"20143","sname":"Sainsbury's London","postcode":"0","longitude":"-0.1338980","latitude":"51.5281365","tel":"0","address":"Euston Station - NW1 London"},{"id":"20144","sname":"Sainsbury's London","postcode":"0","longitude":"-0.0874606","latitude":"51.5127299","tel":"0","address":"10-15 Lombard Street - EC3V London"},{"id":"20145","sname":"Sainsbury's London","postcode":"0","longitude":"-0.1083092","latitude":"51.4803102","tel":"0","address":"116-126 Borough High Street - SE11 London"},{"id":"20146","sname":"Sainsbury's London","postcode":"0","longitude":"-0.1457644","latitude":"51.4945475","tel":"0","address":"115 Buckingham Palace Road - SW1W London"},{"id":"20147","sname":"Sainsbury's London","postcode":"0","longitude":"-0.1405962","latitude":"51.4927275","tel":"0","address":"99 Wilton Road - SW1V London"},{"id":"20148","sname":"Sainsbury's London","postcode":"0","longitude":"-0.0848223","latitude":"51.4178045","tel":"0","address":"Great Maze Pond - SE19 London"},{"id":"20149","sname":"Sainsbury's London","postcode":"0","longitude":"-0.0844411","latitude":"51.5134360","tel":"0","address":"61 Cornhill - EC3V London"},{"id":"20150","sname":"Sainsbury's London","postcode":"0","longitude":"-0.1601924","latitude":"51.5140747","tel":"0","address":"Marble Arch Tower\n55 Bryanston Street - W1H London"},{"id":"20151","sname":"Sainsbury's London","postcode":"0","longitude":"-0.0873693","latitude":"51.5246170","tel":"0","address":"73 City Road - EC1Y London"},{"id":"20152","sname":"Sainsbury's London","postcode":"0","longitude":"-0.1071487","latitude":"51.5337665","tel":"0","address":"31-41 Liverpool Road - N10 London"},{"id":"20153","sname":"Sainsbury's London","postcode":"0","longitude":"-0.0792902","latitude":"51.5122261","tel":"0","address":"40-45 Fenchurch Street - EC3M London"},{"id":"20154","sname":"Sainsbury's London","postcode":"0","longitude":"-0.1241800","latitude":"51.4857400","tel":"0","address":"7-11 South Lambeth Place\nVauxhall Station - SW8 London"},{"id":"20155","sname":"Sainsbury's London","postcode":"0","longitude":"-0.1387346","latitude":"51.5350071","tel":"0","address":"10-12 Camden High Street - NW1 London"},{"id":"20156","sname":"Sainsbury's London","postcode":"0","longitude":"-0.1647501","latitude":"51.4993594","tel":"0","address":"Moreau House\n112-120 Brompton Road - SW3 London"},{"id":"20157","sname":"Sainsbury's London","postcode":"0","longitude":"-0.0104529","latitude":"51.4597895","tel":"0","address":"13-14 Bermondsey Square - SE13 London"},{"id":"20158","sname":"Sainsbury's London","postcode":"0","longitude":"0.0003681","latitude":"51.5951643","tel":"0","address":"31 Bell Lane - E17 London"},{"id":"20159","sname":"Sainsbury's London","postcode":"0","longitude":"-0.1027453","latitude":"51.5373733","tel":"0","address":"317-318 Upper Street - N12 London"},{"id":"20160","sname":"Sainsbury's London","postcode":"0","longitude":"-0.1282362","latitude":"51.4815436","tel":"0","address":"62 Wandsworth Road - SW8 London"},{"id":"20161","sname":"Sainsbury's London","postcode":"0","longitude":"-0.1511404","latitude":"51.4925745","tel":"0","address":"Unit 1A, Grosvenoir Waterside - SW1W London"},{"id":"20162","sname":"Sainsbury's London","postcode":"0","longitude":"-0.1408004","latitude":"51.5405185","tel":"0","address":"17-21 Camden Road - NW1 London"},{"id":"20163","sname":"Sainsbury's London","postcode":"0","longitude":"-0.1653790","latitude":"51.4919504","tel":"0","address":"75 Sloane Avenue - SW3 London"},{"id":"20164","sname":"Sainsbury's London","postcode":"0","longitude":"-0.1774395","latitude":"51.5175063","tel":"0","address":"Station Concourse\nPaddington Station - W2 London"},{"id":"20165","sname":"Sainsbury's London","postcode":"0","longitude":"-0.1511050","latitude":"51.5435364","tel":"0","address":"76-77 Chalk Farm Road - NW1 London"},{"id":"20166","sname":"Sainsbury's London","postcode":"0","longitude":"-0.1804533","latitude":"51.5192796","tel":"0","address":"12A Sheldon Square - W2 London"},{"id":"20167","sname":"Sainsbury's London","postcode":"0","longitude":"-0.0899266","latitude":"51.5440054","tel":"0","address":"325 Essex Road - N1 London"},{"id":"20168","sname":"Sainsbury's London","postcode":"0","longitude":"-0.0585687","latitude":"51.5204955","tel":"0","address":"1 Cambridge Heath Road - E1 London"},{"id":"20169","sname":"Sainsbury's London","postcode":"0","longitude":"-0.1408574","latitude":"51.5503379","tel":"0","address":"329-333 Kentish Town Road - NW5 London"},{"id":"20170","sname":"Sainsbury's London","postcode":"0","longitude":"-0.1154550","latitude":"51.5551281","tel":"0","address":"311 Holloway Road - N7 London"},{"id":"20171","sname":"Sainsbury's London","postcode":"0","longitude":"-0.1883137","latitude":"51.5155169","tel":"0","address":"75 Queensway - W2 London"},{"id":"20172","sname":"Sainsbury's London","postcode":"0","longitude":"-0.1788480","latitude":"51.4871630","tel":"0","address":"295-297 Fulham Road - SW10 London"},{"id":"20173","sname":"Sainsbury's London","postcode":"0","longitude":"-0.0570033","latitude":"51.5317182","tel":"0","address":"291 Cambridge Heath Road - E2 London"},{"id":"20174","sname":"Sainsbury's London","postcode":"0","longitude":"-0.1879081","latitude":"51.4956010","tel":"0","address":"158A Cromwell Road - SW7 London"},{"id":"20175","sname":"Sainsbury's London","postcode":"0","longitude":"-0.1389130","latitude":"51.5558844","tel":"0","address":"126-132 Fortess Road - NW5 London"},{"id":"20176","sname":"Sainsbury's London","postcode":"0","longitude":"-0.1936731","latitude":"51.5152120","tel":"0","address":"86-94 Westbourne Grove - W2 London"},{"id":"20177","sname":"Sainsbury's London","postcode":"0","longitude":"-0.0741548","latitude":"51.5478694","tel":"0","address":"Dalston Cross Shopping Centre - E8 London"},{"id":"20178","sname":"Sainsbury's London","postcode":"0","longitude":"-0.0567825","latitude":"51.5381618","tel":"0","address":"27-31 Mare Street - E8 London"},{"id":"20179","sname":"Sainsbury's London","postcode":"0","longitude":"-0.1313858","latitude":"51.4640313","tel":"0","address":"33 Clapham High Street - SW4 London"},{"id":"20180","sname":"Sainsbury's London","postcode":"0","longitude":"-0.0424994","latitude":"51.5130406","tel":"0","address":"516-520 Commercial Road - E10 London"},{"id":"20181","sname":"Sainsbury's London","postcode":"0","longitude":"-0.1500312","latitude":"51.4664762","tel":"0","address":"646-650 Wandsworth Road - SW8 London"},{"id":"20182","sname":"Sainsbury's London","postcode":"0","longitude":"-0.1147552","latitude":"51.4627896","tel":"0","address":"425 Brixton Road - SW9 London"},{"id":"20183","sname":"Sainsbury's London","postcode":"0","longitude":"-0.1232797","latitude":"51.5603284","tel":"0","address":"465 Holloway Road - N7 London"},{"id":"20184","sname":"Sainsbury's London","postcode":"0","longitude":"-0.1232797","latitude":"51.5603284","tel":"0","address":"465 Holloway Road - N7 London"},{"id":"20185","sname":"Sainsbury's London","postcode":"0","longitude":"-0.1951453","latitude":"51.4936443","tel":"0","address":"162-164 Earls Court Road - SW5 London"},{"id":"20186","sname":"Sainsbury's London","postcode":"0","longitude":"-0.1409969","latitude":"51.4634692","tel":"0","address":"53 Old Town - SW4 London"},{"id":"20187","sname":"Sainsbury's London","postcode":"0","longitude":"-0.1361206","latitude":"51.4623835","tel":"0","address":"133 Clapham High Street - SW4 London"},{"id":"20188","sname":"Sainsbury's London","postcode":"0","longitude":"-0.1361206","latitude":"51.4623835","tel":"0","address":"133 Clapham High Street - SW4 London"},{"id":"20189","sname":"Sainsbury's London","postcode":"0","longitude":"-0.1700668","latitude":"51.4708465","tel":"0","address":"326 Battersea Park Road - SW11 London"},{"id":"20190","sname":"Sainsbury's London","postcode":"0","longitude":"-0.0390613","latitude":"51.5230890","tel":"0","address":"420-430 Mile End Road - E14 London"},{"id":"20191","sname":"Sainsbury's London","postcode":"0","longitude":"-0.1997873","latitude":"51.5237915","tel":"0","address":"478 Harrow Road - W9 London"},{"id":"20192","sname":"Sainsbury's London","postcode":"0","longitude":"-0.0553655","latitude":"51.5443928","tel":"0","address":"279 Mare Street - E8 London"},{"id":"20193","sname":"Sainsbury's London","postcode":"0","longitude":"-0.1810834","latitude":"51.5481145","tel":"0","address":"02 Centre\n255 Finchley Road - NW3 London"},{"id":"20194","sname":"Sainsbury's London","postcode":"0","longitude":"-0.1030623","latitude":"51.5640772","tel":"0","address":"29-31 Blackstock Road - N4 London"},{"id":"20195","sname":"Sainsbury's London","postcode":"0","longitude":"-0.1317528","latitude":"51.5642498","tel":"0","address":"643-645 Holloway Road - N19 London"},{"id":"20196","sname":"Sainsbury's London","postcode":"0","longitude":"-0.1940956","latitude":"51.5387566","tel":"0","address":"88-92 Kilburn High Road - NW6 London"},{"id":"20197","sname":"Sainsbury's London","postcode":"0","longitude":"-0.0851768","latitude":"51.4618739","tel":"0","address":"80 Dog Kennel Hill - SE22 London"},{"id":"20198","sname":"Sainsbury's London","postcode":"0","longitude":"-0.2049339","latitude":"51.4971554","tel":"0","address":"346 Kensington High Street - W14 London"},{"id":"20199","sname":"Sainsbury's Fulham Broadway","postcode":"0","longitude":"-0.1963302","latitude":"51.4801478","tel":"0","address":"Fulham Broadway Retail Centre\n - SW6 Fulham Broadway"},{"id":"20200","sname":"Sainsbury's London","postcode":"0","longitude":"-0.0527806","latitude":"51.5508888","tel":"0","address":"13 Lower Clapton Road - E5 London"},{"id":"20201","sname":"Sainsbury's London","postcode":"0","longitude":"-0.2102401","latitude":"51.5177483","tel":"0","address":"165 Ladbroke Grove - W10 London"},{"id":"20202","sname":"Sainsbury's London","postcode":"0","longitude":"-0.1111484","latitude":"51.5688613","tel":"0","address":"Unit A, Vista House\n17 Stroud Green Road - N4 London"},{"id":"20203","sname":"Sainsbury's London","postcode":"0","longitude":"-0.1194194","latitude":"51.4555009","tel":"0","address":"76 Brixton Hill - SW2 London"},{"id":"20204","sname":"Sainsbury's London","postcode":"0","longitude":"-0.0739189","latitude":"51.5598314","tel":"0","address":"100-104 Stoke Newington Hgh St - N16 London"},{"id":"20205","sname":"Sainsbury's London","postcode":"0","longitude":"-0.1692076","latitude":"51.4633140","tel":"0","address":"The Junction Shopping Centre\n20 St. John's Hill - SW11 London"},{"id":"20206","sname":"Sainsbury's London","postcode":"0","longitude":"-0.1012047","latitude":"51.4533473","tel":"0","address":"132A Herne Hill - SE24 London"},{"id":"20207","sname":"Sainsbury's London","postcode":"0","longitude":"-0.1996076","latitude":"51.4817481","tel":"0","address":"340-342 North End Road - SW6 London"},{"id":"20208","sname":"Sainsbury's London","postcode":"0","longitude":"-0.1398283","latitude":"51.4542939","tel":"0","address":"36-38 Abbeville Road - SW4 London"},{"id":"20209","sname":"Sainsbury's London","postcode":"0","longitude":"-0.2071292","latitude":"51.4925872","tel":"0","address":"3 North End Cresent - W14 London"},{"id":"20210","sname":"Sainsbury's London","postcode":"0","longitude":"-0.1851095","latitude":"51.4677619","tel":"0","address":"51 Townsmead Road - SW6 London"},{"id":"20211","sname":"Sainsbury's London","postcode":"0","longitude":"-0.1913974","latitude":"51.5503560","tel":"0","address":"204 West End Lane - NW6 London"},{"id":"20212","sname":"Sainsbury's London","postcode":"0","longitude":"-0.2070274","latitude":"51.5381233","tel":"0","address":"105-109 Salusbury Road - NW6 London"},{"id":"20213","sname":"Sainsbury's London","postcode":"0","longitude":"-0.1148650","latitude":"51.5705118","tel":"0","address":"175-179 Stroud Green Road - N4 London"},{"id":"20214","sname":"Sainsbury's London","postcode":"0","longitude":"-0.0423978","latitude":"51.4755287","tel":"0","address":"263D New Cross Road - SE14 London"},{"id":"20215","sname":"Sainsbury's London","postcode":"0","longitude":"-0.1471873","latitude":"51.4524479","tel":"0","address":"21 Balham Hill - SW12 London"},{"id":"20216","sname":"Sainsbury's London","postcode":"0","longitude":"-0.1770332","latitude":"51.4601548","tel":"0","address":"165-167 St Johns Hill - SW11 London"},{"id":"20217","sname":"Sainsbury's London","postcode":"0","longitude":"-0.2142520","latitude":"51.5251610","tel":"0","address":"Ladbroke Grove - W10 London"},{"id":"20218","sname":"Sainsbury's London","postcode":"0","longitude":"-0.2026885","latitude":"51.5457844","tel":"0","address":"377 Kilburn High Road - NW6 London"},{"id":"20219","sname":"Sainsbury's London","postcode":"0","longitude":"-0.1307561","latitude":"51.4494715","tel":"0","address":"2 Mullins Place - SW4 London"},{"id":"20220","sname":"Sainsbury's London","postcode":"0","longitude":"-0.0348456","latitude":"51.4750020","tel":"0","address":"33-35 Lewisham Way - SE14 London"},{"id":"20221","sname":"Sainsbury's London","postcode":"0","longitude":"-0.2240863","latitude":"51.5051439","tel":"0","address":"164 Uxbridge Road - W12 London"},{"id":"20222","sname":"Sainsbury's London","postcode":"0","longitude":"-0.1888072","latitude":"51.4598247","tel":"0","address":"527-529 Old York Road - SW18 London"},{"id":"20223","sname":"Sainsbury's London","postcode":"0","longitude":"-0.2198425","latitude":"51.4846700","tel":"0","address":"179-183 Fulham Palace Road - W6 London"},{"id":"20224","sname":"Sainsbury's London","postcode":"0","longitude":"-0.2081220","latitude":"51.4731426","tel":"0","address":"915-921 Fulham Road - SW6 London"},{"id":"20225","sname":"Sainsbury's London","postcode":"0","longitude":"-0.0734137","latitude":"51.5732611","tel":"0","address":"1 Amhurst Park - N16 London"},{"id":"20226","sname":"Sainsbury's London","postcode":"0","longitude":"-0.0977368","latitude":"51.5768075","tel":"0","address":"Williamson Road - N4 London"},{"id":"20227","sname":"Sainsbury's London","postcode":"0","longitude":"-0.0752375","latitude":"51.4499268","tel":"0","address":"357-361 Lordship Lane - SE22 London"},{"id":"20228","sname":"Sainsbury's London","postcode":"0","longitude":"-0.0223430","latitude":"51.4808213","tel":"0","address":"12-14 Creek Road - SE8 London"},{"id":"20229","sname":"Sainsbury's London","postcode":"0","longitude":"-0.2277840","latitude":"51.4927604","tel":"0","address":"2-3 Kings Mall\nKing Street - W6 London"},{"id":"20230","sname":"Sainsbury's London","postcode":"0","longitude":"-0.1245627","latitude":"51.4443438","tel":"0","address":"47A Streatham Hill - SW2 London"},{"id":"20231","sname":"Sainsbury's London","postcode":"0","longitude":"-0.1917145","latitude":"51.4543751","tel":"0","address":"45 Garrett Lane - SW18 London"},{"id":"20232","sname":"Sainsbury's London","postcode":"0","longitude":"-0.2192892","latitude":"51.5513632","tel":"0","address":"92 Walm Lane - NW2 London"},{"id":"20233","sname":"Sainsbury's London","postcode":"0","longitude":"-0.2375004","latitude":"51.5481747","tel":"0","address":"High Road - NW10 London"},{"id":"20234","sname":"Sainsbury's London","postcode":"0","longitude":"-0.1673154","latitude":"51.4442344","tel":"0","address":"27-29 Bellevue Road - SW17 London"},{"id":"20235","sname":"Sainsbury's London","postcode":"0","longitude":"-0.1039417","latitude":"51.4341415","tel":"0","address":"364-366 Norwood Road - SE27 London"},{"id":"20236","sname":"Sainsbury's London","postcode":"0","longitude":"-0.1292580","latitude":"51.4324041","tel":"0","address":"172-176 Streatham High Road - SW16 London"},{"id":"20237","sname":"Sainsbury's London","postcode":"0","longitude":"0.0083950","latitude":"51.5427622","tel":"0","address":"38-40 The Mall\nThe Stratford Centre - E15 London"},{"id":"20238","sname":"Sainsbury's London","postcode":"0","longitude":"-0.1575768","latitude":"51.4356966","tel":"0","address":"43 Tooting Bec Road - SW17 London"},{"id":"20239","sname":"Sainsbury's Muswell Hill","postcode":"0","longitude":"-0.1454240","latitude":"51.5898064","tel":"0","address":"12 Fortis Green Road - N10 Muswell Hill"},{"id":"20240","sname":"Sainsbury's London","postcode":"0","longitude":"-0.2218852","latitude":"51.4617249","tel":"0","address":"225 - 231 Upper Richmond Road - SW15 London"},{"id":"20241","sname":"Sainsbury's London","postcode":"0","longitude":"-0.2350935","latitude":"51.5475821","tel":"0","address":"174-176 High Road Willesden - NW10 London"},{"id":"20242","sname":"Sainsbury's Earlsfield","postcode":"0","longitude":"-0.1871656","latitude":"51.4419121","tel":"0","address":"282 Magdalen Road - SW18 Earlsfield"},{"id":"20243","sname":"Sainsbury's London","postcode":"0","longitude":"-0.0557805","latitude":"51.4398059","tel":"0","address":"34-48 London Road - SE23 London"},{"id":"20244","sname":"Sainsbury's London","postcode":"0","longitude":"-0.0113550","latitude":"51.4594910","tel":"0","address":"Unit 33, Lewisham Centre - SE13 London"},{"id":"20245","sname":"Sainsbury's London","postcode":"0","longitude":"-0.1053099","latitude":"51.5921217","tel":"0","address":"54-58 High Road - N22 London"},{"id":"20246","sname":"Sainsbury's London","postcode":"0","longitude":"-0.2523824","latitude":"51.4929691","tel":"0","address":"120 Chiswick High Road - W4 London"},{"id":"20247","sname":"Sainsbury's London","postcode":"0","longitude":"-0.0082170","latitude":"51.5593131","tel":"0","address":"297 High Road Leyton - E10 London"},{"id":"20248","sname":"Sainsbury's London","postcode":"0","longitude":"-0.1842978","latitude":"51.4859665","tel":"0","address":"Unit 4, Hollywood Green - N22 London"},{"id":"20249","sname":"Sainsbury's London","postcode":"0","longitude":"-0.2069682","latitude":"51.4445355","tel":"0","address":"256 Wimbledon Park Road - SW19 London"},{"id":"20250","sname":"Sainsbury's London","postcode":"0","longitude":"-0.1974606","latitude":"51.4390545","tel":"0","address":"400 Durnsford Road - SW19 London"},{"id":"20251","sname":"Sainsbury's London","postcode":"0","longitude":"-0.0904322","latitude":"51.5979737","tel":"0","address":"421 Lordship Lane - N17 London"},{"id":"20252","sname":"Sainsbury's London","postcode":"0","longitude":"0.0170174","latitude":"51.4906477","tel":"0","address":"55 Bugsby's Way - SE10 London"},{"id":"20253","sname":"Sainsbury's London","postcode":"0","longitude":"0.0063167","latitude":"51.5422530","tel":"0","address":"165-167 Romford Road - E15 London"},{"id":"20254","sname":"Sainsbury's London","postcode":"0","longitude":"-0.2491970","latitude":"51.4737374","tel":"0","address":"11 Barnes High Street - SW13 London"},{"id":"20255","sname":"Sainsbury's London","postcode":"0","longitude":"-0.1667645","latitude":"51.4292652","tel":"0","address":"71-77 Tooting High Street - SW17 London"},{"id":"20256","sname":"Sainsbury's London","postcode":"0","longitude":"-0.2661981","latitude":"51.5085047","tel":"0","address":"61-63 Churchfield Road - W3 London"},{"id":"20257","sname":"Sainsbury's London","postcode":"0","longitude":"-0.1292813","latitude":"51.4197271","tel":"0","address":"480 Streatham High Road - SW16 London"},{"id":"20258","sname":"Sainsbury's London","postcode":"0","longitude":"-0.0269190","latitude":"51.5833267","tel":"0","address":"112 High Street - E17 London"},{"id":"20259","sname":"Sainsbury's London","postcode":"0","longitude":"-0.1604489","latitude":"51.4226520","tel":"0","address":"196 Mitcham Road - SW17 London"},{"id":"20260","sname":"Sainsbury's London","postcode":"0","longitude":"-0.2649973","latitude":"51.4929180","tel":"0","address":"31 Essex Place - W4 London"},{"id":"20261","sname":"Sainsbury's London","postcode":"0","longitude":"-0.0679097","latitude":"51.6001695","tel":"0","address":"669-673 High Road - N17 London"},{"id":"20262","sname":"Sainsbury's London","postcode":"0","longitude":"-0.2555126","latitude":"51.4704308","tel":"0","address":"9-11 White Hart Lane - SW13 London"},{"id":"20263","sname":"Sainsbury's Sydenham","postcode":"0","longitude":"-0.0346693","latitude":"51.4286042","tel":"0","address":"Southend Lane - SE26 Sydenham"},{"id":"20264","sname":"Sainsbury's Upper Norwood","postcode":"0","longitude":"-0.0820731","latitude":"51.4174263","tel":"0","address":"66 Westow Street - SE19 Upper Norwood"},{"id":"20265","sname":"Sainsbury's London","postcode":"0","longitude":"0.0113060","latitude":"51.4563194","tel":"0","address":"14 Burnt Ash Road - SE12 London"},{"id":"20266","sname":"Sainsbury's London","postcode":"0","longitude":"-0.1873379","latitude":"51.4188754","tel":"0","address":"102 Haydons Road - SW19 London"},{"id":"20267","sname":"Sainsbury's London","postcode":"0","longitude":"-0.2815114","latitude":"51.5023728","tel":"0","address":"15-16 The Broadway\nGunnersbury Lane - W3 London"},{"id":"20268","sname":"Sainsbury's London","postcode":"0","longitude":"-0.0683314","latitude":"51.5995255","tel":"0","address":"867-869 High Road - N17 London"},{"id":"20269","sname":"Sainsbury's London","postcode":"0","longitude":"-0.1816236","latitude":"51.4152722","tel":"0","address":"1 Merton High Street - SW19 London"},{"id":"20270","sname":"Sainsbury's Ealing Common","postcode":"0","longitude":"-0.2882400","latitude":"51.5101400","tel":"0","address":"437B Uxbridge Road - W5 Ealing Common"},{"id":"20271","sname":"Sainsbury's London","postcode":"0","longitude":"0.0175685","latitude":"51.4677153","tel":"0","address":"Capital Plaza, Kidbrooke Villg - SE3 London"},{"id":"20272","sname":"Sainsbury's London","postcode":"0","longitude":"-0.2010245","latitude":"51.4193735","tel":"0","address":"120 The Broadway - SW19 London"},{"id":"20273","sname":"Sainsbury's London","postcode":"0","longitude":"-0.1930828","latitude":"51.4156947","tel":"0","address":"7-9 Kingston Road - SW19 London"},{"id":"20274","sname":"Sainsbury's London","postcode":"0","longitude":"-0.1356338","latitude":"51.6164405","tel":"0","address":"376-378 Bowes Road - N11 London"},{"id":"20275","sname":"Sainsbury's London","postcode":"0","longitude":"-0.2448131","latitude":"51.5835786","tel":"0","address":"Unit 4\nHyde Estate Road - NW9 London"},{"id":"20276","sname":"Sainsbury's London","postcode":"0","longitude":"-0.2093199","latitude":"51.4211702","tel":"0","address":"8-12 Worple Road - SW19 London"},{"id":"20277","sname":"Sainsbury's London","postcode":"0","longitude":"-0.2859915","latitude":"51.4890376","tel":"0","address":"Unit 8, Kew Bridge Road - TW8 London"},{"id":"20278","sname":"Sainsbury's London","postcode":"0","longitude":"-0.0511355","latitude":"51.4129131","tel":"0","address":"158-162 High Street - SE20 London"},{"id":"20279","sname":"Sainsbury's London","postcode":"0","longitude":"-0.2653197","latitude":"51.5094688","tel":"0","address":"2-10 Myrtle Road - E6 London"},{"id":"20280","sname":"Sainsbury's London","postcode":"0","longitude":"-0.0216322","latitude":"51.6038807","tel":"0","address":"11 Walthamstow Avenue - E4 London"},{"id":"20281","sname":"Sainsbury's London","postcode":"0","longitude":"-0.1761217","latitude":"51.6178948","tel":"0","address":"836 High Road - N12 London"},{"id":"20282","sname":"Sainsbury's Richmond","postcode":"0","longitude":"-0.2834134","latitude":"51.4679256","tel":"0","address":"Lower Richmond Road - TW9 Richmond"},{"id":"20283","sname":"Sainsbury's London","postcode":"0","longitude":"-0.0863908","latitude":"51.3990978","tel":"0","address":"120-122 Whitehorse Lane - SE25 London"},{"id":"20284","sname":"Sainsbury's London","postcode":"0","longitude":"-0.3023769","latitude":"51.5140295","tel":"0","address":"30-33 The Broadway - W5 London"},{"id":"20285","sname":"Sainsbury's Brentford","postcode":"0","longitude":"-0.3085777","latitude":"51.4856987","tel":"0","address":"Building 3, Great West Quarter - TW8 Brentford"},{"id":"20286","sname":"Sainsbury's London","postcode":"0","longitude":"-0.3066265","latitude":"51.5026987","tel":"0","address":"35-39 South Ealing Road - W5 London"},{"id":"20287","sname":"Sainsbury's London","postcode":"0","longitude":"0.0648920","latitude":"51.4909863","tel":"0","address":"25 Calderwood Street - SE18 London"},{"id":"20288","sname":"Sainsbury's London","postcode":"0","longitude":"-0.3034022","latitude":"51.5386843","tel":"0","address":"360 Ealing Road - HA0 London"},{"id":"20289","sname":"Sainsbury's London","postcode":"0","longitude":"-0.0976440","latitude":"51.6300349","tel":"0","address":"681 Green Lanes - N21 London"},{"id":"20290","sname":"Sainsbury's Beckenham","postcode":"0","longitude":"-0.0302958","latitude":"51.4064326","tel":"0","address":"181 High Street - BR3 Beckenham"},{"id":"20291","sname":"Sainsbury's London","postcode":"0","longitude":"0.0207076","latitude":"51.4322459","tel":"0","address":"342 Baring Road - SE12 London"},{"id":"20292","sname":"Sainsbury's Morden","postcode":"0","longitude":"-0.1735529","latitude":"51.3950068","tel":"0","address":"London Road - SM4 Morden"},{"id":"20293","sname":"Sainsbury's Beckton","postcode":"0","longitude":"0.0658749","latitude":"51.5213146","tel":"0","address":"1 Claps Gate Lane - E6 Beckton"},{"id":"20294","sname":"Sainsbury's South Norwood","postcode":"0","longitude":"-0.0688668","latitude":"51.3958954","tel":"0","address":"112 Portland Road - SE25 South Norwood"},{"id":"20295","sname":"Sainsbury's Chingford Green","postcode":"0","longitude":"0.0093143","latitude":"51.6271954","tel":"0","address":"13 Hall Lane - E4 Chingford Green"},{"id":"20296","sname":"Sainsbury's Raynes Park","postcode":"0","longitude":"-0.2248859","latitude":"51.4118789","tel":"0","address":"213-215 Worple Road - SW20 Raynes Park"},{"id":"20297","sname":"Sainsbury's London","postcode":"0","longitude":"0.0727016","latitude":"51.4806272","tel":"0","address":"176 George Lane - SE18 London"},{"id":"20298","sname":"Sainsbury's London","postcode":"0","longitude":"-0.3150548","latitude":"51.5007608","tel":"0","address":"227 Northfield Avenue - W13 London"},{"id":"20299","sname":"Sainsbury's Richmond","postcode":"0","longitude":"-0.3026976","latitude":"51.4624773","tel":"0","address":"27D-27E The Quadrant - TW9 Richmond"},{"id":"20300","sname":"Sainsbury's London","postcode":"0","longitude":"0.0559166","latitude":"51.4502847","tel":"0","address":"1A Philipot Path - SE9 London"},{"id":"20301","sname":"Sainsbury's Ilford","postcode":"0","longitude":"0.0682579","latitude":"51.5566753","tel":"0","address":"55 Roden Street - IG1 Ilford"},{"id":"20302","sname":"Sainsbury's London","postcode":"0","longitude":"-0.3243683","latitude":"51.5086463","tel":"0","address":"Melbourne Avenue - W13 London"},{"id":"20303","sname":"Sainsbury's London","postcode":"0","longitude":"-0.0468843","latitude":"52.9746637","tel":"0","address":"13-14 Boston Parade\nBoston Road - W7 London"},{"id":"20304","sname":"Sainsbury's Ilford","postcode":"0","longitude":"0.0813206","latitude":"51.5603488","tel":"0","address":"168-170 High Road - IG1 Ilford"},{"id":"20305","sname":"Sainsbury's Ilford","postcode":"0","longitude":"0.0729280","latitude":"51.5794155","tel":"0","address":"555-557 Cranbrook Road - IG2 Ilford"},{"id":"20306","sname":"Sainsbury's Bromley","postcode":"0","longitude":"0.0136027","latitude":"51.4065827","tel":"0","address":"Walters Yard - BR1 Bromley"},{"id":"20307","sname":"Sainsbury's Croydon","postcode":"0","longitude":"-0.0982340","latitude":"51.3761650","tel":"0","address":"Trafalgar Way - CR90 Croydon"},{"id":"20308","sname":"Sainsbury's Highlands","postcode":"0","longitude":"-0.1100697","latitude":"51.6462528","tel":"0","address":"1 Florey Square - N21 Highlands"},{"id":"20309","sname":"Sainsbury's Croydon","postcode":"0","longitude":"-0.0982340","latitude":"51.3761650","tel":"0","address":"261 Lower Addiscombe Road - CR90 Croydon"},{"id":"20310","sname":"Sainsbury's Woodford Green","postcode":"0","longitude":"0.0337321","latitude":"51.6079395","tel":"0","address":"27-28 The Broadway - IG8 Woodford Green"},{"id":"20311","sname":"Sainsbury's Croydon","postcode":"0","longitude":"-0.0982340","latitude":"51.3761650","tel":"0","address":"19 Whitgift Centre - CR90 Croydon"},{"id":"20312","sname":"Sainsbury's Bush Hill Park","postcode":"0","longitude":"-0.0686880","latitude":"51.6416520","tel":"0","address":"131-137 St Marks Rd - EN1 Bush Hill Park"},{"id":"20313","sname":"Sainsbury's Croydon","postcode":"0","longitude":"-0.0982340","latitude":"51.3761650","tel":"0","address":"1-3 Suffolk House\nGeorge Street - CR90 Croydon"},{"id":"20314","sname":"Sainsbury's Enfield","postcode":"0","longitude":"-0.0798759","latitude":"51.6485824","tel":"0","address":"1-2 Clock Parade\nLondon Road - EN2 Enfield"},{"id":"20315","sname":"Sainsbury's Kenton","postcode":"0","longitude":"-0.3150616","latitude":"51.5820042","tel":"0","address":"1 Nash Way - HA3 Kenton"},{"id":"20316","sname":"Sainsbury's Edgware","postcode":"0","longitude":"-0.2769099","latitude":"51.6129025","tel":"0","address":"Broadwalk Shopping Centre\nStation Road - HA8 Edgware"},{"id":"20317","sname":"Sainsbury's Croydon","postcode":"0","longitude":"-0.0982340","latitude":"51.3761650","tel":"0","address":"59 High Street - CR90 Croydon"},{"id":"20318","sname":"Sainsbury's Barnet","postcode":"0","longitude":"-0.1710136","latitude":"51.6494486","tel":"0","address":"66 East Barnet Road - EN4 Barnet"},{"id":"20319","sname":"Sainsbury's Kingston Upon Thames","postcode":"0","longitude":"-0.2833924","latitude":"51.4126763","tel":"0","address":"Hanover House\n76 Coombe Road - KT2 Kingston Upon Thames"},{"id":"20320","sname":"Sainsbury's Enfield","postcode":"0","longitude":"-0.1041077","latitude":"51.6831556","tel":"0","address":"3 Crown Road - EN2 Enfield"},{"id":"20321","sname":"Sainsbury's Ilford","postcode":"0","longitude":"0.0894407","latitude":"51.5760130","tel":"0","address":"King George Avenue - IG2 Ilford"},{"id":"20322","sname":"Sainsbury's West Wickham","postcode":"0","longitude":"-0.0194307","latitude":"51.3767291","tel":"0","address":"143-165 High Street - BR4 West Wickham"},{"id":"20323","sname":"Sainsbury's Carshalton","postcode":"0","longitude":"-0.1611840","latitude":"51.3651790","tel":"0","address":"52-56 High Street - SM5 Carshalton"},{"id":"20324","sname":"Sainsbury's Ilford","postcode":"0","longitude":"0.0813444","latitude":"51.5880404","tel":"0","address":"66-100 Tanners Lane - IG6 Ilford"},{"id":"20325","sname":"Sainsbury's Chislehurst","postcode":"0","longitude":"0.0662653","latitude":"51.4194095","tel":"0","address":"73 High Street - BR7 Chislehurst"},{"id":"20326","sname":"Sainsbury's West Wickham","postcode":"0","longitude":"-0.0146296","latitude":"51.3769104","tel":"0","address":"76 Station Road - BR4 West Wickham"},{"id":"20327","sname":"Sainsbury's Kingston Upon Thames","postcode":"0","longitude":"-0.3031379","latitude":"51.4149924","tel":"0","address":"1 Sury Basin - KT2 Kingston Upon Thames"},{"id":"20328","sname":"Sainsbury's Wallington North","postcode":"0","longitude":"-0.1500611","latitude":"51.3610429","tel":"0","address":"Canon House, Melbourne Road - SM6 Wallington North"},{"id":"20329","sname":"Sainsbury's Kingston Upon Thames","postcode":"0","longitude":"-0.3056338","latitude":"51.4089639","tel":"0","address":"6-12 Eden Walk - KT1 Kingston Upon Thames"},{"id":"20330","sname":"Sainsbury's Wallington South","postcode":"0","longitude":"-0.1464179","latitude":"51.3583816","tel":"0","address":"2 Stafford Road - SM6 Wallington South"},{"id":"20331","sname":"Sainsbury's Barnet","postcode":"0","longitude":"-0.2016928","latitude":"51.6554004","tel":"0","address":"146 High Street - EN5 Barnet"},{"id":"20332","sname":"Sainsbury's Sutton","postcode":"0","longitude":"-0.2257041","latitude":"51.3721091","tel":"0","address":"566 London Road - SM3 Sutton"},{"id":"20333","sname":"Sainsbury's Worcester Park","postcode":"0","longitude":"-0.2383109","latitude":"51.3768382","tel":"0","address":"1-15 Central Road - KT4 Worcester Park"},{"id":"20334","sname":"Sainsbury's South Harrow","postcode":"0","longitude":"-0.3564958","latitude":"51.5623430","tel":"0","address":"330 Northolt Road - HA2 South Harrow"},{"id":"20335","sname":"Sainsbury's Wealdstone","postcode":"0","longitude":"-0.3351628","latitude":"51.5935514","tel":"0","address":"Unit 1, Alder Brook\n14-20 High Street\n - HA3 Wealdstone"},{"id":"20336","sname":"Sainsbury's Bromley","postcode":"0","longitude":"0.0112016","latitude":"51.3772744","tel":"0","address":"7 Station Approach - BR2 Bromley"},{"id":"20337","sname":"Sainsbury's Stanmore","postcode":"0","longitude":"-0.3112495","latitude":"51.6176263","tel":"0","address":"1 The Broadway - HA7 Stanmore"},{"id":"20338","sname":"Sainsbury's Bexleyheath","postcode":"0","longitude":"0.1323154","latitude":"51.4627525","tel":"0","address":"81-87 Avenue Road - DA7 Bexleyheath"},{"id":"20339","sname":"Sainsbury's Cheam","postcode":"0","longitude":"-0.2153881","latitude":"51.3579975","tel":"0","address":"19 High Street - SM3 Cheam"},{"id":"20340","sname":"Sainsbury's Surbiton","postcode":"0","longitude":"-0.3079825","latitude":"51.3915529","tel":"0","address":"50-58 Victoria Road - KT6 Surbiton"},{"id":"20341","sname":"Sainsbury's Hounslow Heath","postcode":"0","longitude":"-0.3750071","latitude":"51.4629206","tel":"0","address":"279 Staines Road - TW4 Hounslow Heath"},{"id":"20342","sname":"Sainsbury's Hampton Hill","postcode":"0","longitude":"-0.3575032","latitude":"51.4251413","tel":"0","address":"68-78 High Street - TW12 Hampton Hill"},{"id":"20343","sname":"Sainsbury's Pinner","postcode":"0","longitude":"-0.3712895","latitude":"51.5765124","tel":"0","address":"387-395 Rayners Lane - HA5 Pinner"},{"id":"20344","sname":"Sainsbury's Romford","postcode":"0","longitude":"0.1335665","latitude":"51.5715325","tel":"0","address":"97-131 High Road - RM6 Romford"},{"id":"20345","sname":"Sainsbury's Orpington","postcode":"0","longitude":"0.0755502","latitude":"51.3896953","tel":"0","address":"11 Station Square\nPetts Wood - BR5 Orpington"},{"id":"20346","sname":"Sainsbury's South Croydon","postcode":"0","longitude":"-0.0628764","latitude":"51.3426930","tel":"0","address":"130 Addington Road - CR2 South Croydon"},{"id":"20347","sname":"Sainsbury's Bexleyheath","postcode":"0","longitude":"0.1462402","latitude":"51.4563376","tel":"0","address":"70 Broadway - DA6 Bexleyheath"},{"id":"20348","sname":"Sainsbury's Hampton Hill","postcode":"0","longitude":"-0.3717690","latitude":"51.4342865","tel":"0","address":"303 Uxbridge Road - TW12 Hampton Hill"},{"id":"20349","sname":"Sainsbury's London","postcode":"0","longitude":"-0.1198244","latitude":"51.5112139","tel":"0","address":"Lombardy Retail Park\nColdharbour Lane - UB3 London"},{"id":"20350","sname":"Sainsbury's Bexleyheath","postcode":"0","longitude":"0.1580115","latitude":"51.4668217","tel":"0","address":"308 Erith Road - DA7 Bexleyheath"},{"id":"20351","sname":"Sainsbury's South Ruislip","postcode":"0","longitude":"-0.3913535","latitude":"51.5599071","tel":"0","address":"Long Drive - HA4 South Ruislip"},{"id":"20352","sname":"Sainsbury's Epsom","postcode":"0","longitude":"-0.2482542","latitude":"51.3483952","tel":"0","address":"1 Mercury House\n4-8 Cheam Road - KT17 Epsom"},{"id":"20353","sname":"Sainsbury's Orpington","postcode":"0","longitude":"0.0552900","latitude":"51.3670338","tel":"0","address":"Pallant Way - BR6 Orpington"},{"id":"20354","sname":"Sainsbury's Hampton","postcode":"0","longitude":"-0.3783540","latitude":"51.4270713","tel":"0","address":"30 Tangley Park Road - TW12 Hampton"},{"id":"20355","sname":"Sainsbury's Waltham Cross","postcode":"0","longitude":"-0.0353821","latitude":"51.7099863","tel":"0","address":"72 The Pavilion\nHigh Street - EN8 Waltham Cross"},{"id":"20356","sname":"Sainsbury's Pinner","postcode":"0","longitude":"-0.3809581","latitude":"51.5937422","tel":"0","address":"12 Barters Walk - HA5 Pinner"},{"id":"20357","sname":"Sainsbury's Chessington","postcode":"0","longitude":"-0.2985222","latitude":"51.3642506","tel":"0","address":"10-14 North Parade - KT9 Chessington"},{"id":"20358","sname":"Sainsbury's Loughton","postcode":"0","longitude":"0.0829781","latitude":"51.6463051","tel":"0","address":"12 Torrington Drive - IG10 Loughton"},{"id":"20359","sname":"Sainsbury's Epsom","postcode":"0","longitude":"-0.2594570","latitude":"51.3409188","tel":"0","address":"Kiln Lane - KT17 Epsom"},{"id":"20360","sname":"Sainsbury's Potters Bar","postcode":"0","longitude":"-0.1902918","latitude":"51.6992159","tel":"0","address":"7-8 Sainsbury Centre\nDarkes Lane - EN6 Potters Bar"},{"id":"20361","sname":"Sainsbury's Orpington","postcode":"0","longitude":"0.1005832","latitude":"51.3757597","tel":"0","address":"5-7 Homefield Rise - BR6 Orpington"},{"id":"20362","sname":"Sainsbury's Dartford","postcode":"0","longitude":"0.1769466","latitude":"51.4496935","tel":"0","address":"Stadium Way - DA1 Dartford"},{"id":"20363","sname":"Sainsbury's Romford Town","postcode":"0","longitude":"0.1807224","latitude":"51.5759533","tel":"0","address":"1 The Brewery - RM1 Romford Town"},{"id":"20364","sname":"Sainsbury's Warlingham","postcode":"0","longitude":"-0.0435173","latitude":"51.3073060","tel":"0","address":"631 Limpsfield Road - CR6 Warlingham"},{"id":"20365","sname":"Sainsbury's Manchester","postcode":"0","longitude":"-2.2504419","latitude":"53.4782193","tel":"0","address":"Overseas House\nQuay Street - M3 Manchester"},{"id":"20366","sname":"Sainsbury's Manchester","postcode":"0","longitude":"-2.2449366","latitude":"53.4824553","tel":"0","address":"22 Cross Street - M2 Manchester"},{"id":"20367","sname":"Sainsbury's Manchester","postcode":"0","longitude":"-2.2410805","latitude":"53.4795847","tel":"0","address":"58 Mosley Street - M2 Manchester"},{"id":"20368","sname":"Sainsbury's Manchester","postcode":"0","longitude":"-2.2419992","latitude":"53.4747765","tel":"0","address":"51 Whitworth Street West - M1 Manchester"},{"id":"20369","sname":"Sainsbury's Salford","postcode":"0","longitude":"-2.2682462","latitude":"53.4765379","tel":"0","address":"100 Regent Road - M5 Salford"},{"id":"20370","sname":"Sainsbury's Manchester","postcode":"0","longitude":"-2.7091158","latitude":"53.4955137","tel":"0","address":"Unit 1\nPiccadilly Station - M1 Manchester"},{"id":"20371","sname":"Sainsbury's Manchester","postcode":"0","longitude":"-2.2299170","latitude":"53.4631377","tel":"0","address":"Horniman House\n399-401 Oxford Road - M13 Manchester"},{"id":"20372","sname":"Sainsbury's Prestwich","postcode":"0","longitude":"-2.2722751","latitude":"53.5197516","tel":"0","address":"25 Bury New Road - M25 Prestwich"},{"id":"20373","sname":"Sainsbury's Manchester","postcode":"0","longitude":"-2.2045879","latitude":"53.4430089","tel":"0","address":"Fallowfield Shopping Centre\nBirchfields Road - M14 Manchester"},{"id":"20374","sname":"Sainsbury's Manchester","postcode":"0","longitude":"-2.2187436","latitude":"53.4408535","tel":"0","address":"347 Wilmslow Road - M14 Manchester"},{"id":"20375","sname":"Sainsbury's Manchester","postcode":"0","longitude":"-2.2320816","latitude":"53.4147148","tel":"0","address":"496 Wilmslow Road - M20 Manchester"},{"id":"20376","sname":"Sainsbury's Manchester","postcode":"0","longitude":"-2.2358241","latitude":"53.5361126","tel":"0","address":"Heaton Park Road - M9 Manchester"},{"id":"20377","sname":"Sainsbury's Urmston","postcode":"0","longitude":"-2.3541859","latitude":"53.4498316","tel":"0","address":"Unit 24, Golden Way - M41 Urmston"},{"id":"20378","sname":"Sainsbury's Sale","postcode":"0","longitude":"-2.3223619","latitude":"53.4265169","tel":"0","address":"Curzon Road - M33 Sale"},{"id":"20379","sname":"Sainsbury's Manchester","postcode":"0","longitude":"-2.1301863","latitude":"53.4535144","tel":"0","address":"Oldham Street\nDenton - M34 Manchester"},{"id":"20380","sname":"Sainsbury's Sale","postcode":"0","longitude":"-2.3302290","latitude":"53.4206405","tel":"0","address":"121-123 Washway Road - M33 Sale"},{"id":"20381","sname":"Sainsbury's Stockport","postcode":"0","longitude":"-2.1568175","latitude":"53.4126807","tel":"0","address":"Warren Street - SK1 Stockport"},{"id":"20382","sname":"Sainsbury's Ashton-under-Lyne","postcode":"0","longitude":"-2.1226053","latitude":"53.4824605","tel":"0","address":"2 Lord Sheldon Way - OL6 Ashton-under-Lyne"},{"id":"20383","sname":"Sainsbury's Altrincham","postcode":"0","longitude":"-2.3509040","latitude":"53.3901800","tel":"0","address":"Paul House, Stockport Rd, Timp - WA15 Altrincham"},{"id":"20384","sname":"Sainsbury's Oldham","postcode":"0","longitude":"-2.1120916","latitude":"53.5401984","tel":"0","address":"60 Union Street - OL1 Oldham"},{"id":"20385","sname":"Sainsbury's Cheadle","postcode":"0","longitude":"-2.2157087","latitude":"53.3835525","tel":"0","address":"Wilmslow Road - SK8 Cheadle"},{"id":"20386","sname":"Sainsbury's Altrincham","postcode":"0","longitude":"-2.3500577","latitude":"53.3843970","tel":"0","address":"Lloyd Street - WA14 Altrincham"},{"id":"20387","sname":"Sainsbury's Romiley","postcode":"0","longitude":"-2.0877686","latitude":"53.4137933","tel":"0","address":"2 Compstall Road - SK6 Romiley"},{"id":"20388","sname":"Sainsbury's Altrincham","postcode":"0","longitude":"-2.3442714","latitude":"53.3760207","tel":"0","address":"204-208 Ashley Road - WA15 Altrincham"},{"id":"20389","sname":"Sainsbury's Stockport","postcode":"0","longitude":"-2.1207952","latitude":"53.3796324","tel":"0","address":"London Road\nHazel Grove - SK7 Stockport"},{"id":"20390","sname":"Sainsbury's Bolton","postcode":"0","longitude":"-2.4306667","latitude":"53.5740390","tel":"0","address":"Trinity Street - BL3 Bolton"},{"id":"20391","sname":"Sainsbury's Wilmslow","postcode":"0","longitude":"-2.2344025","latitude":"53.3242085","tel":"0","address":"67 Alderley Road - SK9 Wilmslow"},{"id":"20392","sname":"Sainsbury's Culcheth","postcode":"0","longitude":"-2.5205110","latitude":"53.4525835","tel":"0","address":"7 Common Lane - WA3 Culcheth"},{"id":"20393","sname":"Sainsbury's Lymm","postcode":"0","longitude":"-2.4780258","latitude":"53.3809107","tel":"0","address":"14 The Cross - WA13 Lymm"},{"id":"20394","sname":"Sainsbury's Leigh","postcode":"0","longitude":"-2.5263341","latitude":"53.4990883","tel":"0","address":"Atherleigh Way - WN7 Leigh"},{"id":"20395","sname":"Sainsbury's Westhoughton","postcode":"0","longitude":"-2.5214845","latitude":"53.5467616","tel":"0","address":"Cricketers Way - BL5 Westhoughton"},{"id":"20396","sname":"Sainsbury's New Mills","postcode":"0","longitude":"-2.0011260","latitude":"53.3662809","tel":"0","address":"Torr Tops Street - SK22 New Mills"},{"id":"20397","sname":"Sainsbury's Littleborough","postcode":"0","longitude":"-2.0977886","latitude":"53.6449057","tel":"0","address":"42-44 Harehill Road - OL15 Littleborough"},{"id":"20398","sname":"Sainsbury's Knutsford","postcode":"0","longitude":"-2.3758717","latitude":"53.3051649","tel":"0","address":"9-13 Canute Place - WA16 Knutsford"},{"id":"20399","sname":"Sainsbury's Horwich","postcode":"0","longitude":"-2.5468485","latitude":"53.6005328","tel":"0","address":"72-76 Lee Lane - BL6 Horwich"},{"id":"20400","sname":"Sainsbury's Newcastle Upon Tyne","postcode":"0","longitude":"-1.6182009","latitude":"54.9741526","tel":"0","address":"22 Gallowgate - NE1 Newcastle Upon Tyne"},{"id":"20401","sname":"Sainsbury's Newcastle Upon Tyne","postcode":"0","longitude":"-1.6030182","latitude":"54.9763703","tel":"0","address":"1 Falconar Street - NE2 Newcastle Upon Tyne"},{"id":"20402","sname":"Sainsbury's Newcastle Upon Tyne","postcode":"0","longitude":"-1.6168903","latitude":"54.9682912","tel":"0","address":"Central Station\nNeville Street - NE1 Newcastle Upon Tyne"},{"id":"20403","sname":"Sainsbury's Newcastle Upon Tyne","postcode":"0","longitude":"-1.5814196","latitude":"54.9820591","tel":"0","address":"128-134 Heaton Road - NE6 Newcastle Upon Tyne"},{"id":"20404","sname":"Sainsbury's Newcastle Upon Tyne","postcode":"0","longitude":"-1.6194139","latitude":"55.0053764","tel":"0","address":"1-7 The Gosforth Centre - NE3 Newcastle Upon Tyne"},{"id":"20405","sname":"Sainsbury's Newcastle Upon Tyne","postcode":"0","longitude":"-1.5749783","latitude":"54.9969190","tel":"0","address":"Etherstone Avenue - NE7 Newcastle Upon Tyne"},{"id":"20406","sname":"Sainsbury's Newcastle Upon Tyne","postcode":"0","longitude":"-1.6843529","latitude":"54.9760431","tel":"0","address":"Whickham View - NE15 Newcastle Upon Tyne"},{"id":"20407","sname":"Sainsbury's Newcastle Upon Tyne","postcode":"0","longitude":"-1.5670985","latitude":"55.0214258","tel":"0","address":"2 Station Road North - NE12 Newcastle Upon Tyne"},{"id":"20408","sname":"Sainsbury's Newcastle Upon Tyne","postcode":"0","longitude":"-1.7122113","latitude":"54.9907773","tel":"0","address":"9 Chapel House Drive - NE5 Newcastle Upon Tyne"},{"id":"20409","sname":"Sainsbury's Gateshead","postcode":"0","longitude":"-1.6073614","latitude":"54.9234821","tel":"0","address":"Eleventh Avenue\nTeam Valley Trading Estate - NE11 Gateshead"},{"id":"20410","sname":"Sainsbury's Newcastle Upon Tyne","postcode":"0","longitude":"-1.7475351","latitude":"54.9898137","tel":"0","address":"Newburn Road - NE15 Newcastle Upon Tyne"},{"id":"20411","sname":"Sainsbury's Ryton","postcode":"0","longitude":"-1.7629425","latitude":"54.9730799","tel":"0","address":"Lane Head - NE40 Ryton"},{"id":"20412","sname":"Sainsbury's Shiremoor","postcode":"0","longitude":"-1.5097942","latitude":"55.0373665","tel":"0","address":"Earsdon Road\n - NE27 Shiremoor"},{"id":"20413","sname":"Sainsbury's Washington","postcode":"0","longitude":"-1.5327237","latitude":"54.9000963","tel":"0","address":"The Galleries\nWashington Centre - NE38 Washington"},{"id":"20414","sname":"Sainsbury's South Shields","postcode":"0","longitude":"-1.4526532","latitude":"54.9694386","tel":"0","address":"7-13 Binchester Street - NE34 South Shields"},{"id":"20415","sname":"Sainsbury's Ponteland","postcode":"0","longitude":"-1.7395110","latitude":"55.0500760","tel":"0","address":"Bell Villas - NE20 Ponteland"},{"id":"20416","sname":"Sainsbury's Whitley Bay","postcode":"0","longitude":"-1.4512989","latitude":"55.0463890","tel":"0","address":"Newstead Drive - NE25 Whitley Bay"},{"id":"20417","sname":"Sainsbury's Cramlington","postcode":"0","longitude":"-1.5898750","latitude":"55.0848239","tel":"0","address":"Manor Walks Shopping Centre - NE23 Cramlington"},{"id":"20418","sname":"Sainsbury's North Shields","postcode":"0","longitude":"-1.4368877","latitude":"55.0277105","tel":"0","address":"The Broadway - NE30 North Shields"},{"id":"20419","sname":"Sainsbury's East Boldon","postcode":"0","longitude":"-1.4225374","latitude":"54.9459479","tel":"0","address":"3 Station Terrace - NE36 East Boldon"},{"id":"20420","sname":"Sainsbury's Whitley Bay","postcode":"0","longitude":"-1.4461713","latitude":"55.0426066","tel":"0","address":"Park View Shopping Centre\nPark Avenue - NE26 Whitley Bay"},{"id":"20421","sname":"Sainsbury's South Shields","postcode":"0","longitude":"-1.4073807","latitude":"54.9722064","tel":"0","address":"335-345 Prince Edward Road - NE34 South Shields"},{"id":"20422","sname":"Sainsbury's Chester Le Street","postcode":"0","longitude":"-1.5819611","latitude":"54.8543830","tel":"0","address":"7 The Avenue - DH2 Chester Le Street"},{"id":"20423","sname":"Sainsbury's Sunderland","postcode":"0","longitude":"-1.4363956","latitude":"54.9163858","tel":"0","address":"Wessington Way - SR5 Sunderland"},{"id":"20424","sname":"Sainsbury's Sunderland","postcode":"0","longitude":"-1.3835355","latitude":"54.9294074","tel":"0","address":"110 Station Road - SR6 Sunderland"},{"id":"20425","sname":"Sainsbury's Sunderland","postcode":"0","longitude":"-1.4074265","latitude":"54.8811768","tel":"0","address":"Silksworth Lane - SR3 Sunderland"},{"id":"20426","sname":"Sainsbury's Durham","postcode":"0","longitude":"-1.5909070","latitude":"54.8034770","tel":"0","address":"Unit K, Arnison Retail Centre\nPity Me - DH1 Durham"},{"id":"20427","sname":"Sainsbury's Durham","postcode":"0","longitude":"-1.5903941","latitude":"54.7950695","tel":"0","address":"26 Front Street\nFramwellgate Moor - DH1 Durham"},{"id":"20428","sname":"Sainsbury's Morpeth","postcode":"0","longitude":"-1.6806973","latitude":"55.1595810","tel":"0","address":"Shields Road - NE61 Morpeth"},{"id":"20429","sname":"Sainsbury's Durham","postcode":"0","longitude":"-1.5258182","latitude":"54.7855996","tel":"0","address":"Cheveley Park Shopping Centre - DH1 Durham"},{"id":"20430","sname":"Sainsbury's Durham","postcode":"0","longitude":"-1.5473180","latitude":"54.7799818","tel":"0","address":"9 Sunderland Road - DH1 Durham"},{"id":"20431","sname":"Sainsbury's Seaham","postcode":"0","longitude":"-1.3390935","latitude":"54.8449820","tel":"0","address":"Featherbed Court - SR7 Seaham"},{"id":"20432","sname":"Sainsbury's Newquay","postcode":"0","longitude":"-2.9942850","latitude":"51.6000123","tel":"0","address":"The Whim\nAlma Place - TR7 Newquay"},{"id":"20433","sname":"Sainsbury's Truro","postcode":"0","longitude":"-5.0670293","latitude":"50.2605419","tel":"0","address":"Treyew Road - TR1 Truro"},{"id":"20434","sname":"Sainsbury's Norwich","postcode":"0","longitude":"1.2933586","latitude":"52.6220771","tel":"0","address":"1 Brazen Gate - NR1 Norwich"},{"id":"20435","sname":"Sainsbury's Norwich","postcode":"0","longitude":"1.3583639","latitude":"52.6385817","tel":"0","address":"Pound Lane - NR7 Norwich"},{"id":"20436","sname":"Sainsbury's New Costessey","postcode":"0","longitude":"1.1863770","latitude":"52.6527140","tel":"0","address":"William Frost Way\n - NR5 New Costessey"},{"id":"20437","sname":"Sainsbury's North Walsham","postcode":"0","longitude":"1.3985578","latitude":"52.8272160","tel":"0","address":"Bacton Road - NR28 North Walsham"},{"id":"20438","sname":"Sainsbury's Attleborough","postcode":"0","longitude":"1.0128092","latitude":"52.5155758","tel":"0","address":"High Street - NR17 Attleborough"},{"id":"20439","sname":"Sainsbury's Nottingham","postcode":"0","longitude":"-1.1500782","latitude":"52.9524892","tel":"0","address":"25-29 Wheeler Gate - NG1 Nottingham"},{"id":"20440","sname":"Sainsbury's Nottingham","postcode":"0","longitude":"-1.1444620","latitude":"52.9535502","tel":"0","address":"6-8 Carlton Street - NG1 Nottingham"},{"id":"20441","sname":"Sainsbury's Nottingham","postcode":"0","longitude":"-1.1477720","latitude":"52.9483707","tel":"0","address":"81 Carrington Street - NG1 Nottingham"},{"id":"20442","sname":"Sainsbury's Nottingham","postcode":"0","longitude":"-1.1669768","latitude":"52.9546836","tel":"0","address":"223 Derby Road - NG7 Nottingham"},{"id":"20443","sname":"Sainsbury's Nottingham","postcode":"0","longitude":"-1.1638503","latitude":"52.9450648","tel":"0","address":"11 Castle Bridge Road - NG7 Nottingham"},{"id":"20444","sname":"Sainsbury's Nottingham","postcode":"0","longitude":"-1.1619438","latitude":"52.9620344","tel":"0","address":"16 Waverley Street - NG7 Nottingham"},{"id":"20445","sname":"Sainsbury's Nottingham","postcode":"0","longitude":"-1.1731088","latitude":"52.9503091","tel":"0","address":"39 Lenton Boulevard - NG7 Nottingham"},{"id":"20446","sname":"Sainsbury's Nottingham","postcode":"0","longitude":"-1.1353636","latitude":"52.9763621","tel":"0","address":"229 Ransom Road - NG3 Nottingham"},{"id":"20447","sname":"Sainsbury's Nottingham","postcode":"0","longitude":"-1.1600080","latitude":"52.9833258","tel":"0","address":"Perry Road - NG5 Nottingham"},{"id":"20448","sname":"Sainsbury's Nottingham","postcode":"0","longitude":"-1.1910552","latitude":"52.9778143","tel":"0","address":"418 Nuthall Road - NG8 Nottingham"},{"id":"20449","sname":"Sainsbury's Beeston","postcode":"0","longitude":"-1.2140931","latitude":"52.9284280","tel":"0","address":"Stoney Street - NG9 Beeston"},{"id":"20450","sname":"Sainsbury's Arnold","postcode":"0","longitude":"-1.1359111","latitude":"52.9992517","tel":"0","address":"Sir John Robinson Way\n - NG5 Arnold"},{"id":"20451","sname":"Sainsbury's Gedling","postcode":"0","longitude":"-1.0891764","latitude":"52.9821830","tel":"0","address":"Arnold Lane - NG4 Gedling"},{"id":"20452","sname":"Sainsbury's Beeston","postcode":"0","longitude":"-1.2392337","latitude":"52.9199437","tel":"0","address":"46-48 Blenheim Drive - NG9 Beeston"},{"id":"20453","sname":"Sainsbury's Ruddington","postcode":"0","longitude":"-1.1497145","latitude":"52.8932891","tel":"0","address":"12-14 Wilford Road - NG11 Ruddington"},{"id":"20454","sname":"Sainsbury's Stapleford","postcode":"0","longitude":"-1.2632440","latitude":"52.9363689","tel":"0","address":"49 Central Avenue - NG9 Stapleford"},{"id":"20455","sname":"Sainsbury's Kimberley","postcode":"0","longitude":"-1.2572048","latitude":"52.9975447","tel":"0","address":"Main Street - NG16 Kimberley"},{"id":"20456","sname":"Sainsbury's Stapleford","postcode":"0","longitude":"-1.2789473","latitude":"52.9273701","tel":"0","address":"111 Derby Road - NG9 Stapleford"},{"id":"20457","sname":"Sainsbury's Cotgrave","postcode":"0","longitude":"-1.0412235","latitude":"52.9117372","tel":"0","address":"3 Bingham Road - NG12 Cotgrave"},{"id":"20458","sname":"Sainsbury's Keyworth","postcode":"0","longitude":"-1.0890024","latitude":"52.8767503","tel":"0","address":"100-102 Nottingham Road - NG12 Keyworth"},{"id":"20459","sname":"Sainsbury's Long Eaton","postcode":"0","longitude":"-1.2865484","latitude":"52.9095172","tel":"0","address":"272 College Street - NG10 Long Eaton"},{"id":"20460","sname":"Sainsbury's Calverton","postcode":"0","longitude":"-1.0818914","latitude":"53.0371883","tel":"0","address":"6 St. Wilfrids Square - NG14 Calverton"},{"id":"20461","sname":"Sainsbury's Tamworth","postcode":"0","longitude":"-1.7063554","latitude":"52.6273491","tel":"0","address":"Bitterscote Dr - B78 Tamworth"},{"id":"20462","sname":"Sainsbury's Eastwood","postcode":"0","longitude":"-1.2910362","latitude":"53.0122604","tel":"0","address":"248 Nottingham Road - NG16 Eastwood"},{"id":"20463","sname":"Sainsbury's Bingham","postcode":"0","longitude":"-0.9529245","latitude":"52.9518302","tel":"0","address":"8 Market Street - NG13 Bingham"},{"id":"20464","sname":"Sainsbury's Chaddesden","postcode":"0","longitude":"-1.4373043","latitude":"52.9168882","tel":"0","address":"Wyvern Way - DE21 Chaddesden"},{"id":"20465","sname":"Sainsbury's Butterley","postcode":"0","longitude":"-1.3972748","latitude":"53.0549348","tel":"0","address":"Butterley - DE5 Butterley"},{"id":"20466","sname":"Sainsbury's Mansfield","postcode":"0","longitude":"-1.1924265","latitude":"53.1275648","tel":"0","address":"Nottingham Road - NG18 Mansfield"},{"id":"20467","sname":"Sainsbury's Loughborough","postcode":"0","longitude":"-1.2098039","latitude":"52.7727041","tel":"0","address":"Greenclose Lane - LE11 Loughborough"},{"id":"20468","sname":"Sainsbury's Derby","postcode":"0","longitude":"-1.4728724","latitude":"52.9202385","tel":"0","address":"2-6 Copecastle Square - DE1 Derby"},{"id":"20469","sname":"Sainsbury's Derby","postcode":"0","longitude":"-1.4743618","latitude":"52.8954883","tel":"0","address":"1 Peak Drive - DE24 Derby"},{"id":"20470","sname":"Sainsbury's Mansfield","postcode":"0","longitude":"-1.2105655","latitude":"53.1501883","tel":"0","address":"56 Westfield Lane - NG19 Mansfield"},{"id":"20471","sname":"Sainsbury's Derby","postcode":"0","longitude":"-1.4895350","latitude":"52.9260523","tel":"0","address":"121 Nuns Street - DE1 Derby"},{"id":"20472","sname":"Sainsbury's Derby","postcode":"0","longitude":"-1.4902339","latitude":"52.9318531","tel":"0","address":"125 Kedleston Road - DE22 Derby"},{"id":"20473","sname":"Sainsbury's Derby","postcode":"0","longitude":"-1.4848301","latitude":"52.9147445","tel":"0","address":"71-77 Farm Street - DE22 Derby"},{"id":"20474","sname":"Sainsbury's Derby","postcode":"0","longitude":"-1.5030027","latitude":"52.9244411","tel":"0","address":"10 Morley Street - DE22 Derby"},{"id":"20475","sname":"Sainsbury's Kingsway","postcode":"0","longitude":"-1.5206519","latitude":"52.9249310","tel":"0","address":"Kingsway Retail Park - DE22 Kingsway"},{"id":"20476","sname":"Sainsbury's Oxford","postcode":"0","longitude":"-1.2607687","latitude":"51.7506574","tel":"0","address":"21 Westgate - OX1 Oxford"},{"id":"20477","sname":"Sainsbury's Oxford","postcode":"0","longitude":"-1.2590343","latitude":"51.7543732","tel":"0","address":"7 Magdalen Street - OX1 Oxford"},{"id":"20478","sname":"Sainsbury's Oxford","postcode":"0","longitude":"-1.2145364","latitude":"51.7246123","tel":"0","address":"Waynflete Building 1-8\nSt. Clements Street - OX4 Oxford"},{"id":"20479","sname":"Sainsbury's Oxford","postcode":"0","longitude":"-1.2373630","latitude":"51.7479294","tel":"0","address":"134B Cowley Road - OX4 Oxford"},{"id":"20480","sname":"Sainsbury's Oxford","postcode":"0","longitude":"-1.3076558","latitude":"51.7710968","tel":"0","address":"9 Suffolk House - OX2 Oxford"},{"id":"20481","sname":"Sainsbury's Littlemore","postcode":"0","longitude":"-1.2322319","latitude":"51.7215495","tel":"0","address":"Heyford Hill - OX4 Littlemore"},{"id":"20482","sname":"Sainsbury's Kidlington","postcode":"0","longitude":"-1.2775708","latitude":"51.8088719","tel":"0","address":"289 Oxford Road - OX5 Kidlington"},{"id":"20483","sname":"Sainsbury's Witney","postcode":"0","longitude":"-1.4818291","latitude":"51.7834054","tel":"0","address":"Witan Way - OX28 Witney"},{"id":"20484","sname":"Sainsbury's Didcot","postcode":"0","longitude":"-1.2385010","latitude":"51.6076334","tel":"0","address":"Central Drive - OX11 Didcot"},{"id":"20485","sname":"Sainsbury's Thame","postcode":"0","longitude":"-0.9783046","latitude":"51.7472961","tel":"0","address":"1 High Street - OX9 Thame"},{"id":"20486","sname":"Sainsbury's Wantage","postcode":"0","longitude":"-1.4255816","latitude":"51.5915479","tel":"0","address":"Limborough Road - OX12 Wantage"},{"id":"20487","sname":"Sainsbury's Plymouth","postcode":"0","longitude":"-4.1685546","latitude":"50.3717827","tel":"0","address":"The Armada Centre\nArmada Centre - PL1 Plymouth"},{"id":"20488","sname":"Sainsbury's Plymouth","postcode":"0","longitude":"-4.1332563","latitude":"50.3806620","tel":"0","address":"9 - 11 Mutley Plain - PL4 Plymouth"},{"id":"20489","sname":"Sainsbury's Torpoint","postcode":"0","longitude":"-4.2012468","latitude":"50.3767612","tel":"0","address":"Antony Road - PL11 Torpoint"},{"id":"20490","sname":"Sainsbury's Crabtree","postcode":"0","longitude":"-4.0912097","latitude":"50.3863566","tel":"0","address":"Plymouth Road - PL3 Crabtree"},{"id":"20491","sname":"Sainsbury's Portsmouth","postcode":"0","longitude":"-1.0795375","latitude":"50.8161001","tel":"0","address":"92-96 London Road - PO2 Portsmouth"},{"id":"20492","sname":"Sainsbury's Portsmouth","postcode":"0","longitude":"-1.0886374","latitude":"50.8034431","tel":"0","address":"315 Commercial Road - PO1 Portsmouth"},{"id":"20493","sname":"Sainsbury's Portsmouth","postcode":"0","longitude":"-1.0930138","latitude":"50.7963760","tel":"0","address":"Hippodrome House, Guildhall Wk - PO1 Portsmouth"},{"id":"20494","sname":"Sainsbury's Southsea","postcode":"0","longitude":"-1.0547295","latitude":"50.7914739","tel":"0","address":"Albert Road Shopping Centre - PO4 Southsea"},{"id":"20495","sname":"Sainsbury's Southsea","postcode":"0","longitude":"-1.0887654","latitude":"50.7841603","tel":"0","address":"77-79 Palmerston Road - PO5 Southsea"},{"id":"20496","sname":"Sainsbury's Portsmouth","postcode":"0","longitude":"-1.0354499","latitude":"50.8424394","tel":"0","address":"Fitzherbert Road - PO6 Portsmouth"},{"id":"20497","sname":"Sainsbury's Fareham","postcode":"0","longitude":"-1.1719104","latitude":"50.8590705","tel":"0","address":"Broadcut - PO16 Fareham"},{"id":"20498","sname":"Sainsbury's Hayling Island","postcode":"0","longitude":"-0.9764542","latitude":"50.7876579","tel":"0","address":"12 Mengham Road - PO11 Hayling Island"},{"id":"20499","sname":"Sainsbury's Cowes","postcode":"0","longitude":"-1.2977824","latitude":"50.7627044","tel":"0","address":"129-130 High Street - PO31 Cowes"},{"id":"20500","sname":"Sainsbury's Sandown","postcode":"0","longitude":"-1.1434035","latitude":"50.6818418","tel":"0","address":"31-35 High Street - PO36 Sandown"},{"id":"20501","sname":"Sainsbury's Southampton","postcode":"0","longitude":"-1.3116535","latitude":"50.9224925","tel":"0","address":"Tollbar Way\nHedge End - SO30 Southampton"},{"id":"20502","sname":"Sainsbury's Newport","postcode":"0","longitude":"-1.2984936","latitude":"50.7016395","tel":"0","address":"Foxes Road - PO30 Newport"},{"id":"20503","sname":"Sainsbury's Southampton","postcode":"0","longitude":"-1.3573727","latitude":"50.9194950","tel":"0","address":"West End Road - SO18 Southampton"},{"id":"20504","sname":"Sainsbury's Southampton","postcode":"0","longitude":"-1.3688393","latitude":"50.9167545","tel":"0","address":"412-414 Bitterne Road\nBitterne Village - SO18 Southampton"},{"id":"20505","sname":"Sainsbury's Chichester","postcode":"0","longitude":"-0.7589750","latitude":"50.8431940","tel":"0","address":"Westhampnett Road - PO19 Chichester"},{"id":"20506","sname":"Sainsbury's Sheffield","postcode":"0","longitude":"-1.4672406","latitude":"53.3778264","tel":"0","address":"52-54 Arundel Gate - S1 Sheffield"},{"id":"20507","sname":"Sainsbury's Sheffield","postcode":"0","longitude":"-1.4744388","latitude":"53.3799694","tel":"0","address":"27-29 Division Street - S1 Sheffield"},{"id":"20508","sname":"Sainsbury's Sheffield","postcode":"0","longitude":"-1.4746282","latitude":"53.3764861","tel":"0","address":"76 The Moor - S1 Sheffield"},{"id":"20509","sname":"Sainsbury's Sheffield","postcode":"0","longitude":"-1.4746282","latitude":"53.3764861","tel":"0","address":"76 The Moor - S1 Sheffield"},{"id":"20510","sname":"Sainsbury's Sheffield","postcode":"0","longitude":"-1.4653051","latitude":"53.3746098","tel":"0","address":"Liberty Court\n1 Mortimer Street - S1 Sheffield"},{"id":"20511","sname":"Sainsbury's Sheffield","postcode":"0","longitude":"-1.4841811","latitude":"53.3805048","tel":"0","address":"50 Upper Hanover Street - S3 Sheffield"},{"id":"20512","sname":"Sainsbury's Sheffield","postcode":"0","longitude":"-1.4757683","latitude":"53.3677543","tel":"0","address":"London Road - S2 Sheffield"},{"id":"20513","sname":"Sainsbury's Sheffield","postcode":"0","longitude":"-1.4876139","latitude":"53.3834767","tel":"0","address":"110 Weston Street - S3 Sheffield"},{"id":"20514","sname":"Sainsbury's Sheffield","postcode":"0","longitude":"-1.5015441","latitude":"53.3775051","tel":"0","address":"222 Fulwood Road - S10 Sheffield"},{"id":"20515","sname":"Sainsbury's Sheffield","postcode":"0","longitude":"-1.4982472","latitude":"53.3686843","tel":"0","address":"555 Ecclesall Road - S11 Sheffield"},{"id":"20516","sname":"Sainsbury's Sheffield","postcode":"0","longitude":"-1.5080222","latitude":"53.3851930","tel":"0","address":"194 Crookes - S10 Sheffield"},{"id":"20517","sname":"Sainsbury's Sheffield","postcode":"0","longitude":"-1.4885385","latitude":"53.3599311","tel":"0","address":"9 Machon Bank Road - S7 Sheffield"},{"id":"20518","sname":"Sainsbury's Sheffield","postcode":"0","longitude":"-1.4896737","latitude":"53.3461553","tel":"0","address":"Archer Road - S8 Sheffield"},{"id":"20519","sname":"Sainsbury's Sheffield","postcode":"0","longitude":"-1.4342822","latitude":"53.3487208","tel":"0","address":"Gleadless Road - S12 Sheffield"},{"id":"20520","sname":"Sainsbury's Dronfield","postcode":"0","longitude":"-1.4783327","latitude":"53.3059962","tel":"0","address":"Wreakes Lane - S18 Dronfield"},{"id":"20521","sname":"Sainsbury's Sheffield","postcode":"0","longitude":"-1.3513762","latitude":"53.3420277","tel":"0","address":"Lower Mall Level\nCrystal Peaks - S20 Sheffield"},{"id":"20522","sname":"Sainsbury's Rotherham","postcode":"0","longitude":"-1.3069276","latitude":"53.4214694","tel":"0","address":"1A Brecks Crescent - S65 Rotherham"},{"id":"20523","sname":"Sainsbury's Rawmarsh","postcode":"0","longitude":"-1.3481220","latitude":"53.4716363","tel":"0","address":"5 The Parade\nThorogate - S62 Rawmarsh"},{"id":"20524","sname":"Sainsbury's Sunnyside","postcode":"0","longitude":"-1.2778503","latitude":"53.4305328","tel":"0","address":"98-102 Flanderwell Lane - S66 Sunnyside"},{"id":"20525","sname":"Sainsbury's Chesterfield","postcode":"0","longitude":"-1.4193709","latitude":"53.2519193","tel":"0","address":"Rother Way - S41 Chesterfield"},{"id":"20526","sname":"Sainsbury's Conisbrough","postcode":"0","longitude":"-1.2318605","latitude":"53.4817501","tel":"0","address":"49-60 Church Street - DN12 Conisbrough"},{"id":"20527","sname":"Sainsbury's Barnsley","postcode":"0","longitude":"-1.5105685","latitude":"53.5620950","tel":"0","address":"Redbrook Road - S75 Barnsley"},{"id":"20528","sname":"Sainsbury's Barnsley","postcode":"0","longitude":"-1.4470740","latitude":"53.5684663","tel":"0","address":"2 St. Helens Way - S71 Barnsley"},{"id":"20529","sname":"Sainsbury's Barnsley","postcode":"0","longitude":"-1.4806625","latitude":"53.5861248","tel":"0","address":"88 Newstead Road - S71 Barnsley"},{"id":"20530","sname":"Sainsbury's Rhodesia","postcode":"0","longitude":"-1.1467295","latitude":"53.3105645","tel":"0","address":"Highgrounds Road\n - S80 Rhodesia"},{"id":"20531","sname":"Sainsbury's Worksop","postcode":"0","longitude":"-1.1316069","latitude":"53.3206129","tel":"0","address":"428-436 Gateford Road - S81 Worksop"},{"id":"20532","sname":"Sainsbury's Shafton","postcode":"0","longitude":"-1.4086185","latitude":"53.5912192","tel":"0","address":"Two Gates Way - S72 Shafton"},{"id":"20533","sname":"Sainsbury's Swansea","postcode":"0","longitude":"-3.9369883","latitude":"51.6206036","tel":"0","address":"Quay Parade - SA1 Swansea"},{"id":"20534","sname":"Sainsbury's Swansea","postcode":"0","longitude":"-3.9660246","latitude":"51.6181552","tel":"0","address":"41 Uplands Crescent - SA2 Swansea"},{"id":"20535","sname":"Sainsbury's Sketty","postcode":"0","longitude":"-3.9861185","latitude":"51.6183363","tel":"0","address":"102 Gower Road - SA2 Sketty"},{"id":"20536","sname":"Sainsbury's Gorseinon","postcode":"0","longitude":"-4.0426515","latitude":"51.6694529","tel":"0","address":"14 Alexandra Road - SA4 Gorseinon"},{"id":"20537","sname":"Sainsbury's Stoke-on-Trent","postcode":"0","longitude":"-2.1925878","latitude":"52.9941959","tel":"0","address":"Minton House\nLondon Road - ST4 Stoke-on-Trent"},{"id":"20538","sname":"Sainsbury's Stoke-on-Trent","postcode":"0","longitude":"-2.1965930","latitude":"53.0226235","tel":"0","address":"Etruria Road - ST1 Stoke-on-Trent"},{"id":"20539","sname":"Sainsbury's Newcastle","postcode":"0","longitude":"-2.2553027","latitude":"53.0550923","tel":"0","address":"Liverpool Road - ST5 Newcastle"},{"id":"20540","sname":"Sainsbury's Biddulph","postcode":"0","longitude":"-2.1772392","latitude":"53.1165419","tel":"0","address":"Wharf Road - ST8 Biddulph"},{"id":"20541","sname":"Sainsbury's Alsager","postcode":"0","longitude":"-2.3171560","latitude":"53.0949248","tel":"0","address":"Crewe Road - ST7 Alsager"},{"id":"20542","sname":"Sainsbury's Leek","postcode":"0","longitude":"-2.0464803","latitude":"53.0620558","tel":"0","address":"Churnet Way - ST13 Leek"},{"id":"20543","sname":"Sainsbury's Crewe","postcode":"0","longitude":"-2.4414589","latitude":"53.0921024","tel":"0","address":"Edleston Road - CW2 Crewe"},{"id":"20544","sname":"Sainsbury's Stafford","postcode":"0","longitude":"-2.1212247","latitude":"52.8079597","tel":"0","address":"Chell Road - ST16 Stafford"},{"id":"20545","sname":"Sainsbury's Nantwich","postcode":"0","longitude":"-2.5140384","latitude":"53.0763108","tel":"0","address":"Middlewich Road - CW5 Nantwich"},{"id":"20546","sname":"Sainsbury's Barnstaple","postcode":"0","longitude":"-2.1925878","latitude":"52.9941959","tel":"0","address":"Gratton Way\nRoundswell Buisness Park - EX31 Barnstaple"},{"id":"20547","sname":"Sainsbury's South Molton","postcode":"0","longitude":"-2.1965930","latitude":"53.0226235","tel":"0","address":"New Road - EX36 South Molton"},{"id":"20548","sname":"Sainsbury's Swindon","postcode":"0","longitude":"-2.2553027","latitude":"53.0550923","tel":"0","address":"4 Brunel Plaza - SN1 Swindon"},{"id":"20549","sname":"Sainsbury's Bridgemead","postcode":"0","longitude":"-1.8104189","latitude":"51.5598973","tel":"0","address":"Paddington Drive\n - SN5 Bridgemead"},{"id":"20550","sname":"Sainsbury's Swindon","postcode":"0","longitude":"-1.7409616","latitude":"51.5750255","tel":"0","address":"Oxford Road - SN3 Swindon"},{"id":"20551","sname":"Sainsbury's Wootton Bassett","postcode":"0","longitude":"-1.9050998","latitude":"51.5424123","tel":"0","address":"Borough Fields Shopping Centre - SN4 Wootton Bassett"},{"id":"20552","sname":"Sainsbury's Calne","postcode":"0","longitude":"-2.0038092","latitude":"51.4396176","tel":"0","address":"The Pippin - SN11 Calne"},{"id":"20553","sname":"Sainsbury's Gloucester","postcode":"0","longitude":"-2.2434618","latitude":"51.8669403","tel":"0","address":"63-69 Northgate Street - GL1 Gloucester"},{"id":"20554","sname":"Sainsbury's Gloucester","postcode":"0","longitude":"-2.2579732","latitude":"51.8592146","tel":"0","address":"St. Ann Way - GL2 Gloucester"},{"id":"20555","sname":"Sainsbury's Barnwood","postcode":"0","longitude":"-2.2007757","latitude":"51.8645269","tel":"0","address":"Barnett Way - GL4 Barnwood"},{"id":"20556","sname":"Sainsbury's Cheltenham","postcode":"0","longitude":"-2.1017400","latitude":"51.9181200","tel":"0","address":"Gallagher Retail Park - GL51 Cheltenham"},{"id":"20557","sname":"Sainsbury's Cheltenham","postcode":"0","longitude":"-2.0787958","latitude":"51.8900120","tel":"0","address":"135-137 Bath Road - GL53 Cheltenham"},{"id":"20558","sname":"Sainsbury's Cheltenham","postcode":"0","longitude":"-2.0717443","latitude":"51.8982034","tel":"0","address":"70-72 High Stree - GL50 Cheltenham"},{"id":"20559","sname":"Sainsbury's Stroud","postcode":"0","longitude":"-2.2402406","latitude":"51.7390921","tel":"0","address":"Dudbridge - GL5 Stroud"},{"id":"20560","sname":"Sainsbury's Cheltenham","postcode":"0","longitude":"-2.0487634","latitude":"51.9061677","tel":"0","address":"Priors Road - GL52 Cheltenham"},{"id":"20561","sname":"Sainsbury's Dursley","postcode":"0","longitude":"-2.3547100","latitude":"51.6819047","tel":"0","address":"Castle Street - GL11 Dursley"},{"id":"20562","sname":"Sainsbury's Tenby","postcode":"0","longitude":"-4.7028687","latitude":"51.6716451","tel":"0","address":"Upper Park Road - SA70 Tenby"},{"id":"20563","sname":"Sainsbury's Luton","postcode":"0","longitude":"-0.4233470","latitude":"51.8812258","tel":"0","address":"34 Dunstable Road - LU1 Luton"},{"id":"20564","sname":"Sainsbury's Luton","postcode":"0","longitude":"-0.4335033","latitude":"51.9218266","tel":"0","address":"Quantock Rise - LU3 Luton"},{"id":"20565","sname":"Sainsbury's Dunstable","postcode":"0","longitude":"-0.5107011","latitude":"51.8876485","tel":"0","address":"2-8 Luton Road - LU5 Dunstable"},{"id":"20566","sname":"Sainsbury's Harpenden","postcode":"0","longitude":"-0.3560153","latitude":"51.8161047","tel":"0","address":"31 High Street - AL5 Harpenden"},{"id":"20567","sname":"Sainsbury's Hemel Hempstead","postcode":"0","longitude":"-0.4420699","latitude":"51.7763577","tel":"0","address":"Shenley Road - HP2 Hemel Hempstead"},{"id":"20568","sname":"Sainsbury's Hitchin","postcode":"0","longitude":"-0.2728669","latitude":"51.9513959","tel":"0","address":"Whinbush Road - SG5 Hitchin"},{"id":"20569","sname":"Sainsbury's Stevenage","postcode":"0","longitude":"-0.2146521","latitude":"51.9212454","tel":"0","address":"Hitchin Road - SG1 Stevenage"},{"id":"20570","sname":"Sainsbury's Luton","postcode":"0","longitude":"-0.4233470","latitude":"51.8812258","tel":"0","address":"34 Dunstable Road - LU1 Luton"},{"id":"20571","sname":"Sainsbury's Hemel Hempstead","postcode":"0","longitude":"-0.4420699","latitude":"51.7763577","tel":"0","address":"Shenley Road - HP2 Hemel Hempstead"},{"id":"20572","sname":"Sainsbury's Northampton","postcode":"0","longitude":"-0.8943885","latitude":"52.2389670","tel":"0","address":"15 Princess Walk - NN1 Northampton"},{"id":"20573","sname":"Sainsbury's Northampton","postcode":"0","longitude":"-0.8785149","latitude":"52.2418713","tel":"0","address":"195-201 Wellingborough Road - NN1 Northampton"},{"id":"20574","sname":"Sainsbury's Northampton","postcode":"0","longitude":"-0.9355546","latitude":"52.2386718","tel":"0","address":"20 Gambrel Road\nWestgate Industrial Estate - NN5 Northampton"},{"id":"20575","sname":"Sainsbury's Wellingborough","postcode":"0","longitude":"-0.7191788","latitude":"52.2924944","tel":"0","address":"260 Northampton Road - NN8 Wellingborough"},{"id":"20576","sname":"Sainsbury's Kettering","postcode":"0","longitude":"-0.6787422","latitude":"52.3629145","tel":"0","address":"High Street\nBurton Latimer - NN15 Kettering"},{"id":"20577","sname":"Sainsbury's Kettering","postcode":"0","longitude":"-0.7271072","latitude":"52.4028198","tel":"0","address":"1-3 Rockingham Road - NN16 Kettering"},{"id":"20578","sname":"Sainsbury's Worcester","postcode":"0","longitude":"-2.2345406","latitude":"52.1872347","tel":"0","address":"Swanpool Walk - WR2 Worcester"},{"id":"20579","sname":"Sainsbury's Worcester","postcode":"0","longitude":"-2.1901817","latitude":"52.2091572","tel":"0","address":"Windermere Drive - WR4 Worcester"},{"id":"20580","sname":"Sainsbury's Kidderminster","postcode":"0","longitude":"-2.2546134","latitude":"52.3910996","tel":"0","address":"2 Carpet Trades Way - DY11 Kidderminster"},{"id":"20581","sname":"Sainsbury's Welshpool","postcode":"0","longitude":"-3.1535252","latitude":"52.6617318","tel":"0","address":"Brook Street - SY21 Welshpool"},{"id":"20582","sname":"Sainsbury's York","postcode":"0","longitude":"-1.0860311","latitude":"53.9633690","tel":"0","address":"31 Bootham - YO30 York"},{"id":"20583","sname":"Sainsbury's York","postcode":"0","longitude":"-1.0731139","latitude":"53.9631765","tel":"0","address":"Foss Bank - YO31 York"},{"id":"20584","sname":"Sainsbury's York","postcode":"0","longitude":"-1.0871860","latitude":"53.9727380","tel":"0","address":"201 Burton Stone Lane - YO30 York"},{"id":"20585","sname":"Sainsbury's York","postcode":"0","longitude":"-1.0938109","latitude":"53.9542660","tel":"0","address":"56-58 Blossom Street - YO24 York"},{"id":"20586","sname":"Sainsbury's York","postcode":"0","longitude":"-1.0854213","latitude":"53.9508369","tel":"0","address":"1 Scarcroft Road - YO23 York"},{"id":"20587","sname":"Sainsbury's York","postcode":"0","longitude":"-1.0742043","latitude":"53.9464227","tel":"0","address":"212-214 Fulford Road - YO10 York"},{"id":"20588","sname":"Sainsbury's York","postcode":"0","longitude":"-1.0339020","latitude":"53.9565371","tel":"0","address":"8-10 Farndale Avenue - YO10 York"},{"id":"20589","sname":"Sainsbury's Huntington","postcode":"0","longitude":"-1.0495954","latitude":"53.9856010","tel":"0","address":"Jockey Lane\n - YO32 Huntington"},{"id":"20590","sname":"Sainsbury's York","postcode":"0","longitude":"-1.1350452","latitude":"53.9577298","tel":"0","address":"17 Beckfield Lane - YO26 York"},{"id":"20591","sname":"Sainsbury's Pocklington","postcode":"0","longitude":"-0.7708587","latitude":"53.9200914","tel":"0","address":"The Balk - YO42 Pocklington"},{"id":"20592","sname":"Sainsbury's Selby","postcode":"0","longitude":"-1.0713801","latitude":"53.7845605","tel":"0","address":"18 Abbey Walk - YO8 Selby"},{"id":"20593","sname":"Sainsbury's Tadcaster","postcode":"0","longitude":"-1.2602146","latitude":"53.8867743","tel":"0","address":"Mill Lane - LS24 Tadcaster"},{"id":"20594","sname":"Sainsbury's Wetherby","postcode":"0","longitude":"-1.3894244","latitude":"53.9302698","tel":"0","address":"13 Crossley Street - LS22 Wetherby"},{"id":"20595","sname":"Sainsbury's York","postcode":"0","longitude":"-1.0731139","latitude":"53.9631765","tel":"0","address":"Foss Bank - YO31 York"},{"id":"20596","sname":"Sainsbury's Spalding","postcode":"0","longitude":"-0.1542468","latitude":"52.7883952","tel":"0","address":"Holland Market - PE11 Spalding"},{"id":"20597","sname":"Sainsbury's Bourne","postcode":"0","longitude":"-0.3813333","latitude":"52.7695537","tel":"0","address":"Exeter Street - PE10 Bourne"},{"id":"20598","sname":"Sainsbury's Peterborough","postcode":"0","longitude":"-0.2089682","latitude":"52.5891820","tel":"0","address":"Oxney Road - PE1 Peterborough"},{"id":"20599","sname":"Sainsbury's Bretton","postcode":"0","longitude":"-0.2836913","latitude":"52.5912122","tel":"0","address":"Flaxlands Bretton Centre\n - PE3 Bretton"},{"id":"20600","sname":"Sainsbury's King's Lynn","postcode":"0","longitude":"0.3990284","latitude":"52.7544255","tel":"0","address":"Vancouver Center - PE30 King's Lynn"},{"id":"20601","sname":"Sainsbury's King's Lynn","postcode":"0","longitude":"0.4098740","latitude":"52.7420308","tel":"0","address":"Hardwick Industrial Estate - PE30 King's Lynn"},{"id":"20602","sname":"Sainsbury's Hunstanton","postcode":"0","longitude":"0.4916692","latitude":"52.9389597","tel":"0","address":"88 Westgate - PE36 Hunstanton"},{"id":"20603","sname":"Sainsbury's Scarborough","postcode":"0","longitude":"-0.4026885","latitude":"54.2732125","tel":"0","address":"62-64 Ramshill Road - YO11 Scarborough"},{"id":"20604","sname":"Sainsbury's Scarborough","postcode":"0","longitude":"-0.4134721","latitude":"54.2769676","tel":"0","address":"Falsgrave Road - YO12 Scarborough"},{"id":"20605","sname":"Sainsbury's Scarborough","postcode":"0","longitude":"-0.4164594","latitude":"54.2635139","tel":"0","address":"1 Edgehill Road - YO12 Scarborough"},{"id":"20606","sname":"Sainsbury's Lancaster","postcode":"0","longitude":"-2.7995354","latitude":"54.0457974","tel":"0","address":"Victoria Court\n101-102 Penny Street - LA1 Lancaster"},{"id":"20607","sname":"Sainsbury's Lancaster","postcode":"0","longitude":"-2.7999286","latitude":"54.0509919","tel":"0","address":"Cable Street - LA1 Lancaster"},{"id":"20608","sname":"Sainsbury's Morecambe","postcode":"0","longitude":"-2.8469665","latitude":"54.0681904","tel":"0","address":"253 Lancaster Road - LA4 Morecambe"},{"id":"20609","sname":"Sainsbury's Preston","postcode":"0","longitude":"-2.7754320","latitude":"53.9008176","tel":"0","address":"Park Hill Road\nGarstang - PR3 Preston"},{"id":"20610","sname":"Sainsbury's Caldewgate","postcode":"0","longitude":"-2.9475655","latitude":"54.8942718","tel":"0","address":"Church Street - CA2 Caldewgate"},{"id":"20611","sname":"Sainsbury's Carlisle","postcode":"0","longitude":"-2.9367751","latitude":"54.9065808","tel":"0","address":"Unit B, Northgate\n54 Scotland Road - CA3 Carlisle"},{"id":"20612","sname":"Sainsbury's Prestwick","postcode":"0","longitude":"-4.6174254","latitude":"55.4869056","tel":"0","address":"125 Ayr Road - KA9 Prestwick"},{"id":"20613","sname":"Sainsbury's Prestwick","postcode":"0","longitude":"-4.6174254","latitude":"55.4869056","tel":"0","address":"125 Ayr Road - KA9 Prestwick"},{"id":"20614","sname":"Sainsbury's Irvine","postcode":"0","longitude":"-4.6663117","latitude":"55.6067126","tel":"0","address":"Ayr Road - KA12 Irvine"},{"id":"20615","sname":"Sainsbury's Saltcoats","postcode":"0","longitude":"-4.7903046","latitude":"55.6354859","tel":"0","address":"59-67 Hamilton Street - KA21 Saltcoats"}]