[{"id": 1, "sname": "Waitrose & Partners Abergavenny", "address": "Merthyr Road", "postcode": "NP7 9LL", "longitude": "-3.028245", "latitude": "51.818294", "tel": "01873 851184"}, {"id": 2, "sname": "Waitrose & Partners Abingdon", "address": "Abbey Close", "postcode": "OX14 3HL", "longitude": "-1.279705", "latitude": "51.672083", "tel": "01235 535003"}, {"id": 3, "sname": "Waitrose & Partners Addlestone", "address": "Market Street", "postcode": "KT15 2GL", "longitude": "-0.491695", "latitude": "51.370789", "tel": "01932 820019"}, {"id": 4, "sname": "Waitrose & Partners Admiral Park", "address": "Admiral Park", "postcode": "GY1 2AL", "longitude": null, "latitude": null, "tel": "01481 729222"}, {"id": 5, "sname": "Waitrose & Partners Alcester", "address": "Off Moorfield Road", "postcode": "B49 5DA", "longitude": "-1.870244", "latitude": "52.216453", "tel": "01789 766740"}, {"id": 6, "sname": "Waitrose & Partners ", "address": "Mid-Kent Shopping Centre, Allington Park", "postcode": "ME16 0PX", "longitude": "0.497457", "latitude": "51.286182", "tel": "01622 752274"}, {"id": 7, "sname": "Waitrose & Partners Alderley Edge", "address": "The Parade", "postcode": "SK9 7JX", "longitude": "-2.236853", "latitude": "53.302691", "tel": "01625 590 742"}, {"id": 8, "sname": "Waitrose & Partners Allington Park", "address": "Mid-Kent Shopping Centre, Allington Park", "postcode": "ME16 0PX", "longitude": "0.497457", "latitude": "51.286182", "tel": "01622 752274"}, {"id": 9, "sname": "Waitrose & Partners Alton", "address": "Station Road", "postcode": "GU34 2PZ", "longitude": "-0.968082", "latitude": "51.152703", "tel": "01420 541063"}, {"id": 10, "sname": "Waitrose & Partners Altrincham", "address": "10 Draybank Road (off Sinderland Road)", "postcode": "WA14 5ZL", "longitude": "-2.364468", "latitude": "53.405692", "tel": "0161 929 7802"}, {"id": 11, "sname": "Waitrose & Partners Amersham", "address": "46 Sycamore Road", "postcode": "HP6 5DR", "longitude": "-0.606307", "latitude": "51.677570", "tel": "01494 433434"}, {"id": 12, "sname": "Waitrose & Partners Ampthill", "address": "25 Bedford Street", "postcode": "MK45 2LU", "longitude": "-0.493385", "latitude": "52.032506", "tel": "01525 402277"}, {"id": 13, "sname": "Waitrose & Partners Andover", "address": "67 Chantry Way, The Chantry Centre", "postcode": "SP10 1LY", "longitude": "-1.481229", "latitude": "51.208503", "tel": "01264 355515"}, {"id": 14, "sname": "Waitrose & Partners Ashbourne", "address": "Shawcroft Centre", "postcode": "DE6 1GF", "longitude": "-1.733094", "latitude": "53.016636", "tel": "01335 348946"}, {"id": 15, "sname": "Waitrose & Partners Ashford", "address": "Repton Park", "postcode": "TN23 3RT", "longitude": "0.856462", "latitude": "51.155224", "tel": "01233 660082"}, {"id": 16, "sname": "Waitrose & Partners Aylesbury", "address": "Waterside", "postcode": "HP20 1AL", "longitude": "-0.807729", "latitude": "51.814595", "tel": "01296 436930"}, {"id": 17, "sname": "Waitrose & Partners Bagshot\u00a0", "address": "London Road", "postcode": "GU19 5DG", "longitude": "-0.699413", "latitude": "51.355502", "tel": "01276 472 580"}, {"id": 18, "sname": "Waitrose & Partners Bagshot Road\u00a0", "address": "Bagshot Road", "postcode": "RG12 9SE", "longitude": "-0.747918", "latitude": "51.405228", "tel": "01344 860293"}, {"id": 19, "sname": "Waitrose & Partners Balham", "address": "Balham High Road", "postcode": "SW12 9BN", "longitude": "-0.151792", "latitude": "51.444994", "tel": "020 86750319"}, {"id": 20, "sname": "Waitrose & Partners Banbury", "address": "Southam Road", "postcode": "OX16 2FW", "longitude": "-1.340825", "latitude": "52.069002", "tel": "01295 258686"}, {"id": 21, "sname": "Waitrose & Partners Banstead", "address": "102 High Street", "postcode": "SM7 2NB", "longitude": "-0.198596", "latitude": "51.322955", "tel": "01737 373550"}, {"id": 22, "sname": "Waitrose & Partners Barbican", "address": "Cherry Tree Walk Centre, Whitecross Street", "postcode": "EC1Y 8NX", "longitude": "-0.092363", "latitude": "51.521846", "tel": "020 7256 6447"}, {"id": 23, "sname": "Waitrose & Partners Barnet", "address": "16 The Spires Shopping Centre, 111 High Street", "postcode": "EN5 5XY", "longitude": "-0.203261", "latitude": "51.655374", "tel": "020 8449 1797"}, {"id": 24, "sname": "Waitrose & Partners Basingstoke", "address": "Basing View", "postcode": "RG21 4YY", "longitude": "-1.080694", "latitude": "51.268574", "tel": "01256 350828"}, {"id": 25, "sname": "Waitrose & Partners Bath", "address": "The Podium, Northgate Street", "postcode": "BA1 5AL", "longitude": "-2.359260", "latitude": "51.383510", "tel": "01225 442550"}, {"id": 26, "sname": "Waitrose & Partners Battersea", "address": "326 Queenstown Road", "postcode": "SW8 4LT", "longitude": "-0.148161", "latitude": "51.477121", "tel": "02077 209871"}, {"id": 27, "sname": "Waitrose & Partners Battersea - Nine Elms", "address": "1 New Union Sq", "postcode": "SW11 7DN", "longitude": "-0.134422", "latitude": "51.482165", "tel": "0207 622 2459"}, {"id": 28, "sname": "Waitrose & Partners Bayswater", "address": "Porchester Road", "postcode": "W2 6ES", "longitude": "-0.187706", "latitude": "51.517146", "tel": "020 7243 5714"}, {"id": 29, "sname": "Waitrose & Partners Beaconsfield", "address": "Penn Road", "postcode": "HP9 2PW", "longitude": "-0.646524", "latitude": "51.612220", "tel": "01494 676818"}, {"id": 30, "sname": "Waitrose & Partners ", "address": "St John's Well Lane", "postcode": "HP4 1HS", "longitude": "-0.566618", "latitude": "51.761858", "tel": "01442 877505"}, {"id": 31, "sname": "Waitrose & Partners Beckenham", "address": "1 Southend Road", "postcode": "BR3 1SD", "longitude": "-0.023902", "latitude": "51.412377", "tel": "020 8663 4898"}, {"id": 32, "sname": "Waitrose & Partners Bedford", "address": "Goldington Road", "postcode": "MK41 0GX", "longitude": "-0.415635", "latitude": "52.145392", "tel": "01234 273682"}, {"id": 33, "sname": "Waitrose & Partners ", "address": "St John's Well Lane", "postcode": "HP4 1HS", "longitude": "-0.566618", "latitude": "51.761858", "tel": "01442 877505"}, {"id": 34, "sname": "Waitrose & Partners Belgravia", "address": "27 Motcomb Street", "postcode": "SW1X 8GG", "longitude": "-0.157100", "latitude": "51.498997", "tel": "020 7235 4958"}, {"id": 35, "sname": "Waitrose & Partners Berkhamsted", "address": "St John's Well Lane", "postcode": "HP4 1HS", "longitude": "-0.566618", "latitude": "51.761858", "tel": "01442 877505"}, {"id": 36, "sname": "Waitrose & Partners Biggin Hill", "address": "168 Main Road", "postcode": "TN16 3BB", "longitude": "0.038489", "latitude": "51.308348", "tel": "01959 575079"}, {"id": 37, "sname": "Waitrose & Partners Billericay", "address": "112-118 High Street", "postcode": "CM12 9BY", "longitude": "0.416548", "latitude": "51.623979", "tel": "01277 636338"}, {"id": 38, "sname": "Waitrose & Partners Birmingham-Colmore Row", "address": "1 Colmore Row", "postcode": "B3 2BJ", "longitude": "-1.898378", "latitude": "52.482612", "tel": "01212 003244"}, {"id": 39, "sname": "Waitrose & Partners Bishop's Stortford", "address": "Northgate End", "postcode": "CM23 2BA", "longitude": "0.159865", "latitude": "51.872978", "tel": "01279 466556"}, {"id": 40, "sname": "Waitrose & Partners Blaby", "address": "8 John's Court, Lutterworth Road", "postcode": "LE8 4DJ", "longitude": "-1.163808", "latitude": "52.574867", "tel": "0116 2775158"}, {"id": 41, "sname": "Waitrose & Partners Bloomsbury", "address": "The Brunswick", "postcode": "WC1N 1AF", "longitude": "-0.123529", "latitude": "51.524273", "tel": "020 7713 6096"}, {"id": 42, "sname": "Waitrose & Partners Bluewater - JL Foodhall", "address": "John Lewis", "postcode": "DA9 9SA", "longitude": "0.271536", "latitude": "51.440441", "tel": "01322624123"}, {"id": 43, "sname": "Waitrose & Partners Brackley", "address": "Manor Road", "postcode": "NN13 6BE", "longitude": "-1.151135", "latitude": "52.026899", "tel": "01280 703333"}, {"id": 44, "sname": "Waitrose & Partners Bracknell", "address": "Bond Way", "postcode": "RG12 1RQ", "longitude": "-0.752195", "latitude": "51.418293", "tel": "01344 862374"}, {"id": 45, "sname": "Waitrose & Partners Brent Cross", "address": "Brent Cross Shopping Centre, Hendon Way", "postcode": "NW4 3FQ", "longitude": "-0.223792", "latitude": "51.576416", "tel": "020 8203 9711"}, {"id": 46, "sname": "Waitrose & Partners Bridport", "address": "42/44 West Street", "postcode": "DT6 3QP", "longitude": "-2.759823", "latitude": "50.733666", "tel": "01308 422252"}, {"id": 47, "sname": "Waitrose & Partners Brighton", "address": "130-134 Western Road", "postcode": "BN1 2LA", "longitude": "-0.151267", "latitude": "50.824953", "tel": "01273 326549"}, {"id": 48, "sname": "Waitrose & Partners Brighton Road - Horley", "address": "Brighton Road", "postcode": "RH6 7JU", "longitude": "-0.163675", "latitude": "51.180569", "tel": "01293 785646"}, {"id": 49, "sname": "Waitrose & Partners Bromley", "address": "129 Burnt Ash Lane", "postcode": "BR1 5AJ", "longitude": "0.021064", "latitude": "51.421089", "tel": "020 8460 7650"}, {"id": 50, "sname": "Waitrose & Partners Bromley South", "address": "45 Masons Hill", "postcode": "BR2 9HD", "longitude": "0.018149", "latitude": "51.398999", "tel": "020 8460 7752"}, {"id": 51, "sname": "Waitrose & Partners Bromsgrove", "address": "St John Street", "postcode": "B61 7JH", "longitude": "-2.064482", "latitude": "52.332687", "tel": "01527 876189"}, {"id": 52, "sname": "Waitrose & Partners Broxbourne", "address": "High Road", "postcode": "EN10 6PY", "longitude": "-0.022220", "latitude": "51.738505", "tel": "01992 443165"}, {"id": 53, "sname": "Waitrose & Partners Buckhurst Hill", "address": "27 Queens Road", "postcode": "IG9 5EP", "longitude": "0.044986", "latitude": "51.625447", "tel": "020 8506 1331"}, {"id": 54, "sname": "Waitrose & Partners Buckingham", "address": "Meadow Walk, High Street", "postcode": "MK18 1RS", "longitude": "-0.985353", "latitude": "52.000708", "tel": "01280 813479"}, {"id": 55, "sname": "Waitrose & Partners Burgess Hill", "address": "Market Place", "postcode": "RH15 9NP", "longitude": "-0.131244", "latitude": "50.955078", "tel": "01444 230092"}, {"id": 56, "sname": "Waitrose & Partners Burgh Heath", "address": "Burgh Heath, Brighton Road, Tadworth", "postcode": "KT20 6BX", "longitude": "-0.219711", "latitude": "51.303980", "tel": "01737 362577"}, {"id": 57, "sname": "Waitrose & Partners Burnt Common", "address": "Portsmouth Road", "postcode": "GU23 7JY", "longitude": "-0.512846", "latitude": "51.282099", "tel": "01483 223469"}, {"id": 58, "sname": "Waitrose & Partners Bury St Edmunds", "address": "Robert Boby Way", "postcode": "IP33 3DH", "longitude": "0.707987", "latitude": "52.243416", "tel": "01284 725222"}, {"id": 59, "sname": "Waitrose & Partners Buxton", "address": "33 Spring Garden Centre", "postcode": "SK17 6DF", "longitude": "-1.911921", "latitude": "53.259595", "tel": "01298 767469"}, {"id": 60, "sname": "Waitrose & Partners Byres Road", "address": "373 Byres Road", "postcode": "G12 8AU", "longitude": "-4.291378", "latitude": "55.877402", "tel": "0141 337 3314"}, {"id": 61, "sname": "Waitrose & Partners Caldicot", "address": "43 Newport Road", "postcode": "NP26 4UX", "longitude": "-2.752307", "latitude": "51.590264", "tel": "01291 421017"}, {"id": 62, "sname": "Waitrose & Partners Cambridge", "address": "50 Hauxton Road", "postcode": "CB2 9FT", "longitude": "0.107819", "latitude": "52.169772", "tel": "01223 845777"}, {"id": 63, "sname": "Waitrose & Partners Cambridge- Fitzroy Street", "address": "6-8 Fitzroy Street", "postcode": "CB1 1EW", "longitude": "0.130594", "latitude": "52.206608", "tel": "01223 301128"}, {"id": 64, "sname": "Waitrose & Partners Camden", "address": "131-133 Camden High Street", "postcode": "NW1 7JR", "longitude": "-0.141980", "latitude": "51.537491", "tel": "020 7267 9383"}, {"id": 65, "sname": "Waitrose & Partners Canary Wharf", "address": "Canada Place, Canada Square", "postcode": "E14 5EW", "longitude": "-0.016226", "latitude": "51.504577", "tel": "020 7719 0300"}, {"id": 66, "sname": "Waitrose & Partners Canterbury", "address": "St. Georges Centre", "postcode": "CT1 1UL", "longitude": "1.086042", "latitude": "51.276294", "tel": "01227 785802"}, {"id": 67, "sname": "Waitrose & Partners Caterham", "address": "2 Station Avenue", "postcode": "CR3 6LB", "longitude": "-0.077885", "latitude": "51.281935", "tel": "01883 346173"}, {"id": 68, "sname": "Waitrose & Partners Caversham", "address": "51 Church Street", "postcode": "RG4 8AY", "longitude": "-0.973645", "latitude": "51.467252", "tel": "0118 9482912"}, {"id": 69, "sname": "Waitrose & Partners Chandlers Ford", "address": "1 Oakmount Road, Chandler's Ford", "postcode": "SO53 2LG", "longitude": "-1.373075", "latitude": "50.986891", "tel": "02380 260230"}, {"id": 70, "sname": "Waitrose & Partners Cheadle Hulme", "address": "Station Road", "postcode": "SK8 5AE", "longitude": "-2.190112", "latitude": "53.377201", "tel": "0161 486 1702"}, {"id": 71, "sname": "Waitrose & Partners Cheam", "address": "28 The Broadway", "postcode": "SM3 8BD", "longitude": "-0.216378", "latitude": "51.358936", "tel": "02086 438438"}, {"id": 72, "sname": "Waitrose & Partners Cheltenham", "address": "Honeybourne Way", "postcode": "GL50 3QW", "longitude": "-2.083824", "latitude": "51.901938", "tel": "01242 241425"}, {"id": 73, "sname": "Waitrose & Partners Chesham", "address": "The Backs", "postcode": "HP5 1DR", "longitude": "-0.611018", "latitude": "51.707002", "tel": "01494 791711"}, {"id": 74, "sname": "Waitrose & Partners Chester", "address": "71 Boughton, Chester", "postcode": "CH3 5AF", "longitude": "-2.879014", "latitude": "53.192461", "tel": "01244 342900"}, {"id": 75, "sname": "Waitrose & Partners Chichester", "address": "Via Ravenna", "postcode": "PO19 1RD", "longitude": "-0.785585", "latitude": "50.832334", "tel": "01243 537512"}, {"id": 76, "sname": "Waitrose & Partners Chippenham", "address": "Unit 32 , Borough Parade", "postcode": "SN15 3WL", "longitude": "-2.116938", "latitude": "51.458394", "tel": "01249 462987"}, {"id": 77, "sname": "Waitrose & Partners Chipping Sodbury", "address": "Wickwar Road", "postcode": "BS37 6AU", "longitude": "-2.396312", "latitude": "51.540449", "tel": "01454 326512"}, {"id": 78, "sname": "Waitrose & Partners Chiswick", "address": "356-362 Chiswick High Road", "postcode": "W4 5TA", "longitude": "-0.262436", "latitude": "51.492629", "tel": "0208 994 6058"}, {"id": 79, "sname": "Waitrose & Partners Christchurch", "address": "33 Bargates", "postcode": "BH23 1QD", "longitude": "-1.779396", "latitude": "50.736503", "tel": "01202 496682"}, {"id": 80, "sname": "Waitrose & Partners Cirencester", "address": "Sheep Street", "postcode": "GL7 1SZ", "longitude": "-1.971251", "latitude": "51.713416", "tel": "01285 643 733"}, {"id": 81, "sname": "Waitrose & Partners Clapham Common", "address": "5 The Pavement", "postcode": "SW4 0HY", "longitude": "-0.139259", "latitude": "51.462044", "tel": "0203 202 0046"}, {"id": 82, "sname": "Waitrose & Partners Clapham Junction", "address": "40-44 St John's Road, Clapham Junction", "postcode": "SW11 1PW", "longitude": "-0.167921", "latitude": "51.462774", "tel": "020 7978 7405"}, {"id": 83, "sname": "Waitrose & Partners Clerkenwell", "address": "The Pavillion, 85 Queens Road", "postcode": "BS8 1QS", "longitude": "-2.608449", "latitude": "51.457131", "tel": "01179 300434"}, {"id": 84, "sname": "Waitrose & Partners Clerkenwell", "address": "174 St John Street", "postcode": "EC1V 4DE", "longitude": "-0.102786", "latitude": "51.524254", "tel": "020 7253 1971"}, {"id": 85, "sname": "Waitrose & Partners Clifton", "address": "The Pavillion, 85 Queens Road", "postcode": "BS8 1QS", "longitude": "-2.608449", "latitude": "51.457131", "tel": "01179 300434"}, {"id": 86, "sname": "Waitrose & Partners Cobham", "address": "16 Between Streets", "postcode": "KT11 1AF", "longitude": "-0.413945", "latitude": "51.330107", "tel": "01932 865355"}, {"id": 87, "sname": "Waitrose & Partners Colchester", "address": "St Andrews Avenue", "postcode": "CO4 3EQ", "longitude": "0.921191", "latitude": "51.893701", "tel": "01206 861230"}, {"id": 88, "sname": "Waitrose & Partners Comely Bank", "address": "38 Comely Bank Road", "postcode": "EH4 1AW", "longitude": "-3.219402", "latitude": "55.959311", "tel": "0131 332 6312"}, {"id": 89, "sname": "Waitrose & Partners Coulsdon", "address": "112 Brighton Road", "postcode": "CR5 2NB", "longitude": "-0.136553", "latitude": "51.322289", "tel": "020 8668 6655"}, {"id": 90, "sname": "Waitrose & Partners Cowbridge", "address": "Birds Lane", "postcode": "CF71 7AG", "longitude": "-3.447873", "latitude": "51.461702", "tel": "01446 774 921"}, {"id": 91, "sname": "Waitrose & Partners Crewkerne", "address": "South Street", "postcode": "TA18 8DA", "longitude": "-2.794360", "latitude": "50.882896", "tel": "01460 72470"}, {"id": 92, "sname": "Waitrose & Partners Crouch End", "address": "35-39 The Broadway", "postcode": "N8 8DU", "longitude": "-0.124119", "latitude": "51.578992", "tel": "02083 481241"}, {"id": 93, "sname": "Waitrose & Partners Crowborough", "address": "Croft Road", "postcode": "TN6 1DL", "longitude": "0.161938", "latitude": "51.058455", "tel": "01892 662864"}, {"id": 94, "sname": "Waitrose & Partners Croydon", "address": "24-27 Norfolk House, George Street", "postcode": "CR0 1LG", "longitude": "-0.096194", "latitude": "51.374536", "tel": "020 8688 9541"}, {"id": 95, "sname": "Waitrose & Partners Daventry", "address": "13 Bowen Square", "postcode": "NN11 4DR", "longitude": "-1.161646", "latitude": "52.257267", "tel": "01327 705939"}, {"id": 96, "sname": "Waitrose & Partners Dibden (Hythe), Hampshire", "address": "49 High Street", "postcode": "SO45 6AG", "longitude": "-1.398446", "latitude": "50.870132", "tel": "023 8084 4717"}, {"id": 97, "sname": "Waitrose & Partners Dorchester", "address": "Tudor Arcade, South Street", "postcode": "DT1 1BN", "longitude": "-2.436197", "latitude": "50.714339", "tel": "01305 268420"}, {"id": 98, "sname": "Waitrose & Partners Dorking", "address": "48 South Street, Dorking", "postcode": "RH4 2HQ", "longitude": "-0.333710", "latitude": "51.231297", "tel": "01306 881171"}, {"id": 99, "sname": "Waitrose & Partners Droitwich", "address": "Saltway", "postcode": "WR9 8LB", "longitude": "-2.145602", "latitude": "52.268784", "tel": "01905 798397"}, {"id": 100, "sname": "Waitrose & Partners Ealing", "address": "29-31 Hanger Lane", "postcode": "W5 3HJ", "longitude": "-0.290845", "latitude": "51.516077", "tel": "0208 9919560"}, {"id": 101, "sname": "Waitrose & Partners East Cowes", "address": "Well Road", "postcode": "PO32 6SP", "longitude": "-1.288424", "latitude": "50.758164", "tel": "01983 282413"}, {"id": 102, "sname": "Waitrose & Partners East Grinstead", "address": "West Street", "postcode": "RH19 4YZ", "longitude": "-0.010925", "latitude": "51.123635", "tel": "01342 323724"}, {"id": 103, "sname": "Waitrose & Partners East Putney", "address": "Waitrose Ltd", "postcode": "SW15 2TD", "longitude": "-0.211554", "latitude": "51.459392", "tel": "02087 851684"}, {"id": 104, "sname": "Waitrose & Partners East Sheen", "address": "292 Upper Richmond Road West", "postcode": "SW14 7JG", "longitude": "-0.269248", "latitude": "51.464367", "tel": "020 8878 4792"}, {"id": 105, "sname": "Waitrose & Partners Eastbourne", "address": "High Street, Old Town", "postcode": "BN21 1HR", "longitude": "0.267739", "latitude": "50.772774", "tel": "01323 644505"}, {"id": 106, "sname": "Waitrose & Partners Edenbridge", "address": "Mont St Aignan Way", "postcode": "TN8 5LN", "longitude": "0.064284", "latitude": "51.195339", "tel": "01732867046"}, {"id": 107, "sname": "Waitrose & Partners Edgware Road", "address": "168-176 Edgware Road", "postcode": "W2 2DS", "longitude": "-0.166246", "latitude": "51.517727", "tel": "020 77259750"}, {"id": 108, "sname": "Waitrose & Partners Egham\u00a0", "address": "Church Road", "postcode": "TW20 9HZ", "longitude": "-0.546661", "latitude": "51.431742", "tel": "01784479833"}, {"id": 109, "sname": "Waitrose & Partners Eldon Square", "address": "9-11 St Georges Way, Eldon Square Shopping Centre", "postcode": "NE1 7JD", "longitude": "-1.615280", "latitude": "54.975017", "tel": "0191 233 2816"}, {"id": 110, "sname": "Waitrose & Partners Ely", "address": "Bray's Lane", "postcode": "CB7 4QJ", "longitude": "0.268705", "latitude": "52.400894", "tel": "01353 668800"}, {"id": 111, "sname": "Waitrose & Partners Enfield", "address": "Palace Gardens Shopping Centre", "postcode": "EN2 6SN", "longitude": "-0.083494", "latitude": "51.651256", "tel": "020 8366  6876"}, {"id": 112, "sname": "Waitrose & Partners Enfield Chase", "address": "38 - 40 Windmill Hill", "postcode": "EN2 7AS", "longitude": "-0.092482", "latitude": "51.653416", "tel": "02083 666525"}, {"id": 113, "sname": "Waitrose & Partners Epsom", "address": "54 Ashley Centre", "postcode": "KT18 5DB", "longitude": "-0.268622", "latitude": "51.332158", "tel": "01372 725668"}, {"id": 114, "sname": "Waitrose & Partners Esher", "address": "105 High Street", "postcode": "KT10 9QE", "longitude": "-0.366962", "latitude": "51.368120", "tel": "01372 468826"}, {"id": 115, "sname": "Waitrose & Partners Exeter", "address": "Gladstone Road", "postcode": "EX1 2ED", "longitude": "-3.514024", "latitude": "50.724387", "tel": "01392 276748"}, {"id": 116, "sname": "Waitrose & Partners Farringdon", "address": "Unit 1", "postcode": "SN7 7GQ", "longitude": "-1.575547", "latitude": "51.650249", "tel": "01367 242602"}, {"id": 117, "sname": "Waitrose & Partners Farnham", "address": "The Hart", "postcode": "GU9 7HD", "longitude": "-0.802169", "latitude": "51.215510", "tel": "01252 719300"}, {"id": 118, "sname": "Waitrose & Partners Finchley", "address": "273 Ballards Lane", "postcode": "N12 8NR", "longitude": "-0.179779", "latitude": "51.611324", "tel": "020 8343 7303"}, {"id": 119, "sname": "Waitrose & Partners Finchley Central", "address": "Gateway House", "postcode": "N3 2LN", "longitude": "-0.194755", "latitude": "51.600157", "tel": "0208 346 1974"}, {"id": 120, "sname": "Waitrose & Partners Fleet", "address": "Unit A, The Hart Centre", "postcode": "GU51 3LA", "longitude": "-0.841504", "latitude": "51.280883", "tel": "01252 812695"}, {"id": 121, "sname": "Waitrose & Partners Formby", "address": "Three Tuns Lane", "postcode": "L37 4AJ", "longitude": "-3.058383", "latitude": "53.555466", "tel": "01704 873017"}, {"id": 122, "sname": "Waitrose & Partners Four Oaks", "address": "7 Highgate Centre, Belwell Lane", "postcode": "B74 4AB", "longitude": "-1.831773", "latitude": "52.587639", "tel": "0121 3086006"}, {"id": 123, "sname": "Waitrose & Partners Frimley", "address": "High Street", "postcode": "GU16 7JD", "longitude": "-0.744138", "latitude": "51.314419", "tel": "01276 27477"}, {"id": 124, "sname": "Waitrose & Partners Fulham", "address": "402 North End Road", "postcode": "SW6 1LX", "longitude": "-0.199502", "latitude": "51.480312", "tel": "020 7385 4566"}, {"id": 125, "sname": "Waitrose & Partners Fulham Palace Road", "address": "201-207 Fulham Palace Road", "postcode": "W6 8QX", "longitude": "-0.219542", "latitude": "51.484188", "tel": "020 7381 6755"}, {"id": 126, "sname": "Waitrose & Partners Gerrards Cross", "address": "31-33 Station Road", "postcode": "SL9 8ES", "longitude": "-0.551109", "latitude": "51.588217", "tel": "01753 888444"}, {"id": 127, "sname": "Waitrose & Partners ", "address": "Chantry Fields", "postcode": "SP8 4UA", "longitude": "-2.275914", "latitude": "51.035823", "tel": "01747 826200"}, {"id": 128, "sname": "Waitrose & Partners Gillingham", "address": "Chantry Fields", "postcode": "SP8 4UA", "longitude": "-2.275914", "latitude": "51.035823", "tel": "01747 826200"}, {"id": 129, "sname": "Waitrose & Partners Gloucester Road", "address": "Gloucester Arcade, 128 Gloucester Road", "postcode": "SW7 4SF", "longitude": "-0.183082", "latitude": "51.494519", "tel": "020 7370 2424"}, {"id": 130, "sname": "Waitrose & Partners Godalming", "address": "11-14 Bridge Street", "postcode": "GU7 1HY", "longitude": "-0.609460", "latitude": "51.186416", "tel": "01483 418161"}, {"id": 131, "sname": "Waitrose & Partners Goldsworth Park", "address": "1 Goldsworth Park Centre, Denton Way", "postcode": "GU21 3LG", "longitude": "-0.590697", "latitude": "51.318796", "tel": "01483 725754"}, {"id": 132, "sname": "Waitrose & Partners Gosport", "address": "129 Stoke Road", "postcode": "PO12 1SD", "longitude": "-1.135607", "latitude": "50.792519", "tel": "023 92511266"}, {"id": 133, "sname": "Waitrose & Partners Great Malvern", "address": "Edith Walk", "postcode": "WR14 4WR", "longitude": "-2.328429", "latitude": "52.112595", "tel": "01684 560007"}, {"id": 134, "sname": "Waitrose & Partners Green Street Green", "address": "11 High Street", "postcode": "BR6 6BG", "longitude": "0.089996", "latitude": "51.354366", "tel": "01689 853090"}, {"id": 135, "sname": "Waitrose & Partners Greenwich", "address": "New Capital Quay", "postcode": "SE10 9DD", "longitude": "-0.014331", "latitude": "51.482170", "tel": "020 8293 9599"}, {"id": 136, "sname": "Waitrose & Partners Guildford", "address": "York Road", "postcode": "GU1 4QG", "longitude": "-0.574620", "latitude": "51.238948", "tel": "01483 453968"}, {"id": 137, "sname": "Waitrose & Partners Guildford - Worplesdon Road", "address": "200-202 Worplesdon Road", "postcode": "GU2 9UY", "longitude": "-0.594088", "latitude": "51.256617", "tel": "01483 459887"}, {"id": 138, "sname": "Waitrose & Partners Hailsham", "address": "Vicarage Field", "postcode": "BN27 1BE", "longitude": "0.260073", "latitude": "50.864077", "tel": "01323 846708"}, {"id": 139, "sname": "Waitrose & Partners Hall Green", "address": "1332 Stratford Road", "postcode": "B28 9EF", "longitude": "-1.841381", "latitude": "52.427990", "tel": "01217 784253"}, {"id": 140, "sname": "Waitrose & Partners Hampton", "address": "72 Oldfield Road", "postcode": "TW12 2HQ", "longitude": "-0.373641", "latitude": "51.415603", "tel": "02089 797369"}, {"id": 141, "sname": "Waitrose & Partners Harborne", "address": "210 High Street", "postcode": "B17 9PP", "longitude": "-1.949080", "latitude": "52.458591", "tel": "0121 428 4044"}, {"id": 142, "sname": "Waitrose & Partners Harpenden", "address": "3 Leyton Road", "postcode": "AL5 2TJ", "longitude": "-0.357144", "latitude": "51.815685", "tel": "01582 765161"}, {"id": 143, "sname": "Waitrose & Partners Harrogate", "address": "92 Station Parade", "postcode": "HG1 1HD", "longitude": "-1.536241", "latitude": "53.989854", "tel": "01423 501333"}, {"id": 144, "sname": "Waitrose & Partners Harrow Weald", "address": "350 High Road", "postcode": "HA3 6HF", "longitude": "-0.339606", "latitude": "51.605340", "tel": "020 886 13911"}, {"id": 145, "sname": "Waitrose & Partners Haslemere", "address": "11-15 West Street", "postcode": "GU27 2AB", "longitude": "-0.710236", "latitude": "51.089011", "tel": "01428 644722"}, {"id": 146, "sname": "Waitrose & Partners Havant", "address": "12-22 North Street", "postcode": "PO9 1PR", "longitude": "-0.981213", "latitude": "50.851832", "tel": "023 9245 1230"}, {"id": 147, "sname": "Waitrose & Partners Hawkhurst", "address": "Rye Rd", "postcode": "TN18 4JB", "longitude": "0.511490", "latitude": "51.046997", "tel": "015 8075 2843"}, {"id": 148, "sname": "Waitrose & Partners Haywards Heath", "address": "Waitrose Haywards Heath", "postcode": "RH16 3DP", "longitude": "-0.103741", "latitude": "51.005277", "tel": "01444 441251"}, {"id": 149, "sname": "Waitrose & Partners Hazlemere", "address": "High Wycombe", "postcode": "HP15 7LG", "longitude": "-0.713128", "latitude": "51.651732", "tel": "01494 716854"}, {"id": 150, "sname": "Waitrose & Partners Headington", "address": "9-11 Old High Street", "postcode": "OX3 9HP", "longitude": "-1.211112", "latitude": "51.761394", "tel": "01865 308806"}, {"id": 151, "sname": "Waitrose & Partners Headington - London Road", "address": "London Road", "postcode": "OX3 7RD", "longitude": "-1.213994", "latitude": "51.759531", "tel": "01865 750299"}, {"id": 152, "sname": "Waitrose & Partners Heathfield", "address": "Station Road", "postcode": "TN21 8DF", "longitude": "0.253409", "latitude": "50.968052", "tel": "01435 867 965"}, {"id": 153, "sname": "Waitrose & Partners Helensburgh", "address": "Cardross Road", "postcode": "G84 7LA", "longitude": "-4.701032", "latitude": "55.995091", "tel": "01436 675533"}, {"id": 154, "sname": "Waitrose & Partners Henley-on-Thames", "address": "33 Bell Street", "postcode": "RG9 2BA", "longitude": "-0.905023", "latitude": "51.538566", "tel": "01491 410440"}, {"id": 155, "sname": "Waitrose & Partners Hereford", "address": "Unit 10", "postcode": "HR4 9HX", "longitude": "-2.718925", "latitude": "52.058084", "tel": "01432 343840"}, {"id": 156, "sname": "Waitrose & Partners Hersham", "address": "Molesey Road", "postcode": "KT12 4HL", "longitude": "-0.399100", "latitude": "51.365218", "tel": "01932 244794"}, {"id": 157, "sname": "Waitrose & Partners ", "address": "Marlow Hill", "postcode": "HP11 1TJ", "longitude": "-0.760498", "latitude": "51.615115", "tel": "01494 441652"}, {"id": 158, "sname": "Waitrose & Partners Hexham", "address": "Wentworth Park", "postcode": "NE46 3PJ", "longitude": "-2.098948", "latitude": "54.972753", "tel": "01434 600394"}, {"id": 159, "sname": "Waitrose & Partners ", "address": "Marlow Hill", "postcode": "HP11 1TJ", "longitude": "-0.760498", "latitude": "51.615115", "tel": "01494 441652"}, {"id": 160, "sname": "Waitrose & Partners High Holborn", "address": "Weston House", "postcode": "WC1V 7EX", "longitude": "-0.118780", "latitude": "51.517425", "tel": "02078 313550"}, {"id": 161, "sname": "Waitrose & Partners High Wycombe\u00a0", "address": "Marlow Hill", "postcode": "HP11 1TJ", "longitude": "-0.760498", "latitude": "51.615115", "tel": "01494 441652"}, {"id": 162, "sname": "Waitrose & Partners Highbury Corner", "address": "28-32 Highbury Corner", "postcode": "N5 1RD", "longitude": "-0.103742", "latitude": "51.546706", "tel": "02076 096591"}, {"id": 163, "sname": "Waitrose & Partners Hitchin", "address": "The Lairage, Bedford Road", "postcode": "SG5 1HF", "longitude": "-0.283031", "latitude": "51.950465", "tel": "01462 423399"}, {"id": 164, "sname": "Waitrose & Partners Holloway Road", "address": "366 Holloway Road", "postcode": "N7 6PA", "longitude": "-0.115986", "latitude": "51.555805", "tel": "020 7700 3717"}, {"id": 165, "sname": "Waitrose & Partners Holsworthy", "address": "Station Road", "postcode": "EX22 6AZ", "longitude": "-4.352821", "latitude": "50.808587", "tel": "01409 255460"}, {"id": 166, "sname": "Waitrose & Partners Horley", "address": "26 Victoria Road", "postcode": "RH6 7PZ", "longitude": "-0.162757", "latitude": "51.171298", "tel": "01293 820002"}, {"id": 167, "sname": "Waitrose & Partners Horsham", "address": "Albion Way", "postcode": "RH12 1AJ", "longitude": "-0.335413", "latitude": "51.061713", "tel": "01403 275 313"}, {"id": 168, "sname": "Waitrose & Partners Hove", "address": "Nevill Road", "postcode": "BN3 7BZ", "longitude": "-0.177022", "latitude": "50.842482", "tel": "01273 329901"}, {"id": 169, "sname": "Waitrose & Partners Hythe (Kent)", "address": "Prospect Road", "postcode": "CT21 5NH", "longitude": "1.088941", "latitude": "51.071992", "tel": "01303 230318"}, {"id": 170, "sname": "Waitrose & Partners Ipswich", "address": "Futura Park", "postcode": "IP3 9SQ", "longitude": "1.201984", "latitude": "52.034403", "tel": "01473 719826"}, {"id": 171, "sname": "Waitrose & Partners Ipswich- Corn Exchange", "address": "Corn Exchange", "postcode": "IP1 1AS", "longitude": "1.152467", "latitude": "52.057472", "tel": "01473 251830"}, {"id": 172, "sname": "Waitrose & Partners Islington", "address": "21 Liverpool Road", "postcode": "N1 0RW", "longitude": "-0.107122", "latitude": "51.533778", "tel": "020 7278 2207"}, {"id": 173, "sname": "Waitrose & Partners Jesmond", "address": "87 - 89 Osborne Road", "postcode": "NE2 2AN", "longitude": "-1.604258", "latitude": "54.991660", "tel": "01912 810024"}, {"id": 174, "sname": "Waitrose & Partners John Barnes", "address": "199 Finchley Road", "postcode": "NW3 6NN", "longitude": "-0.179884", "latitude": "51.546563", "tel": "020 7624 0453"}, {"id": 175, "sname": "Waitrose & Partners Kenilworth", "address": "51 Bertie Road", "postcode": "CV8 1JP", "longitude": "-1.575817", "latitude": "52.341510", "tel": "01926 858461"}, {"id": 176, "sname": "Waitrose & Partners Kensington", "address": "243 Kensington High Street", "postcode": "W8 6SA", "longitude": "-0.197250", "latitude": "51.499200", "tel": "020 7795 6608"}, {"id": 177, "sname": "Waitrose & Partners Kensington Gardens", "address": "104 - 105 Bayswater Road", "postcode": "W2 3HJ", "longitude": "-0.183227", "latitude": "51.510789", "tel": "02072 623714"}, {"id": 178, "sname": "Waitrose & Partners Keynsham", "address": "Broadmead Lane", "postcode": "BS31 1ST", "longitude": "-2.481869", "latitude": "51.420935", "tel": "01179866633"}, {"id": 179, "sname": "Waitrose & Partners ", "address": "196 Kings Road", "postcode": "SW3 5XP", "longitude": "-0.166990", "latitude": "51.488424", "tel": "020 7351 2775"}, {"id": 180, "sname": "Waitrose & Partners Kings Cross", "address": "1 Wharf Road", "postcode": "N1C 4BZ", "longitude": "-0.122551", "latitude": "51.535869", "tel": "0207 372 5330"}, {"id": 181, "sname": "Waitrose & Partners Kings Cross Station", "address": "Unit 4, Concourse", "postcode": "N1C 4AP", "longitude": "-0.123297", "latitude": "51.532380", "tel": "02072 782479"}, {"id": 182, "sname": "Waitrose & Partners ", "address": "196 Kings Road", "postcode": "SW3 5XP", "longitude": "-0.166990", "latitude": "51.488424", "tel": "020 7351 2775"}, {"id": 183, "sname": "Waitrose & Partners Kings Hill", "address": "Fortune Way", "postcode": "ME19 4QJ", "longitude": "0.403280", "latitude": "51.272298", "tel": "01732 871478"}, {"id": 184, "sname": "Waitrose & Partners Kings Road", "address": "196 Kings Road", "postcode": "SW3 5XP", "longitude": "-0.166990", "latitude": "51.488424", "tel": "020 7351 2775"}, {"id": 185, "sname": "Waitrose & Partners Kingsthorpe", "address": "118-120 Brompton Road", "postcode": "SW3 1JE", "longitude": "-0.165165", "latitude": "51.499069", "tel": "02075 893592"}, {"id": 186, "sname": "Waitrose & Partners Kingsthorpe", "address": "The Kingsthorpe Centre, Harborough Road", "postcode": "NN2 7BD", "longitude": "-0.901201", "latitude": "52.262586", "tel": "01604 791434"}, {"id": 187, "sname": "Waitrose & Partners Kingston", "address": "118-120 Brompton Road", "postcode": "SW3 1JE", "longitude": "-0.165165", "latitude": "51.499069", "tel": "02075 893592"}, {"id": 188, "sname": "Waitrose & Partners Kingston", "address": "Wood Street", "postcode": "KT1 1TG", "longitude": "-0.305709", "latitude": "51.412564", "tel": "020 8547 3457"}, {"id": 189, "sname": "Waitrose & Partners Knightsbridge", "address": "118-120 Brompton Road", "postcode": "SW3 1JE", "longitude": "-0.165165", "latitude": "51.499069", "tel": "02075 893592"}, {"id": 190, "sname": "Waitrose & Partners Knutsford", "address": "28-30 Princess Street", "postcode": "WA16 6BU", "longitude": "-2.375307", "latitude": "53.304070", "tel": "01565 755851"}, {"id": 191, "sname": "Waitrose & Partners Leatherhead", "address": "14-22 Church Street", "postcode": "KT22 8DW", "longitude": "-0.329242", "latitude": "51.294524", "tel": "01372 373855"}, {"id": 192, "sname": "Waitrose & Partners ", "address": "1231/1241 London Road", "postcode": "SS9 3JQ", "longitude": "0.655101", "latitude": "51.548584", "tel": "01702 483871"}, {"id": 193, "sname": "Waitrose & Partners Leigh On Sea", "address": "1231/1241 London Road", "postcode": "SS9 3JQ", "longitude": "0.655101", "latitude": "51.548584", "tel": "01702 483871"}, {"id": 194, "sname": "Waitrose & Partners Leighton Buzzard", "address": "9 Waterborne Walk", "postcode": "LU7 1DH", "longitude": "-0.663544", "latitude": "51.916754", "tel": "01525 378334"}, {"id": 195, "sname": "Waitrose & Partners Lewes", "address": "Eastgate Street", "postcode": "BN7 2LP", "longitude": "0.014422", "latitude": "50.874435", "tel": "01273 486286"}, {"id": 196, "sname": "Waitrose & Partners Lichfield", "address": "Darwin Park", "postcode": "WS13 6RX", "longitude": "-1.842172", "latitude": "52.673624", "tel": "01543 419088"}, {"id": 197, "sname": "Waitrose & Partners Lincoln", "address": "Searby Road", "postcode": "LN2 4DS", "longitude": "-0.520806", "latitude": "53.251326", "tel": "01522 510500"}, {"id": 198, "sname": "Waitrose & Partners Locks Heath", "address": "Centre Way", "postcode": "SO31 6DX", "longitude": "-1.274980", "latitude": "50.863576", "tel": "01489 578696"}, {"id": 199, "sname": "Waitrose & Partners Longfield", "address": "63 Station Road", "postcode": "DA3 7QA", "longitude": "0.300735", "latitude": "51.396371", "tel": "01474 708932"}, {"id": 200, "sname": "Waitrose & Partners Lutterworth", "address": "Lower Leicester Road", "postcode": "LE17 4NF", "longitude": "-1.199138", "latitude": "52.458761", "tel": "01455 557925"}, {"id": 201, "sname": "Waitrose & Partners Lymington", "address": "Stanford Road", "postcode": "SO41 9GF", "longitude": "-1.549581", "latitude": "50.757146", "tel": "01590 671949"}, {"id": 202, "sname": "Waitrose & Partners Maidenhead", "address": "48 Moorbridge Road", "postcode": "SL6 8AF", "longitude": "-0.714723", "latitude": "51.523131", "tel": "01628 777123"}, {"id": 203, "sname": "Waitrose & Partners Malmesbury", "address": "Waitrose", "postcode": "SN16 9FS", "longitude": "-2.092690", "latitude": "51.580960", "tel": "01666825025"}, {"id": 204, "sname": "Waitrose & Partners Manchester, Spinningfields", "address": "Manchester House, Bridge Street", "postcode": "M3 3BN", "longitude": "-2.249115", "latitude": "53.480694", "tel": "01618 331607"}, {"id": 205, "sname": "Waitrose & Partners Manchester Piccadilly", "address": "12-15 Gateway House", "postcode": "M12GH", "longitude": "-2.231714", "latitude": "53.478392", "tel": "01612 373396"}, {"id": 206, "sname": "Waitrose & Partners Market Harborough", "address": "Springfield Street", "postcode": "LE16 8BD", "longitude": "-0.915974", "latitude": "52.475466", "tel": "01858469155"}, {"id": 207, "sname": "Waitrose & Partners Marlborough", "address": "17 High Street", "postcode": "SN8 1AA", "longitude": "-1.729931", "latitude": "51.420942", "tel": "01672 513337"}, {"id": 208, "sname": "Waitrose & Partners Marlow", "address": "Chapel House, Chapel Street", "postcode": "SL7 1DD", "longitude": "-0.775079", "latitude": "51.573352", "tel": "01628 483464"}, {"id": 209, "sname": "Waitrose & Partners Marylebone", "address": "98-101 Marylebone High Street", "postcode": "W1U 4SD", "longitude": "-0.152077", "latitude": "51.519519", "tel": "020 7935 4787"}, {"id": 210, "sname": "Waitrose & Partners Meanwood", "address": "Green Road", "postcode": "LS6 4RJ", "longitude": "-1.567820", "latitude": "53.828315", "tel": "01132 200966"}, {"id": 211, "sname": "Waitrose & Partners Melksham", "address": "Bath Road", "postcode": "SN12 6LP", "longitude": "-2.138789", "latitude": "51.375545", "tel": "01225 709294"}, {"id": 212, "sname": "Waitrose & Partners Menai Bridge", "address": "Mona Road", "postcode": "LL59 5EA", "longitude": "-4.166358", "latitude": "53.223915", "tel": "01248 712947"}, {"id": 213, "sname": "Waitrose & Partners Mill Hill", "address": "2 Langstone Way", "postcode": "NW7 1GU", "longitude": "-0.209031", "latitude": "51.607255", "tel": "020 8371 8248"}, {"id": 214, "sname": "Waitrose & Partners Milngavie", "address": "Glasgow Road", "postcode": "G62 6JP", "longitude": "-4.316080", "latitude": "55.932690", "tel": "0141 956 3306"}, {"id": 215, "sname": "Waitrose & Partners Milton Keynes", "address": "3 Babbage Gate", "postcode": "MK10 9SU", "longitude": "-0.714295", "latitude": "52.038648", "tel": "01908 230565"}, {"id": 216, "sname": "Waitrose & Partners Monmouth", "address": "110-114 Monnow Street", "postcode": "NP25 3EQ", "longitude": "-2.718624", "latitude": "51.809944", "tel": "01600 772552"}, {"id": 217, "sname": "Waitrose & Partners Monument", "address": "41-46 King William Street", "postcode": "EC4R 9AN", "longitude": "-0.086735", "latitude": "51.509974", "tel": "02072 831726"}, {"id": 218, "sname": "Waitrose & Partners Morningside", "address": "145 Morningside Road", "postcode": "EH10 4AX", "longitude": "-3.209309", "latitude": "55.929444", "tel": "0131 447 6899"}, {"id": 219, "sname": "Waitrose & Partners Mountsorrel", "address": "Granite Way", "postcode": "LE12 7TZ", "longitude": "-1.151878", "latitude": "52.735693", "tel": "01509 415304"}, {"id": 220, "sname": "Waitrose & Partners Muswell Hill", "address": "390 Muswell Hill Broadway", "postcode": "N10 1DJ", "longitude": "-0.142442", "latitude": "51.591643", "tel": "02088 831971"}, {"id": 221, "sname": "Waitrose & Partners Nailsea", "address": "140 High Street", "postcode": "BS48 1AP", "longitude": "-2.758015", "latitude": "51.433521", "tel": "01275 812000"}, {"id": 222, "sname": "Waitrose & Partners New Malden", "address": "24-28 High Street", "postcode": "KT3 4HE", "longitude": "-0.256083", "latitude": "51.402339", "tel": "0208 9428988"}, {"id": 223, "sname": "Waitrose & Partners Newark", "address": "Ossington Way", "postcode": "NG24 1FF", "longitude": "-0.813033", "latitude": "53.079635", "tel": "01636 640404"}, {"id": 224, "sname": "Waitrose & Partners Newbury", "address": "Oxford Road", "postcode": "RG14 1NB", "longitude": "-1.329292", "latitude": "51.407117", "tel": "01635 552061"}, {"id": 225, "sname": "Waitrose & Partners Newmarket", "address": "Fred Archer Way", "postcode": "CB8 8NY", "longitude": "0.408142", "latitude": "52.246868", "tel": "01638 561728"}, {"id": 226, "sname": "Waitrose & Partners Newport", "address": "Audley Road", "postcode": "TF10 7DL", "longitude": "-2.373918", "latitude": "52.769129", "tel": "01952 811360"}, {"id": 227, "sname": "Waitrose & Partners Newton Mearns", "address": "2 Greenlaw Place", "postcode": "G77 6GW", "longitude": "-4.349241", "latitude": "55.783207", "tel": "0141 616 3144"}, {"id": 228, "sname": "Waitrose & Partners North Walsham", "address": "Cromer Road", "postcode": "NR28 0NB", "longitude": "1.368243", "latitude": "52.827186", "tel": "01692 503109"}, {"id": 229, "sname": "Waitrose & Partners Northwich", "address": "22 London Road", "postcode": "CW9 5HD", "longitude": "-2.515085", "latitude": "53.258811", "tel": "01606 333122"}, {"id": 230, "sname": "Waitrose & Partners Northwood", "address": "52 Green Lane", "postcode": "HA6 2XW", "longitude": "-0.423317", "latitude": "51.611233", "tel": "01923 820515"}, {"id": 231, "sname": "Waitrose & Partners Norwich", "address": "Eaton Centre, Church Lane", "postcode": "NR4 6NU", "longitude": "1.251195", "latitude": "52.607900", "tel": "01603 458114"}, {"id": 232, "sname": "Waitrose & Partners Notting Hill Gate", "address": "123-138 Notting Hill Gate", "postcode": "W11 3QG", "longitude": "-0.199821", "latitude": "51.508796", "tel": "02072 219746"}, {"id": 233, "sname": "Waitrose & Partners Nottingham - Trinity Square", "address": "31 Milton Street", "postcode": "NG1 4AF", "longitude": "-1.148900", "latitude": "52.955885", "tel": "01159 419289"}, {"id": 234, "sname": "Waitrose & Partners Oadby", "address": "36 Harborough Road", "postcode": "LE2 4LA", "longitude": "-1.081307", "latitude": "52.600210", "tel": "0116 2720808"}, {"id": 235, "sname": "Waitrose & Partners Oakgrove-Milton Keynes", "address": "3 Babbage Gate", "postcode": "MK10 9SU", "longitude": "-0.714295", "latitude": "52.038648", "tel": "01908 230565"}, {"id": 236, "sname": "Waitrose & Partners Okehampton", "address": "School Way", "postcode": "EX20 1WL", "longitude": "-4.004084", "latitude": "50.740446", "tel": "01837 659008"}, {"id": 237, "sname": "Waitrose & Partners Old Brompton Road", "address": "99 - 103 Old Brompton Road", "postcode": "SW7 3RD", "longitude": "-0.179164", "latitude": "51.491976", "tel": "02075 815769"}, {"id": 238, "sname": "Waitrose & Partners Otley", "address": "60 Westgate", "postcode": "LS21 3AS", "longitude": "-1.696192", "latitude": "53.904926", "tel": "01943 468467"}, {"id": 239, "sname": "Waitrose & Partners Oundle", "address": "66 East Road", "postcode": "PE8 4BZ", "longitude": "-0.464857", "latitude": "52.483122", "tel": "01832274696"}, {"id": 240, "sname": "Waitrose & Partners Oxford Botley Road", "address": "Botley Road", "postcode": "OX2 0HH", "longitude": "-1.279380", "latitude": "51.752670", "tel": "01865 202043"}, {"id": 241, "sname": "Waitrose & Partners Oxford Street - JL Foodhall", "address": "John Lewis, 300 Oxford Street", "postcode": "W1A 1EX", "longitude": "-0.112042", "latitude": "51.524565", "tel": "0203 073 0504"}, {"id": 242, "sname": "Waitrose & Partners Oxted", "address": "159 Station Road East", "postcode": "RH8 0QE", "longitude": "-0.004629", "latitude": "51.258378", "tel": "01883 715740"}, {"id": 243, "sname": "Waitrose & Partners Paddock Wood", "address": "Church Road", "postcode": "TN12 6EX", "longitude": "0.393733", "latitude": "51.179877", "tel": "01892 836647"}, {"id": 244, "sname": "Waitrose & Partners Parkstone", "address": "311-313 Ashley Road", "postcode": "BH14 0AP", "longitude": "-1.939931", "latitude": "50.728747", "tel": "01202 718051"}, {"id": 245, "sname": "Waitrose & Partners Parsons Green", "address": "Heathmans Road", "postcode": "SW6 4TH", "longitude": "-0.201251", "latitude": "51.474314", "tel": "02077 315427"}, {"id": 246, "sname": "Waitrose & Partners Peterborough", "address": "Mayors Walk", "postcode": "PE1 2AD", "longitude": "-0.250532", "latitude": "52.577169", "tel": "01733 554945"}, {"id": 247, "sname": "Waitrose & Partners Petersfield", "address": "8 Rams Walk", "postcode": "GU32 3JA", "longitude": "-0.936701", "latitude": "51.004364", "tel": "01730 233339"}, {"id": 248, "sname": "Waitrose & Partners Petts Wood", "address": "52 Queensway, Petts Wood, Orpington", "postcode": "BR5 1EA", "longitude": "0.075412", "latitude": "51.386631", "tel": "01689 873031"}, {"id": 249, "sname": "Waitrose & Partners Pimlico", "address": "19-21 Warwick Way, Pimlico", "postcode": "SW1V 1QT", "longitude": "-0.139468", "latitude": "51.492549", "tel": "02078 285112"}, {"id": 250, "sname": "Waitrose & Partners Ponteland", "address": "27 Main Street", "postcode": "NE20 9NH", "longitude": "-1.742564", "latitude": "55.049668", "tel": "01661 823900"}, {"id": 251, "sname": "Waitrose & Partners Pontprennau (Cardiff)", "address": "Croescadarn Close", "postcode": "CF23 8AN", "longitude": "-3.137916", "latitude": "51.530294", "tel": "029 2073 5545"}, {"id": 252, "sname": "Waitrose & Partners Portishead", "address": "Harbour Road", "postcode": "BS20 7DE", "longitude": "-2.763612", "latitude": "51.485968", "tel": "01275 847907"}, {"id": 253, "sname": "Waitrose & Partners Portman Square", "address": "12 BAKER STREET", "postcode": "W1U 3AA", "longitude": "-0.154967", "latitude": "51.516932", "tel": "0207 935 2805"}, {"id": 254, "sname": "Waitrose & Partners Poundbury", "address": "Queen Mother Square", "postcode": "DT1 3BW", "longitude": "-2.466930", "latitude": "50.715299", "tel": "01305 250938"}, {"id": 255, "sname": "Waitrose & Partners Poynton", "address": "Park Lane", "postcode": "SK12 1RD", "longitude": "-2.119714", "latitude": "53.348950", "tel": "01625 858033"}, {"id": 256, "sname": "Waitrose & Partners Putney", "address": "Putney Exchange Shopping Centre, High Street", "postcode": "SW15 1TW", "longitude": "-0.216481", "latitude": "51.463729", "tel": "020 8246 6848"}, {"id": 257, "sname": "Waitrose & Partners Ramsgate", "address": "Queen Street", "postcode": "CT11 9EJ", "longitude": "1.416949", "latitude": "51.332671", "tel": "01843 583107"}, {"id": 258, "sname": "Waitrose & Partners Raynes Park", "address": "Coombe  Lane", "postcode": "SW20 0BS", "longitude": "-0.234012", "latitude": "51.408987", "tel": "020 8944 8035"}, {"id": 259, "sname": "Waitrose & Partners Reading", "address": "980 Oxford Road", "postcode": "RG30 6WR", "longitude": "-1.019142", "latitude": "51.465726", "tel": "0118 9422444"}, {"id": 260, "sname": "Waitrose & Partners Red Houses Jersey", "address": "Red Houses", "postcode": "JE3 8LB", "longitude": null, "latitude": null, "tel": "01534 888349"}, {"id": 261, "sname": "Waitrose & Partners Richmond", "address": "4-10 Sheen Road", "postcode": "TW9 1AE", "longitude": "-0.301404", "latitude": "51.462337", "tel": "020 8948 6288"}, {"id": 262, "sname": "Waitrose & Partners Rickmansworth", "address": "Homestead Road", "postcode": "WD3 1FX", "longitude": "-0.472249", "latitude": "51.640703", "tel": "01923 718595"}, {"id": 263, "sname": "Waitrose & Partners Ringwood", "address": "The Furlong", "postcode": "BH24 1AT", "longitude": "-1.793270", "latitude": "50.847353", "tel": "01425 477729"}, {"id": 264, "sname": "Waitrose & Partners Roehampton", "address": "237-239 Roehampton Lane", "postcode": "SW15 4LB", "longitude": "-0.238889", "latitude": "51.449446", "tel": "0208 7852056"}, {"id": 265, "sname": "Waitrose & Partners Rohais Guernsey", "address": "Rohais", "postcode": "GY1 1FG", "longitude": null, "latitude": null, "tel": "01481 729888"}, {"id": 266, "sname": "Waitrose & Partners Romsey", "address": "32 Alma Road", "postcode": "SO51 8AS", "longitude": "-1.496818", "latitude": "50.989998", "tel": "01794 523617"}, {"id": 267, "sname": "Waitrose & Partners Ruislip", "address": "9 Kingsend", "postcode": "HA4 7DS", "longitude": "-0.423038", "latitude": "51.571358", "tel": "01895 631544"}, {"id": 268, "sname": "Waitrose & Partners Rushden", "address": "Crown Park", "postcode": "NN10 6AR", "longitude": "-0.619588", "latitude": "52.299379", "tel": "01933 355099"}, {"id": 269, "sname": "Waitrose & Partners Rustington", "address": "Broadmark Lane", "postcode": "BN16 2NE", "longitude": "-0.504887", "latitude": "50.810181", "tel": "01903 778 772"}, {"id": 270, "sname": "Waitrose & Partners Saffron Walden", "address": "Hill Street", "postcode": "CB10 1EH", "longitude": "0.241936", "latitude": "52.023028", "tel": "01799 525724"}, {"id": 271, "sname": "Waitrose & Partners Salisbury", "address": "Churchill Way West", "postcode": "SP2 7TS", "longitude": "-1.801853", "latitude": "51.076060", "tel": "01722 329429"}, {"id": 272, "sname": "Waitrose & Partners Saltash", "address": "Tamar View", "postcode": "PL12 6LD", "longitude": "-4.233760", "latitude": "50.421424", "tel": "01752 849067"}, {"id": 273, "sname": "Waitrose & Partners Sandbach", "address": "Flat Lane", "postcode": "CW11 4BE", "longitude": "-2.363342", "latitude": "53.142604", "tel": "01270 766777"}, {"id": 274, "sname": "Waitrose & Partners Sanderstead", "address": "87 Limpsfield Rd", "postcode": "CR2 9LE", "longitude": "-0.075225", "latitude": "51.331891", "tel": "020 8916 0757"}, {"id": 275, "sname": "Waitrose & Partners Sandhurst", "address": "390-398 Yorktown Road", "postcode": "GU47 0PU", "longitude": "-0.778368", "latitude": "51.341129", "tel": "01276 38824"}, {"id": 276, "sname": "Waitrose & Partners Saxmundham", "address": "Church Street", "postcode": "IP17 1EP", "longitude": "1.493146", "latitude": "52.213330", "tel": "01728 603004"}, {"id": 277, "sname": "Waitrose & Partners Sevenoaks", "address": "126 High Street", "postcode": "TN13 1XA", "longitude": "0.192936", "latitude": "51.271680", "tel": "01732 453354"}, {"id": 278, "sname": "Waitrose & Partners Sheffield", "address": "1-3 Ecclesall Rd", "postcode": "S11 8HY", "longitude": "-1.480199", "latitude": "53.372869", "tel": "01142 722027"}, {"id": 279, "sname": "Waitrose & Partners Sherborne", "address": "Cheap Street", "postcode": "DT9 3BA", "longitude": "-2.515432", "latitude": "50.947537", "tel": "01935389490"}, {"id": 280, "sname": "Waitrose & Partners Shrewsbury", "address": "27 Pride Hill", "postcode": "SY1 1DP", "longitude": "-2.752666", "latitude": "52.708699", "tel": "01743 289220"}, {"id": 281, "sname": "Waitrose & Partners Sidcup", "address": "1/3 High Street", "postcode": "DA14 6EN", "longitude": "0.104958", "latitude": "51.425440", "tel": "02083 095722"}, {"id": 282, "sname": "Waitrose & Partners Sidmouth", "address": "Stowford Rise", "postcode": "EX10 9GA", "longitude": "-3.244277", "latitude": "50.700078", "tel": "01395 519416"}, {"id": 283, "sname": "Waitrose & Partners Solihull", "address": "29 Homer Road", "postcode": "B91 3QG", "longitude": "-1.783770", "latitude": "52.413703", "tel": "0121 704 0455"}, {"id": 284, "sname": "Waitrose & Partners South Bank Tower", "address": "92-96 High Road", "postcode": "E18 2NA", "longitude": "0.022465", "latitude": "51.595316", "tel": "020 8989 0022"}, {"id": 285, "sname": "Waitrose & Partners South Bank Tower", "address": "Unit 10b", "postcode": "SE1 9LS", "longitude": "-0.106758", "latitude": "51.507394", "tel": "020792 80672"}, {"id": 286, "sname": "Waitrose & Partners South Harrow", "address": "92-96 High Road", "postcode": "E18 2NA", "longitude": "0.022465", "latitude": "51.595316", "tel": "020 8989 0022"}, {"id": 287, "sname": "Waitrose & Partners South Harrow", "address": "140 Northolt Road", "postcode": "HA2 0EG", "longitude": "-0.352161", "latitude": "51.567669", "tel": "020 8423 1955"}, {"id": 288, "sname": "Waitrose & Partners South Woodford", "address": "92-96 High Road", "postcode": "E18 2NA", "longitude": "0.022465", "latitude": "51.595316", "tel": "020 8989 0022"}, {"id": 289, "sname": "Waitrose & Partners Southampton", "address": "121/131 Portswood Road", "postcode": "SO17 2FX", "longitude": "-1.395022", "latitude": "50.923808", "tel": "023 8067 9890"}, {"id": 290, "sname": "Waitrose & Partners Southampton - John Lewis", "address": "West Quay Shopping Centre, Southampton", "postcode": "SO15 1QA", "longitude": "-1.407760", "latitude": "50.904423", "tel": "02380 216400"}, {"id": 291, "sname": "Waitrose & Partners Southend-on-Sea", "address": "Fossetts Way, Eastern Avenue", "postcode": "SS2 4DQ", "longitude": "0.724546", "latitude": "51.555868", "tel": "01702 603403"}, {"id": 292, "sname": "Waitrose & Partners Southsea", "address": "Marmion Road", "postcode": "PO5 2EJ", "longitude": "-1.087027", "latitude": "50.785882", "tel": "023 9287 3584"}, {"id": 293, "sname": "Waitrose & Partners St Albans", "address": "1 Ermine Close, Mayne Avenue", "postcode": "AL3 4JZ", "longitude": "-0.360512", "latitude": "51.746431", "tel": "01727 831117"}, {"id": 294, "sname": "Waitrose & Partners St Helier Jersey", "address": "La Vallee Des Vaux", "postcode": "JE2 3GA", "longitude": null, "latitude": null, "tel": "01534 888201"}, {"id": 295, "sname": "Waitrose & Partners St Ives", "address": "Station Road", "postcode": "PE27 5BW", "longitude": "-0.068892", "latitude": "52.322643", "tel": "01480 492949"}, {"id": 296, "sname": "Waitrose & Partners St Katharine Docks", "address": "Thomas More Street", "postcode": "E1W 1YY", "longitude": "-0.067298", "latitude": "51.506878", "tel": "0207 7021640"}, {"id": 297, "sname": "Waitrose & Partners St Neots", "address": "Priory Lane", "postcode": "PE19 2BH", "longitude": "-0.271950", "latitude": "52.228551", "tel": "01480 473372"}, {"id": 298, "sname": "Waitrose & Partners St Saviour Jersey", "address": "Rue des Pres", "postcode": "JE2 7PN", "longitude": null, "latitude": null, "tel": "01534 280168"}, {"id": 299, "sname": "Waitrose & Partners Stamford", "address": "West Street", "postcode": "PE9 2PR", "longitude": "-0.485526", "latitude": "52.651649", "tel": "01780 759136"}, {"id": 300, "sname": "Waitrose & Partners Stevenage", "address": "74a High Street", "postcode": "SG1 3EH", "longitude": "-0.208520", "latitude": "51.911158", "tel": "01438 354334"}, {"id": 301, "sname": "Waitrose & Partners Stirling", "address": "Waitrose Ltd", "postcode": "FK7 7GX", "longitude": "-3.933257", "latitude": "56.113887", "tel": "01786 464021"}, {"id": 302, "sname": "Waitrose & Partners Storrington", "address": "Old Mill Square", "postcode": "RH20 4NQ", "longitude": "-0.451977", "latitude": "50.918173", "tel": "01903 741210"}, {"id": 303, "sname": "Waitrose & Partners Stourbridge", "address": "Ryemarket", "postcode": "DY8 1HJ", "longitude": "-2.146537", "latitude": "52.455954", "tel": "01384 378209"}, {"id": 304, "sname": "Waitrose & Partners Stratford City", "address": "The Arcade", "postcode": "E20 1EH", "longitude": "-0.006639", "latitude": "51.543594", "tel": "020 8534 3986"}, {"id": 305, "sname": "Waitrose & Partners Stratford-upon-Avon", "address": "The Rosebird Centre", "postcode": "CV37 8LU", "longitude": "-1.698599", "latitude": "52.179477", "tel": "01789 263465"}, {"id": 306, "sname": "Waitrose & Partners Stroud", "address": "London Road", "postcode": "GL5 2AP", "longitude": "-2.211455", "latitude": "51.741367", "tel": "01453 757067"}, {"id": 307, "sname": "Waitrose & Partners Sudbury", "address": "Station Road", "postcode": "CO10 2SS", "longitude": "0.731648", "latitude": "52.036891", "tel": "01787880373"}, {"id": 308, "sname": "Waitrose & Partners Sunningdale", "address": "London Road", "postcode": "SL5 0HD", "longitude": "-0.633640", "latitude": "51.391595", "tel": "01344 872770"}, {"id": 309, "sname": "Waitrose & Partners Surbiton", "address": "15a Claremont Road", "postcode": "KT6 4QR", "longitude": "-0.304573", "latitude": "51.393717", "tel": "020 8399 4020"}, {"id": 310, "sname": "Waitrose & Partners Swaffham", "address": "Castle Acre Road", "postcode": "PE37 7HT", "longitude": "0.683974", "latitude": "52.655715", "tel": "01760 336307"}, {"id": 311, "sname": "Waitrose & Partners Swindon", "address": "Mill Lane", "postcode": "SN1 7BX", "longitude": "-1.807138", "latitude": "51.544828", "tel": "01793 874273"}, {"id": 312, "sname": "Waitrose & Partners Teignmouth", "address": "Lower Brook Street", "postcode": "TQ14 8HR", "longitude": "-3.495160", "latitude": "50.546827", "tel": "01626772518"}, {"id": 313, "sname": "Waitrose & Partners Temple Fortune", "address": "32-39 Temple Fortune Parade", "postcode": "NW11 0QS", "longitude": "-0.199908", "latitude": "51.583060", "tel": "020 8458 6645"}, {"id": 314, "sname": "Waitrose & Partners Tenterden", "address": "10 Sayers Lane", "postcode": "TN30 6BW", "longitude": "0.688643", "latitude": "51.068343", "tel": "01580 765168"}, {"id": 315, "sname": "Waitrose & Partners Thame", "address": "Greyhound Lane", "postcode": "OX9 3ZD", "longitude": "-0.977681", "latitude": "51.749019", "tel": "01844 260360"}, {"id": 316, "sname": "Waitrose & Partners Thatcham", "address": "48-53 The Broadway", "postcode": "RG19 3HN", "longitude": "-1.256786", "latitude": "51.402759", "tel": "01635 868113"}, {"id": 317, "sname": "Waitrose & Partners Tonbridge", "address": "Sovereign Way", "postcode": "TN9 1RG", "longitude": "0.276223", "latitude": "51.194257", "tel": "01732 358964"}, {"id": 318, "sname": "Waitrose & Partners Torquay", "address": "St Marychurch Road", "postcode": "TQ1 3HL", "longitude": "-3.528001", "latitude": "50.476812", "tel": "01803 329130"}, {"id": 319, "sname": "Waitrose & Partners Towcester", "address": "Richmond Road", "postcode": "NN12 6HZ", "longitude": "-0.989163", "latitude": "52.130210", "tel": "01327 354994"}, {"id": 320, "sname": "Waitrose & Partners Truro", "address": "Tregurra Park", "postcode": "TR1 1RH", "longitude": "-5.036674", "latitude": "50.272557", "tel": "01872 225861"}, {"id": 321, "sname": "Waitrose & Partners Tubbs Hill", "address": "Tubs Hill", "postcode": "TN13 1DH", "longitude": "0.183644", "latitude": "51.276485", "tel": "01732 465298"}, {"id": 322, "sname": "Waitrose & Partners Twickenham", "address": "50 London Road", "postcode": "TW1 3RJ", "longitude": "-0.328809", "latitude": "51.448298", "tel": "020 8891 4421"}, {"id": 323, "sname": "Waitrose & Partners Twyford", "address": "London Road", "postcode": "RG10 9EH", "longitude": "-0.866374", "latitude": "51.477873", "tel": "0118 9344646"}, {"id": 324, "sname": "Waitrose & Partners Uckfield", "address": "96-98 High Street", "postcode": "TN22 1PU", "longitude": "0.096163", "latitude": "50.969323", "tel": "01825 763221"}, {"id": 325, "sname": "Waitrose & Partners Upminster", "address": "218 St Marys Lane", "postcode": "RM14 3BT", "longitude": "0.252052", "latitude": "51.556179", "tel": "01708 224444"}, {"id": 326, "sname": "Waitrose & Partners Uttoxeter", "address": "Trinty Road", "postcode": "ST14 8AQ", "longitude": "-1.863363", "latitude": "52.896230", "tel": "01889565765"}, {"id": 327, "sname": "Waitrose & Partners Vauxhall", "address": "3 Bond Way", "postcode": "SW8 1SJ", "longitude": "-0.124111", "latitude": "51.484859", "tel": "02070 910892"}, {"id": 328, "sname": "Waitrose & Partners Victoria Street", "address": "62 Victoria Street", "postcode": "SW1E 6QP", "longitude": "-0.137377", "latitude": "51.497552", "tel": "02078 218859"}, {"id": 329, "sname": "Waitrose & Partners Victoria - Bressenden Place", "address": "Waitrose Ltd", "postcode": "SW1E 5DH", "longitude": "-0.142601", "latitude": "51.498149", "tel": "0207 834 6618"}, {"id": 330, "sname": "Waitrose & Partners Walbrook", "address": "Little Waitrose", "postcode": "EC4N 8AF", "longitude": "-0.090177", "latitude": "51.512154", "tel": "020 7929 4818"}, {"id": 331, "sname": "Waitrose & Partners Wallingford", "address": "1 St Martin's Street", "postcode": "OX10 0EF", "longitude": "-1.125362", "latitude": "51.600722", "tel": "01491 832030"}, {"id": 332, "sname": "Waitrose & Partners Walton-le-Dale", "address": "Capitol Centre", "postcode": "PR5 4AW", "longitude": "-2.679119", "latitude": "53.748810", "tel": "01772 886066"}, {"id": 333, "sname": "Waitrose & Partners Wandsworth", "address": "66/67 Southside Shopping Centre", "postcode": "SW18 4TG", "longitude": "-0.194179", "latitude": "51.455133", "tel": "020 8870 4933"}, {"id": 334, "sname": "Waitrose & Partners Wantage", "address": "17 Wallingford Street", "postcode": "OX12 8BD", "longitude": "-1.424919", "latitude": "51.588841", "tel": "01235 772313"}, {"id": 335, "sname": "Waitrose & Partners Warminster", "address": "Station Road", "postcode": "BA12 9BR", "longitude": "-2.177745", "latitude": "51.205281", "tel": "01985 848441"}, {"id": 336, "sname": "Waitrose & Partners Waterlooville", "address": "Dukes Walk, Stakes Hill Road", "postcode": "PO7 7HS", "longitude": "-1.030421", "latitude": "50.879355", "tel": "02392 232012"}, {"id": 337, "sname": "Waitrose & Partners Watford - John Lewis", "address": "Intu Watford", "postcode": "WD17 2TW", "longitude": "-0.392278", "latitude": "51.654612", "tel": "01923287906 - 5106/5456/5880"}, {"id": 338, "sname": "Waitrose & Partners Wellington", "address": "34 - 46  High Street", "postcode": "TA21 8RD", "longitude": "-3.225686", "latitude": "50.979792", "tel": "01823 663577"}, {"id": 339, "sname": "Waitrose & Partners Wells", "address": "Whiting Way", "postcode": "BA5 2PJ", "longitude": "-2.650273", "latitude": "51.209474", "tel": "01749 672570"}, {"id": 340, "sname": "Waitrose & Partners Welwyn Garden City", "address": "Bridge Road", "postcode": "AL8 6AB", "longitude": "-0.204346", "latitude": "51.803595", "tel": "01707 373400"}, {"id": 341, "sname": "Waitrose & Partners West Byfleet", "address": "60 Station Approach", "postcode": "KT14 6NE", "longitude": "-0.506062", "latitude": "51.338710", "tel": "01932 351028"}, {"id": 342, "sname": "Waitrose & Partners West Ealing", "address": "2 Alexandria Road", "postcode": "W13 0NL", "longitude": "-0.321978", "latitude": "51.513117", "tel": "0208 579 0991"}, {"id": 343, "sname": "Waitrose & Partners West Hampstead", "address": "319 West End Lane", "postcode": "NW6 1RN", "longitude": "-0.192784", "latitude": "51.551510", "tel": "020 7794 2368"}, {"id": 344, "sname": "Waitrose & Partners West Kensington", "address": "116 - 128 North End Road", "postcode": "W14 9PP", "longitude": "-0.205255", "latitude": "51.488602", "tel": "02030 800170"}, {"id": 345, "sname": "Waitrose & Partners Westbury Park", "address": "51 Northumbria Drive", "postcode": "BS9 4HN", "longitude": "-2.612402", "latitude": "51.480589", "tel": "0117 9624244"}, {"id": 346, "sname": "Waitrose & Partners Westfield London (White City)", "address": "Westfield London", "postcode": "W12 7GA", "longitude": "-0.223647", "latitude": "51.508055", "tel": "020 8749 1201"}, {"id": 347, "sname": "Waitrose & Partners Weston Super Mare", "address": "2 Phillips Road", "postcode": "BS23 3UZ", "longitude": "-2.958139", "latitude": "51.341378", "tel": "01934 416800"}, {"id": 348, "sname": "Waitrose & Partners Weybridge", "address": "62 High Street", "postcode": "KT13 8BL", "longitude": "-0.456875", "latitude": "51.373618", "tel": "01932 858077"}, {"id": 349, "sname": "Waitrose & Partners Whetstone", "address": "1305 High Road", "postcode": "N20 9HX", "longitude": "-0.175629", "latitude": "51.631259", "tel": "020 8446 0323"}, {"id": 350, "sname": "Waitrose & Partners Willerby", "address": "Beverley Road", "postcode": "HU10 6EB", "longitude": "-0.455239", "latitude": "53.764038", "tel": "01482 655266"}, {"id": 351, "sname": "Waitrose & Partners Wilmslow", "address": "Church Street", "postcode": "SK9 1AY", "longitude": "-2.229443", "latitude": "53.328422", "tel": "01625 538831"}, {"id": 352, "sname": "Waitrose & Partners Wimbledon", "address": "Alexandra Road", "postcode": "SW19 7JY", "longitude": "-0.202204", "latitude": "51.424780", "tel": "020 8947 9619"}, {"id": 353, "sname": "Waitrose & Partners Wimbledon Hill", "address": "2 Wimbledon Hill Road", "postcode": "SW19 7NS", "longitude": "-0.207520", "latitude": "51.421003", "tel": "02089 475551"}, {"id": 354, "sname": "Waitrose & Partners Wimborne", "address": "Rowlands Hill", "postcode": "BH21 1AN", "longitude": "-1.982289", "latitude": "50.799775", "tel": "01202 840157"}, {"id": 355, "sname": "Waitrose & Partners Winchester", "address": "Stockbridge Road", "postcode": "SO22 6EL", "longitude": "-1.336797", "latitude": "51.074249", "tel": "01962 868544"}, {"id": 356, "sname": "Waitrose & Partners Winchmore Hill", "address": "889 Green lanes", "postcode": "N21 2QP", "longitude": "-0.093169", "latitude": "51.635326", "tel": "0208 360 3373"}, {"id": 357, "sname": "Waitrose & Partners Windsor", "address": "King Edward Court", "postcode": "SL4 1TG", "longitude": "-0.610614", "latitude": "51.482208", "tel": "01753 860565"}, {"id": 358, "sname": "Waitrose & Partners Winton", "address": "345 Wimborne Road", "postcode": "BH9 2AD", "longitude": "-1.879047", "latitude": "50.740705", "tel": "01202 522200"}, {"id": 359, "sname": "Waitrose & Partners Witney", "address": "25 Woolgate Centre, Market Square", "postcode": "OX28 6AR", "longitude": "-1.483448", "latitude": "51.784817", "tel": "01993 778411"}, {"id": 360, "sname": "Waitrose & Partners Wokingham", "address": "Rectory Road", "postcode": "RG40 1BB", "longitude": "-0.833588", "latitude": "51.411668", "tel": "0118 9771699"}, {"id": 361, "sname": "Waitrose & Partners Wollaton", "address": "110 Trowell Road", "postcode": "NG8 2DH", "longitude": "-1.229522", "latitude": "52.955965", "tel": "0115 985 5055"}, {"id": 362, "sname": "Waitrose & Partners Wolverhampton", "address": "Penn Road", "postcode": "WV2 4NJ", "longitude": "-2.132816", "latitude": "52.574227", "tel": "01902 420115"}, {"id": 363, "sname": "Waitrose & Partners Woodley", "address": "108 Crockhamwell Road", "postcode": "RG5 3JW", "longitude": "-0.905502", "latitude": "51.451809", "tel": "0118 9690438"}, {"id": 364, "sname": "Waitrose & Partners Wootton", "address": "Newport Pagnell Road", "postcode": "NN4 6HP", "longitude": "-0.892305", "latitude": "52.210308", "tel": "01604708448"}, {"id": 365, "sname": "Waitrose & Partners Worcester", "address": "223 London Road", "postcode": "WR5 2JG", "longitude": "-2.194486", "latitude": "52.182355", "tel": "01905 352071"}, {"id": 366, "sname": "Waitrose & Partners Worcester Park", "address": "Stone Place", "postcode": "KT4 8DX", "longitude": "-0.243560", "latitude": "51.378196", "tel": "02083 307582"}, {"id": 367, "sname": "Waitrose & Partners Worthing", "address": "High Street", "postcode": "BN11 1LL", "longitude": "-0.367748", "latitude": "50.813757", "tel": "01903 230222"}, {"id": 368, "sname": "Waitrose & Partners Wymondham", "address": "Norwich Road", "postcode": "NR18 0SH", "longitude": "1.123725", "latitude": "52.575198", "tel": "01953 607772"}, {"id": 369, "sname": "Waitrose & Partners Yateley", "address": "Tresham Crescent", "postcode": "GU46 6FR", "longitude": "-0.846275", "latitude": "51.338895", "tel": "01252 861888"}, {"id": 370, "sname": "Waitrose & Partners York", "address": "Foss Islands Road", "postcode": "YO31 7UL", "longitude": "-1.069846", "latitude": "53.956725", "tel": "01904 653563"}]